{"type":"FeatureCollection","features":[{"type":"Feature","properties":{"ref":"I-495","source":"OpenStreetMap contributors, ODbL"},"geometry":{"type":"MultiLineString","coordinates":[[[-71.3782,42.05649],[-71.37838,42.05655],[-71.3788,42.05671],[-71.37918,42.05684],[-71.37965,42.05699],[-71.38093,42.05743],[-71.3817,42.05769],[-71.38363,42.05833]],[[-71.42522,42.08726],[-71.42498,42.08691],[-71.42489,42.08678],[-71.42456,42.08625],[-71.42409,42.0854],[-71.42378,42.08479],[-71.42339,42.08398],[-71.42292,42.08296],[-71.42252,42.08221],[-71.42208,42.08144],[-71.42184,42.08104]],[[-71.53482,42.18962],[-71.53484,42.18967],[-71.53509,42.19018],[-71.53526,42.19057],[-71.53532,42.19073],[-71.53541,42.19096],[-71.53547,42.19109],[-71.53561,42.19147],[-71.53575,42.19187],[-71.53584,42.19213],[-71.53592,42.19239],[-71.53596,42.19252],[-71.53682,42.19584],[-71.5369,42.1961],[-71.53697,42.19637],[-71.53723,42.19715],[-71.53728,42.19729],[-71.53737,42.19755],[-71.53742,42.19768],[-71.53757,42.19806],[-71.53774,42.19845],[-71.53779,42.19858],[-71.53797,42.19896],[-71.53809,42.19922],[-71.53822,42.19947],[-71.53842,42.19985],[-71.53855,42.2001],[-71.53869,42.20035],[-71.53891,42.20072],[-71.53906,42.20097],[-71.53967,42.20195],[-71.53976,42.20209],[-71.54013,42.20268],[-71.54043,42.20317],[-71.54059,42.20342],[-71.54066,42.20354],[-71.5408,42.20379],[-71.54102,42.20417],[-71.54121,42.20454],[-71.54134,42.20479],[-71.54148,42.20506]],[[-71.47619,42.13169],[-71.47637,42.13209],[-71.47642,42.1322],[-71.47655,42.1325],[-71.4767,42.1328],[-71.47684,42.13309],[-71.47697,42.13338],[-71.4771,42.13364],[-71.47745,42.13441],[-71.47756,42.13466],[-71.47768,42.13492],[-71.47779,42.13517],[-71.47793,42.13546],[-71.47832,42.13618],[-71.47836,42.13627],[-71.47844,42.13642]],[[-71.47848,42.13402],[-71.47839,42.13384],[-71.47818,42.13343],[-71.47794,42.13298],[-71.47754,42.13219],[-71.47722,42.13155]],[[-71.47844,42.13642],[-71.47849,42.13651],[-71.47863,42.13676],[-71.47878,42.13702],[-71.47892,42.13726],[-71.48028,42.13943],[-71.48143,42.14125],[-71.48167,42.14164],[-71.48179,42.14183],[-71.48191,42.14203],[-71.48203,42.14223],[-71.48214,42.14243],[-71.48225,42.14263],[-71.48236,42.14284],[-71.48246,42.14304],[-71.48256,42.14324],[-71.48266,42.14344]],[[-71.50858,42.16616],[-71.50846,42.1661],[-71.50762,42.16575],[-71.50636,42.16525],[-71.50546,42.16487],[-71.50449,42.16449],[-71.50365,42.16415],[-71.50177,42.1634],[-71.50106,42.16311],[-71.50029,42.1628],[-71.49956,42.16251],[-71.49904,42.1623],[-71.49817,42.16194],[-71.49737,42.1616],[-71.49656,42.16123],[-71.49586,42.16088],[-71.49517,42.16051],[-71.49441,42.16008],[-71.49388,42.15975],[-71.49277,42.15902],[-71.49232,42.15869],[-71.49192,42.15838],[-71.49135,42.15792],[-71.49089,42.15754],[-71.49014,42.15686],[-71.48972,42.15645],[-71.48939,42.1561],[-71.489,42.15567],[-71.48857,42.15514],[-71.48842,42.15496],[-71.4883,42.15481]],[[-71.46406,42.11155],[-71.46345,42.11097],[-71.46319,42.11073],[-71.46236,42.11002],[-71.4615,42.10934],[-71.46104,42.10899],[-71.46053,42.10863],[-71.46002,42.10828],[-71.45898,42.10761],[-71.45823,42.10717],[-71.45801,42.10705],[-71.45743,42.10674],[-71.45705,42.10654],[-71.45656,42.1063],[-71.45604,42.10606],[-71.45492,42.10556],[-71.45448,42.10538],[-71.45402,42.10518],[-71.4532,42.10488],[-71.45227,42.10456],[-71.45123,42.10425],[-71.45029,42.10399],[-71.4492,42.1037],[-71.44868,42.10357],[-71.44811,42.10342],[-71.44764,42.10331],[-71.44674,42.10306],[-71.44645,42.10297]],[[-71.46253,42.11105],[-71.46316,42.11164],[-71.46402,42.11253],[-71.46518,42.11386],[-71.46587,42.11466],[-71.46669,42.11561],[-71.46731,42.11631],[-71.46753,42.11657],[-71.46803,42.11715],[-71.46829,42.11747],[-71.46851,42.11776],[-71.4686,42.11787],[-71.46914,42.11863],[-71.4692,42.11873],[-71.46953,42.11923],[-71.46963,42.11937],[-71.46972,42.11952],[-71.47008,42.12012],[-71.4703,42.12054],[-71.4706,42.12112],[-71.47073,42.12138],[-71.4708,42.12154],[-71.47119,42.1224],[-71.47141,42.12287],[-71.47162,42.1234],[-71.47187,42.12397],[-71.47197,42.12417],[-71.47207,42.12438],[-71.47238,42.12498],[-71.47248,42.12515],[-71.47259,42.12537],[-71.47284,42.12583],[-71.47326,42.12655],[-71.47372,42.1273],[-71.47375,42.12736],[-71.47381,42.12744],[-71.47395,42.12766],[-71.47406,42.12785],[-71.4743,42.12823],[-71.47468,42.12885],[-71.47487,42.12915],[-71.47501,42.1294],[-71.47516,42.12965],[-71.4753,42.12991],[-71.47546,42.13018],[-71.4756,42.13046],[-71.47575,42.13074],[-71.47588,42.13102],[-71.47601,42.13131],[-71.47614,42.13158],[-71.47619,42.13169]],[[-71.37865,42.05572],[-71.37843,42.05563],[-71.37778,42.05539],[-71.37709,42.05515],[-71.37591,42.05469],[-71.37542,42.05452],[-71.37449,42.05417],[-71.37371,42.05386],[-71.37315,42.05363],[-71.37282,42.05349],[-71.37229,42.05326],[-71.37175,42.05302],[-71.37125,42.05279],[-71.37015,42.05223],[-71.36973,42.05202],[-71.36931,42.05178],[-71.36893,42.05157],[-71.36856,42.05137],[-71.36817,42.05114],[-71.36741,42.05068],[-71.367,42.05042],[-71.3666,42.05015],[-71.36622,42.0499],[-71.36591,42.04967],[-71.36555,42.04942],[-71.3652,42.04916],[-71.36476,42.04884],[-71.3643,42.04848],[-71.36387,42.04814],[-71.36349,42.04786],[-71.36311,42.04754],[-71.36263,42.04718],[-71.36228,42.04691],[-71.36223,42.04686],[-71.3618,42.04657],[-71.36143,42.04628],[-71.36107,42.04603],[-71.36099,42.04597],[-71.36047,42.04562],[-71.36002,42.04533],[-71.3595,42.04502],[-71.35903,42.04475],[-71.35852,42.04445],[-71.35827,42.0443],[-71.35799,42.04414],[-71.35748,42.04388],[-71.35738,42.04382],[-71.35714,42.0437],[-71.35663,42.04345],[-71.35612,42.04319],[-71.35566,42.04297],[-71.35523,42.04278],[-71.3538,42.04217],[-71.35372,42.04214],[-71.35335,42.04199],[-71.35283,42.0418],[-71.35274,42.04178],[-71.35238,42.04165],[-71.35204,42.04152],[-71.35163,42.0414],[-71.35118,42.04126],[-71.35076,42.04113],[-71.35048,42.04105],[-71.35021,42.04097],[-71.34993,42.0409],[-71.34966,42.04083],[-71.34938,42.04075],[-71.3491,42.04068],[-71.34885,42.04062]],[[-71.50855,42.1666],[-71.50902,42.16683]],[[-71.50902,42.16683],[-71.50985,42.16724],[-71.51067,42.16768],[-71.51144,42.16811],[-71.51232,42.16867],[-71.51293,42.16909],[-71.5138,42.1697],[-71.51447,42.17022],[-71.51492,42.17058],[-71.51542,42.171],[-71.51608,42.17159],[-71.5165,42.172],[-71.51692,42.17242],[-71.51744,42.17295],[-71.51786,42.1734],[-71.51848,42.17407],[-71.51954,42.1752],[-71.52007,42.17568],[-71.52051,42.17609],[-71.521,42.17651],[-71.5216,42.177],[-71.52201,42.17731],[-71.52283,42.17792],[-71.52375,42.17859],[-71.52465,42.17925],[-71.5253,42.17973],[-71.52601,42.18027],[-71.52739,42.18127],[-71.5276,42.18141]],[[-71.53589,42.18965],[-71.53585,42.18956],[-71.53564,42.18912],[-71.53552,42.18887],[-71.53546,42.18874],[-71.53533,42.18849],[-71.53507,42.18802],[-71.53494,42.1878],[-71.53468,42.18737],[-71.53454,42.18715],[-71.53433,42.1868],[-71.53387,42.18615],[-71.53365,42.18586],[-71.53334,42.18546],[-71.53307,42.18512],[-71.53275,42.18474],[-71.5324,42.18434],[-71.53204,42.18395],[-71.53147,42.18336],[-71.53017,42.18208],[-71.52935,42.18127],[-71.52885,42.18078],[-71.52871,42.18062]],[[-71.50898,42.16633],[-71.50858,42.16616]],[[-71.54661,42.21416],[-71.54642,42.21384],[-71.54637,42.21376]],[[-71.54566,42.21423],[-71.5457,42.21434],[-71.54582,42.21461]],[[-71.54632,42.21367],[-71.54565,42.21251],[-71.54538,42.21201],[-71.5451,42.21151],[-71.5447,42.21076],[-71.54463,42.21063],[-71.54416,42.20961],[-71.54411,42.20948],[-71.54382,42.20875],[-71.54344,42.2078],[-71.54201,42.20403],[-71.54185,42.20364],[-71.54174,42.20338],[-71.54156,42.203],[-71.54144,42.20275],[-71.54131,42.20249],[-71.54112,42.20211],[-71.54096,42.20183],[-71.54003,42.20011],[-71.53964,42.19936],[-71.53943,42.19898],[-71.53898,42.1981],[-71.53885,42.19784],[-71.53868,42.19746],[-71.5384,42.19682],[-71.53823,42.19643],[-71.53818,42.1963],[-71.53808,42.19604],[-71.53783,42.19539],[-71.53741,42.19408],[-71.53658,42.19145],[-71.5364,42.19093],[-71.53632,42.19069],[-71.53626,42.19053],[-71.53616,42.19028],[-71.536,42.18989],[-71.53589,42.18965]],[[-71.42555,42.08774],[-71.42531,42.0874],[-71.42522,42.08726]],[[-71.42471,42.08733],[-71.42494,42.08764]],[[-71.43138,42.0939],[-71.43216,42.09456],[-71.43279,42.09515],[-71.43361,42.09596],[-71.43363,42.09599],[-71.43412,42.09647],[-71.4346,42.0969],[-71.4351,42.09733],[-71.43581,42.09793],[-71.43642,42.09839],[-71.43676,42.09866],[-71.43721,42.09896],[-71.4378,42.09936],[-71.43841,42.09975],[-71.43923,42.10024],[-71.43974,42.10053],[-71.44038,42.10088],[-71.44107,42.10122],[-71.44233,42.10181],[-71.44292,42.10206],[-71.44413,42.10254],[-71.44504,42.10286],[-71.44521,42.10292],[-71.44597,42.10317],[-71.44639,42.1033]],[[-71.44645,42.10297],[-71.44605,42.10285],[-71.4455,42.10267],[-71.44463,42.10237],[-71.44343,42.10191],[-71.44305,42.10175],[-71.44281,42.10164],[-71.44257,42.10154],[-71.44182,42.1012],[-71.44054,42.10056],[-71.43955,42.10001],[-71.43851,42.09939],[-71.43784,42.09895],[-71.43703,42.09839],[-71.43635,42.09788],[-71.43586,42.09749],[-71.43531,42.09704],[-71.43487,42.09666],[-71.43441,42.09622],[-71.43311,42.09495]],[[-71.55111,42.23008],[-71.5511,42.22992]],[[-71.55059,42.224],[-71.55055,42.22366],[-71.55053,42.22353],[-71.55045,42.22299],[-71.55038,42.22259],[-71.55032,42.22232],[-71.55026,42.22206],[-71.55019,42.22179],[-71.55012,42.22153],[-71.55008,42.2214],[-71.54996,42.221],[-71.54975,42.22034],[-71.54966,42.22008],[-71.54957,42.21982],[-71.54946,42.21956],[-71.54935,42.2193],[-71.5493,42.21917],[-71.54913,42.21879],[-71.54901,42.21854],[-71.54869,42.21788]],[[-71.55002,42.2299],[-71.55005,42.23007],[-71.55012,42.23043],[-71.55022,42.23101],[-71.55039,42.232],[-71.55066,42.23359],[-71.55085,42.23468],[-71.551,42.23537],[-71.5511,42.23577],[-71.55127,42.23637],[-71.55135,42.23664],[-71.55145,42.23694],[-71.55157,42.23727],[-71.55177,42.23778],[-71.55185,42.23801],[-71.55196,42.23828],[-71.5521,42.23857],[-71.55223,42.23889],[-71.55239,42.23918],[-71.5525,42.2394],[-71.55294,42.24021],[-71.55321,42.24068],[-71.55347,42.24115],[-71.55383,42.2418],[-71.5542,42.24247],[-71.55464,42.24326],[-71.55483,42.24363],[-71.55518,42.24436],[-71.55534,42.24474],[-71.55548,42.2451],[-71.55564,42.24557],[-71.55584,42.24612],[-71.55593,42.2464],[-71.55599,42.24663],[-71.55656,42.24867],[-71.55672,42.24921],[-71.55696,42.25006],[-71.55732,42.25133],[-71.55742,42.25162],[-71.55751,42.25191],[-71.55761,42.25219],[-71.55772,42.25246],[-71.55781,42.25269],[-71.55799,42.25312],[-71.55818,42.25354],[-71.55827,42.25374],[-71.55833,42.25386],[-71.55842,42.25403],[-71.55847,42.25414],[-71.55857,42.25434],[-71.55873,42.25465],[-71.55888,42.2549],[-71.55904,42.25518],[-71.55912,42.25531],[-71.55926,42.25556],[-71.55934,42.25569]],[[-71.54594,42.2149],[-71.54606,42.2152],[-71.54611,42.21532],[-71.5462,42.21558],[-71.54629,42.21585],[-71.54641,42.21624],[-71.54645,42.21637],[-71.54652,42.21664],[-71.54662,42.21704],[-71.54672,42.21744],[-71.54677,42.2177],[-71.54682,42.21797],[-71.54691,42.21851],[-71.54693,42.21864],[-71.54704,42.21953],[-71.5471,42.21999],[-71.54716,42.22052],[-71.54722,42.22093],[-71.54726,42.2212],[-71.54732,42.22146],[-71.54741,42.22186],[-71.54756,42.22253],[-71.54763,42.22279],[-71.54771,42.22306],[-71.54775,42.22319],[-71.5482,42.22445],[-71.54828,42.22465],[-71.54875,42.22585],[-71.54926,42.22713],[-71.54942,42.22761],[-71.54968,42.22845],[-71.54989,42.22926],[-71.54998,42.2297]],[[-71.56444,42.26645],[-71.56432,42.26598],[-71.56424,42.26564],[-71.56418,42.26541],[-71.56411,42.26515],[-71.56403,42.26488],[-71.56393,42.26457],[-71.56384,42.26425],[-71.56374,42.26392],[-71.56361,42.2635],[-71.56345,42.26303],[-71.56322,42.26235],[-71.56301,42.26179],[-71.56271,42.26107],[-71.56251,42.26061],[-71.56167,42.25869],[-71.56103,42.25728],[-71.56071,42.25657],[-71.5603,42.25565],[-71.56006,42.25513],[-71.55977,42.25445],[-71.5594,42.25364],[-71.55921,42.25321],[-71.55905,42.25282],[-71.55896,42.25262],[-71.55887,42.25242],[-71.55867,42.25201],[-71.55858,42.2518],[-71.5584,42.25138],[-71.55831,42.25118],[-71.55823,42.25099],[-71.55815,42.25079],[-71.55787,42.25019],[-71.55778,42.24999],[-71.55769,42.24979],[-71.55761,42.24959],[-71.55753,42.24941],[-71.55746,42.24923],[-71.5574,42.24905],[-71.55734,42.24885],[-71.55722,42.24846],[-71.55693,42.24753],[-71.55681,42.24714],[-71.55671,42.24679],[-71.55659,42.24637],[-71.55637,42.24553],[-71.5561,42.24456],[-71.55598,42.24417],[-71.55587,42.24386],[-71.55576,42.24356],[-71.55564,42.24321],[-71.55549,42.24286],[-71.55531,42.24246],[-71.55512,42.24204],[-71.55477,42.24132],[-71.55454,42.24087],[-71.55377,42.23935],[-71.55339,42.23857],[-71.55293,42.23764],[-71.55273,42.23722],[-71.55254,42.2368],[-71.55236,42.23635],[-71.55211,42.23568],[-71.55196,42.23522],[-71.55183,42.23479],[-71.5517,42.23432],[-71.55159,42.23388],[-71.5514,42.23292],[-71.55134,42.23259],[-71.55129,42.23217],[-71.55125,42.23182],[-71.55121,42.2313],[-71.55115,42.2306],[-71.55111,42.23008]],[[-71.48413,42.14725],[-71.48431,42.14776]],[[-71.48431,42.14776],[-71.48508,42.14993],[-71.48515,42.15014],[-71.48522,42.15035],[-71.4853,42.15056],[-71.48538,42.15078],[-71.48545,42.15099],[-71.48553,42.1512],[-71.4856,42.15142],[-71.48569,42.15163],[-71.48577,42.15184],[-71.48586,42.15204],[-71.48595,42.15225],[-71.48605,42.15246],[-71.48615,42.15267],[-71.48625,42.15287]],[[-71.48749,42.1549],[-71.48763,42.1551],[-71.48777,42.15529]],[[-71.48484,42.14782],[-71.48466,42.14731]],[[-71.48466,42.14731],[-71.48395,42.14528],[-71.48388,42.14507],[-71.4837,42.14455],[-71.48361,42.14433],[-71.48354,42.14413],[-71.48345,42.14392],[-71.48337,42.14371],[-71.48328,42.1435],[-71.48319,42.1433],[-71.48309,42.14309],[-71.48299,42.14289],[-71.48289,42.14269],[-71.48278,42.14248],[-71.4823,42.14154],[-71.48173,42.14043],[-71.48105,42.13907],[-71.48039,42.13778],[-71.47929,42.13561],[-71.47867,42.13439],[-71.47848,42.13402]],[[-71.48801,42.15444],[-71.48792,42.15432],[-71.48783,42.1542],[-71.4877,42.15401],[-71.48756,42.15381],[-71.48743,42.15362],[-71.4873,42.15342],[-71.48718,42.15322],[-71.48705,42.15302],[-71.48697,42.15288]],[[-71.4883,42.15481],[-71.48815,42.15463],[-71.48801,42.15444]],[[-71.48777,42.15529],[-71.4879,42.15545],[-71.48804,42.15563],[-71.48865,42.15637],[-71.48916,42.15692],[-71.48942,42.15718],[-71.49046,42.15814],[-71.49108,42.15865],[-71.4917,42.15913],[-71.49214,42.15944],[-71.49288,42.15993],[-71.49368,42.16042],[-71.49437,42.16082],[-71.49505,42.16117],[-71.49571,42.16149],[-71.4965,42.16185],[-71.49794,42.16242],[-71.49954,42.16304],[-71.50275,42.1643],[-71.50356,42.16461],[-71.50387,42.16472]],[[-71.5276,42.18141],[-71.52793,42.18167]],[[-71.52871,42.18062],[-71.5285,42.18042]],[[-71.5285,42.18042],[-71.52788,42.17983],[-71.52742,42.17941],[-71.52678,42.17886],[-71.52625,42.17842],[-71.52556,42.1779],[-71.52488,42.1774],[-71.52331,42.17632],[-71.52256,42.17579],[-71.52199,42.17539],[-71.52141,42.17499],[-71.52086,42.1746],[-71.52033,42.17423],[-71.5194,42.17355],[-71.51895,42.17321],[-71.51853,42.17287]],[[-71.52793,42.18167],[-71.52806,42.18176],[-71.5285,42.1821],[-71.52913,42.18261],[-71.52955,42.18298],[-71.53006,42.18343],[-71.53058,42.18392],[-71.53113,42.18448],[-71.53142,42.18479],[-71.53197,42.18541],[-71.5324,42.18591],[-71.53275,42.18637],[-71.53314,42.18689],[-71.53348,42.18737],[-71.53383,42.18791],[-71.53409,42.1883],[-71.53418,42.18844],[-71.53431,42.18867],[-71.53452,42.18904],[-71.53465,42.18929],[-71.53482,42.18962]],[[-71.38415,42.05779],[-71.38348,42.05753]],[[-71.40874,42.0698],[-71.40826,42.06946],[-71.40617,42.06799],[-71.40565,42.06762],[-71.40492,42.0671],[-71.40454,42.06682]],[[-71.38363,42.05833],[-71.38412,42.0585]],[[-71.41187,42.07248],[-71.41246,42.07289]],[[-71.3454,42.03997],[-71.34487,42.0399]],[[-71.54998,42.2297],[-71.55002,42.2299]],[[-71.34516,42.04034],[-71.3455,42.04039],[-71.34579,42.04043],[-71.34607,42.04047],[-71.34636,42.04052],[-71.34665,42.04057],[-71.34693,42.04062],[-71.34722,42.04067],[-71.34751,42.04072],[-71.3478,42.04078],[-71.34808,42.04084],[-71.34833,42.0409]],[[-71.41268,42.07257],[-71.41219,42.07224]],[[-71.38412,42.0585],[-71.38447,42.05861],[-71.38506,42.05879],[-71.38686,42.05941],[-71.39006,42.06049],[-71.39041,42.06059],[-71.39063,42.06066],[-71.39359,42.06167],[-71.39442,42.06197],[-71.39491,42.06215],[-71.39564,42.06246],[-71.39616,42.06267]],[[-71.42144,42.08135],[-71.42165,42.08168],[-71.42196,42.08224],[-71.4223,42.08289],[-71.42354,42.08533],[-71.42391,42.08602],[-71.42424,42.08657],[-71.42444,42.08688],[-71.42461,42.08717]],[[-71.42164,42.08074],[-71.42136,42.08033],[-71.421,42.07986],[-71.42074,42.0795],[-71.41991,42.07849],[-71.41895,42.07748],[-71.41847,42.077],[-71.41772,42.07633],[-71.41703,42.07574],[-71.41634,42.07519],[-71.41461,42.07394],[-71.41325,42.07298],[-71.41307,42.07286],[-71.41268,42.07257]],[[-71.40069,42.06493],[-71.40121,42.06523]],[[-71.40161,42.06485],[-71.40117,42.0646]],[[-71.41246,42.07289],[-71.41326,42.07344],[-71.41386,42.07384],[-71.41495,42.07459],[-71.41618,42.07552],[-71.41688,42.07611],[-71.41763,42.07677],[-71.41817,42.07729],[-71.41875,42.07787],[-71.41994,42.07923],[-71.42043,42.07986],[-71.42085,42.08045],[-71.42127,42.0811]],[[-71.40121,42.06523],[-71.40159,42.06546],[-71.40344,42.06667],[-71.40412,42.06715],[-71.40463,42.06749],[-71.40571,42.06824],[-71.4064,42.0687],[-71.40694,42.06909],[-71.40842,42.07011],[-71.41187,42.07248]],[[-71.34465,42.04028],[-71.34516,42.04034]],[[-71.38348,42.05753],[-71.38301,42.05735],[-71.38173,42.05688],[-71.37865,42.05572]],[[-71.42184,42.08104],[-71.42164,42.08074]],[[-71.34487,42.0399],[-71.34453,42.03986],[-71.34423,42.03983],[-71.34393,42.0398],[-71.34362,42.03977],[-71.34332,42.03974],[-71.34303,42.03971],[-71.34274,42.03969],[-71.34094,42.03955],[-71.34064,42.03953],[-71.34035,42.03951],[-71.34005,42.03948],[-71.33976,42.03946],[-71.33945,42.03942],[-71.33916,42.03939],[-71.33886,42.03936],[-71.33856,42.03932],[-71.33825,42.03928],[-71.33797,42.03924],[-71.33766,42.0392],[-71.33737,42.03915],[-71.33708,42.03911],[-71.3368,42.03906],[-71.33651,42.039],[-71.3362,42.03894],[-71.33592,42.03889],[-71.33563,42.03882],[-71.333,42.03829],[-71.3316,42.038],[-71.33065,42.03782],[-71.3297,42.03766],[-71.32874,42.03753],[-71.32793,42.03744],[-71.32655,42.03732],[-71.32577,42.03728],[-71.32503,42.03725],[-71.3243,42.03723],[-71.32267,42.03725],[-71.3207,42.03735],[-71.31959,42.0374],[-71.31695,42.03752],[-71.31611,42.03755],[-71.31563,42.03755]],[[-71.40117,42.0646],[-71.40058,42.06427],[-71.40017,42.06405],[-71.39979,42.06386],[-71.39959,42.06377],[-71.39927,42.0636],[-71.3991,42.06352],[-71.39879,42.06337],[-71.39865,42.06329],[-71.39848,42.0632],[-71.39774,42.06289],[-71.39754,42.06281],[-71.39727,42.06269],[-71.39645,42.06235],[-71.39627,42.06229],[-71.39566,42.06204],[-71.39512,42.06184],[-71.39464,42.06168],[-71.39431,42.06156],[-71.39288,42.06103],[-71.39247,42.06089],[-71.39207,42.06073],[-71.39127,42.06044],[-71.38617,42.05853],[-71.38435,42.05786],[-71.38415,42.05779]],[[-71.42127,42.0811],[-71.42144,42.08135]],[[-71.48638,42.15181],[-71.48628,42.15161],[-71.48618,42.1514],[-71.48609,42.15119],[-71.486,42.15099],[-71.48591,42.15078],[-71.48582,42.15057],[-71.48574,42.15036],[-71.48566,42.15014],[-71.48559,42.14994],[-71.48484,42.14782]],[[-71.48697,42.15288],[-71.48689,42.15275],[-71.48682,42.15262]],[[-71.48625,42.15287],[-71.48632,42.15302],[-71.4864,42.15316]],[[-71.4864,42.15316],[-71.48652,42.15338],[-71.48664,42.15359],[-71.48675,42.15378],[-71.48688,42.15399],[-71.487,42.15419],[-71.48713,42.15438],[-71.48726,42.15458],[-71.48739,42.15477],[-71.48749,42.1549]],[[-71.34885,42.04062],[-71.3484,42.04052]],[[-71.3484,42.04052],[-71.34811,42.04046],[-71.34783,42.0404],[-71.34755,42.04034],[-71.34712,42.04026],[-71.34684,42.0402],[-71.34655,42.04015],[-71.34626,42.0401],[-71.34597,42.04006],[-71.34569,42.04001],[-71.3454,42.03997]],[[-71.34833,42.0409],[-71.34882,42.04101]],[[-71.34882,42.04101],[-71.3491,42.04108],[-71.34938,42.04115],[-71.34966,42.04121],[-71.34994,42.04129],[-71.35022,42.04136],[-71.35049,42.04144],[-71.35077,42.04152],[-71.35104,42.0416],[-71.35131,42.04168],[-71.35158,42.04176],[-71.35186,42.04185],[-71.35213,42.04194],[-71.35239,42.04203],[-71.35266,42.04213],[-71.35293,42.04222],[-71.35319,42.04232],[-71.35346,42.04241],[-71.35372,42.04251],[-71.35398,42.04261],[-71.35424,42.04272],[-71.3545,42.04283],[-71.35476,42.04294],[-71.35501,42.04305],[-71.35527,42.04316],[-71.35654,42.04376],[-71.35687,42.04394],[-71.35696,42.044],[-71.35706,42.04404],[-71.35751,42.04427],[-71.35758,42.04431],[-71.3579,42.0445],[-71.35825,42.0447],[-71.35867,42.04495],[-71.35954,42.04549],[-71.35986,42.04571],[-71.35993,42.04575],[-71.3606,42.04623],[-71.36089,42.04644],[-71.36134,42.04677],[-71.36181,42.04712],[-71.36187,42.04716],[-71.36214,42.04738],[-71.36264,42.04771],[-71.36295,42.04797],[-71.36301,42.04801],[-71.36336,42.04826],[-71.36367,42.0485],[-71.36414,42.04884],[-71.3645,42.04911],[-71.36488,42.04939],[-71.36531,42.0497],[-71.36583,42.05006],[-71.36623,42.05034],[-71.36629,42.05039],[-71.36669,42.05066],[-71.3671,42.05093],[-71.36745,42.05114],[-71.36786,42.05141],[-71.36823,42.05165],[-71.36873,42.05194],[-71.36917,42.05221],[-71.36971,42.05253],[-71.37025,42.05282],[-71.37086,42.05316],[-71.37179,42.05366],[-71.37235,42.05393],[-71.37268,42.05411],[-71.37303,42.05428],[-71.37349,42.05451],[-71.37398,42.05472],[-71.37445,42.05496],[-71.37491,42.05515],[-71.37539,42.05536],[-71.37545,42.05538],[-71.37584,42.05555],[-71.37641,42.05579],[-71.37698,42.05601],[-71.37749,42.05621],[-71.37784,42.05634],[-71.3782,42.05649]],[[-71.44639,42.1033],[-71.44653,42.10334],[-71.44691,42.10345],[-71.44911,42.10401],[-71.44956,42.10413],[-71.45011,42.10428],[-71.45102,42.10455],[-71.45176,42.10479],[-71.4524,42.10501],[-71.45337,42.10538],[-71.45365,42.1055],[-71.45488,42.10601],[-71.45578,42.10644],[-71.45604,42.10658],[-71.45661,42.10687],[-71.45767,42.10746],[-71.4583,42.10783],[-71.45885,42.10818],[-71.45956,42.10865],[-71.46043,42.10926],[-71.46099,42.10969],[-71.46106,42.10976],[-71.46235,42.11089]],[[-71.42494,42.08764],[-71.42517,42.08797],[-71.42543,42.0883],[-71.42579,42.08875],[-71.42601,42.08903],[-71.42629,42.08936],[-71.42649,42.08959],[-71.42683,42.08996],[-71.42708,42.09023],[-71.42743,42.09059],[-71.42806,42.0912],[-71.42844,42.09153],[-71.42881,42.09186],[-71.42919,42.09218],[-71.42996,42.09278],[-71.43138,42.0939]],[[-71.47722,42.13155],[-71.47718,42.13147],[-71.477,42.13111],[-71.47687,42.13086],[-71.47673,42.13062],[-71.47658,42.13037],[-71.4764,42.13004],[-71.47601,42.1294],[-71.47445,42.12703],[-71.47379,42.12604],[-71.47331,42.12518],[-71.47299,42.12455],[-71.47201,42.12228],[-71.47145,42.12109],[-71.47124,42.12071],[-71.47074,42.11986],[-71.47021,42.11904],[-71.4693,42.11782],[-71.469,42.11746],[-71.46788,42.11608],[-71.46704,42.11505]],[[-71.43212,42.09405],[-71.43192,42.09389],[-71.43001,42.09239],[-71.4295,42.09197],[-71.42909,42.09162],[-71.42882,42.09138],[-71.42869,42.09126],[-71.42839,42.09099],[-71.42809,42.09071],[-71.42751,42.09012],[-71.42716,42.08974],[-71.42683,42.08937],[-71.42646,42.08894],[-71.4261,42.08849],[-71.42555,42.08774]],[[-71.54582,42.21461],[-71.54585,42.21469],[-71.54594,42.2149]],[[-71.54376,42.21032],[-71.54394,42.21069],[-71.544,42.21082],[-71.54507,42.21298],[-71.54558,42.21404],[-71.54561,42.21412],[-71.54566,42.21423]],[[-71.54148,42.20506],[-71.54153,42.20517],[-71.54171,42.20555],[-71.54189,42.20594],[-71.54227,42.20684],[-71.54269,42.20787],[-71.54275,42.208],[-71.54335,42.20942],[-71.54341,42.20954],[-71.54346,42.20967],[-71.54376,42.21032]],[[-71.50484,42.1651],[-71.50534,42.1653],[-71.50655,42.16576],[-71.50734,42.16608],[-71.50831,42.16649],[-71.50855,42.1666]],[[-71.50387,42.16472],[-71.50452,42.16497],[-71.50484,42.1651]],[[-71.5511,42.22992],[-71.55108,42.2298],[-71.55102,42.22912],[-71.55095,42.22832],[-71.55088,42.22737],[-71.55084,42.2268],[-71.55066,42.22474],[-71.5506,42.22407],[-71.55059,42.224]],[[-71.54869,42.21788],[-71.5485,42.21753],[-71.54813,42.2169],[-71.54722,42.21529],[-71.54709,42.21504],[-71.54661,42.21416]],[[-71.51255,42.16822],[-71.51204,42.16792],[-71.51153,42.16762],[-71.51072,42.16717],[-71.51011,42.16686],[-71.50905,42.16635],[-71.50898,42.16633]],[[-71.51853,42.17287],[-71.51799,42.1724],[-71.51662,42.17124],[-71.51602,42.17072],[-71.51538,42.1702],[-71.51481,42.16976],[-71.51428,42.16935],[-71.51372,42.16897],[-71.51301,42.16851],[-71.51255,42.16822]],[[-71.54637,42.21376],[-71.54635,42.21372],[-71.54632,42.21367]],[[-71.34036,42.03996],[-71.34242,42.04008],[-71.34271,42.0401],[-71.34301,42.04012],[-71.3433,42.04014],[-71.3436,42.04017],[-71.3439,42.0402],[-71.34419,42.04023],[-71.34465,42.04028]],[[-71.33975,42.03992],[-71.34036,42.03996]],[[-71.39707,42.06304],[-71.39733,42.06316],[-71.3976,42.0633],[-71.39788,42.06343],[-71.39904,42.06403],[-71.39921,42.06412],[-71.39983,42.06444],[-71.40069,42.06493]],[[-71.39616,42.06267],[-71.39649,42.0628],[-71.39707,42.06304]],[[-71.48266,42.14344],[-71.48276,42.14365],[-71.48285,42.14385],[-71.48294,42.14406],[-71.48304,42.14426],[-71.48312,42.14447],[-71.48321,42.14468],[-71.48329,42.14489],[-71.48337,42.14509],[-71.48413,42.14725]],[[-71.46235,42.11089],[-71.46253,42.11105]],[[-71.46631,42.11414],[-71.46535,42.11297],[-71.46472,42.11226],[-71.46406,42.11155]],[[-71.46704,42.11505],[-71.46648,42.11435],[-71.46631,42.11414]],[[-71.42461,42.08717],[-71.42471,42.08733]],[[-71.40454,42.06682],[-71.40409,42.0665],[-71.40395,42.06639],[-71.40367,42.0662],[-71.40339,42.066],[-71.40312,42.06581],[-71.40282,42.0656],[-71.40161,42.06485]],[[-71.41219,42.07224],[-71.40961,42.07042],[-71.40954,42.07036],[-71.40948,42.07032],[-71.40925,42.07015],[-71.40892,42.06993],[-71.40874,42.0698]],[[-71.48682,42.15262],[-71.4867,42.15242],[-71.48659,42.15222],[-71.48649,42.15201],[-71.48638,42.15181]],[[-71.43311,42.09495],[-71.43257,42.09444],[-71.43212,42.09405]]]}}]}