{"type":"FeatureCollection","features":[{"type":"Feature","properties":{"id":"pass-01","passed":true,"rank":1,"label":"West Central St","town":"Franklin","acres":87.1,"pad_ac":7.4,"yd3":31047,"psf":1.94,"cost_m":0.62,"loc_id":"M_204691_871172","site_addr":"0  WEST CENTRAL ST","assess_acres":86.7,"use_code":"441"},"geometry":{"type":"Polygon","coordinates":[[[-71.44172,42.09372],[-71.4416,42.09334],[-71.44074,42.08988],[-71.44429,42.08948],[-71.4449,42.08937],[-71.44545,42.08924],[-71.44655,42.08883],[-71.44986,42.08743],[-71.45049,42.08722],[-71.451,42.08709],[-71.44979,42.09122],[-71.44788,42.09117],[-71.44699,42.09111],[-71.44742,42.09327],[-71.44712,42.09327],[-71.44857,42.09533],[-71.44378,42.09556],[-71.44412,42.09474],[-71.44492,42.09463],[-71.44492,42.09415],[-71.44573,42.09391],[-71.44504,42.09327],[-71.44467,42.09213],[-71.44261,42.0924],[-71.44206,42.0933],[-71.44172,42.09372]]]}},{"type":"Feature","properties":{"id":"pass-02","passed":true,"rank":2,"label":"23 R Tulip Way","town":"Medway","acres":24.7,"pad_ac":7.4,"yd3":35803,"psf":2.24,"cost_m":0.72,"loc_id":"M_203505_876162","site_addr":"23 R TULIP WAY","assess_acres":27,"use_code":"132"},"geometry":{"type":"Polygon","coordinates":[[[-71.45554,42.13592],[-71.45481,42.13523],[-71.45491,42.13515],[-71.45506,42.13509],[-71.45513,42.13509],[-71.45553,42.13522],[-71.45614,42.1352],[-71.45653,42.13499],[-71.45675,42.13483],[-71.45785,42.13448],[-71.45893,42.13417],[-71.46076,42.13379],[-71.46101,42.13426],[-71.46041,42.13435],[-71.46054,42.13501],[-71.45921,42.13529],[-71.45927,42.13621],[-71.45926,42.13714],[-71.45729,42.13759],[-71.45554,42.13592]]]}},{"type":"Feature","properties":{"id":"pass-03","passed":true,"rank":3,"label":"High St","town":"Bellingham","acres":33.7,"pad_ac":7.4,"yd3":50468,"psf":3.16,"cost_m":1.01,"loc_id":"F_665652_2859365","site_addr":"0  HIGH ST","assess_acres":33.8,"use_code":"130"},"geometry":{"type":"Polygon","coordinates":[[[-71.4618,42.09562],[-71.46158,42.09563],[-71.46367,42.09423],[-71.46343,42.09387],[-71.46395,42.09197],[-71.46416,42.09207],[-71.46444,42.09215],[-71.465,42.09219],[-71.4653,42.09214],[-71.46558,42.09205],[-71.46578,42.09194],[-71.466,42.09178],[-71.46642,42.09204],[-71.46666,42.09234],[-71.46686,42.09283],[-71.46694,42.09324],[-71.46683,42.09428],[-71.46747,42.09439],[-71.46717,42.09531],[-71.46728,42.09555],[-71.46579,42.09603],[-71.46314,42.09625],[-71.46323,42.09553],[-71.4618,42.09562]]]}},{"type":"Feature","properties":{"id":"pass-04","passed":true,"rank":4,"label":"Hartford Ave","town":"Bellingham","acres":20.8,"pad_ac":7.4,"yd3":57217,"psf":3.58,"cost_m":1.14,"loc_id":"F_663068_2865769","site_addr":"0  HARTFORD AV","assess_acres":20.88,"use_code":"390"},"geometry":{"type":"Polygon","coordinates":[[[-71.4733,42.11044],[-71.47342,42.1101],[-71.47614,42.11033],[-71.4761,42.1128],[-71.47499,42.11296],[-71.47523,42.11351],[-71.47451,42.11367],[-71.47346,42.11377],[-71.47309,42.11228],[-71.4733,42.11044]]]}},{"type":"Feature","properties":{"id":"pass-05","passed":true,"rank":5,"label":"4 Technology Dr","town":"Milford","acres":18.5,"pad_ac":7.4,"yd3":61756,"psf":3.86,"cost_m":1.24,"loc_id":"F_661108_2872867","site_addr":"4 TECHNOLOGY DR","assess_acres":18.55,"use_code":"440"},"geometry":{"type":"Polygon","coordinates":[[[-71.48058,42.13018],[-71.48237,42.12914],[-71.48248,42.12925],[-71.48332,42.13143],[-71.48299,42.13181],[-71.48294,42.13182],[-71.48287,42.13177],[-71.48205,42.13173],[-71.48201,42.13232],[-71.48278,42.13233],[-71.48275,42.13297],[-71.48097,42.13323],[-71.48094,42.13289],[-71.48068,42.13273],[-71.48054,42.13257],[-71.48035,42.13221],[-71.48024,42.13178],[-71.48027,42.13068],[-71.48031,42.1306],[-71.48039,42.13054],[-71.48058,42.13051],[-71.48058,42.13018]]]}},{"type":"Feature","properties":{"id":"pass-06","passed":true,"rank":6,"label":"High St","town":"Bellingham","acres":47.8,"pad_ac":16.3,"yd3":144167,"psf":4.06,"cost_m":2.88,"loc_id":"F_665869_2861822","site_addr":"0  HIGH ST","assess_acres":47.800000000000004,"use_code":"440"},"geometry":{"type":"MultiPolygon","coordinates":[[[[-71.46177,42.1],[-71.46305,42.09998],[-71.46437,42.09983],[-71.46566,42.09958],[-71.46615,42.09962],[-71.46682,42.09982],[-71.46703,42.0998],[-71.46731,42.09971],[-71.4674,42.09972],[-71.46706,42.10108],[-71.46755,42.10115],[-71.46612,42.10187],[-71.46454,42.10232],[-71.46152,42.10238],[-71.46161,42.10221],[-71.46166,42.10202],[-71.46167,42.10183],[-71.46164,42.10164],[-71.46156,42.10146],[-71.46144,42.10129],[-71.46109,42.10101],[-71.46153,42.10014],[-71.46163,42.10005],[-71.46177,42.1]]],[[[-71.46138,42.10002],[-71.46117,42.09984],[-71.45995,42.10063],[-71.46001,42.09931],[-71.46234,42.09959],[-71.46396,42.09964],[-71.46264,42.09852],[-71.46835,42.09796],[-71.46816,42.09871],[-71.46717,42.09857],[-71.4669,42.09965],[-71.46706,42.09968],[-71.46701,42.09969],[-71.46677,42.0997],[-71.46641,42.09957],[-71.46613,42.0995],[-71.46565,42.09947],[-71.46535,42.09951],[-71.46434,42.09972],[-71.46303,42.09987],[-71.46173,42.09989],[-71.46154,42.09996],[-71.46141,42.10008],[-71.46096,42.10095],[-71.4609,42.10092],[-71.46138,42.10002]]]]}},{"type":"Feature","properties":{"id":"pass-07","passed":true,"rank":7,"label":"Hixon St","town":"Bellingham","acres":32.1,"pad_ac":7.4,"yd3":67733,"psf":4.24,"cost_m":1.35,"loc_id":"F_661803_2869494","site_addr":"0  HIXON ST","assess_acres":32,"use_code":"132"},"geometry":{"type":"Polygon","coordinates":[[[-71.47731,42.12358],[-71.47741,42.12143],[-71.47679,42.12144],[-71.47678,42.12097],[-71.47689,42.1196],[-71.47738,42.11959],[-71.47763,42.12008],[-71.47843,42.12007],[-71.47917,42.12064],[-71.47937,42.121],[-71.47948,42.12109],[-71.48016,42.12031],[-71.4803,42.1204],[-71.47962,42.12118],[-71.48001,42.12138],[-71.4801,42.12135],[-71.48089,42.12134],[-71.48118,42.12128],[-71.48128,42.1213],[-71.48181,42.12157],[-71.48191,42.12173],[-71.48199,42.12174],[-71.4828,42.12243],[-71.48106,42.12332],[-71.47898,42.12389],[-71.47787,42.12382],[-71.47765,42.1236],[-71.47731,42.12358]]]}},{"type":"Feature","properties":{"id":"pass-08","passed":true,"rank":8,"label":"Maple St","town":"Milford","acres":12.5,"pad_ac":7.4,"yd3":81825,"psf":5.12,"cost_m":1.64,"loc_id":"F_660279_2873847","site_addr":"MAPLE ST","assess_acres":12.63,"use_code":"440"},"geometry":{"type":"Polygon","coordinates":[[[-71.48635,42.1352],[-71.48436,42.13502],[-71.48405,42.13508],[-71.48328,42.135],[-71.48335,42.13447],[-71.48373,42.13446],[-71.48366,42.13346],[-71.48427,42.13333],[-71.48418,42.13278],[-71.48438,42.13277],[-71.4845,42.13289],[-71.48467,42.13294],[-71.48484,42.13291],[-71.48495,42.13282],[-71.48527,42.13295],[-71.48597,42.13299],[-71.48637,42.1332],[-71.48635,42.13337],[-71.48615,42.13397],[-71.48635,42.1352]]]}},{"type":"Feature","properties":{"id":"pass-09","passed":true,"rank":9,"label":"East Main St","town":"Milford","acres":119.2,"pad_ac":7.4,"yd3":93991,"psf":5.88,"cost_m":1.88,"loc_id":"F_659179_2884652","site_addr":"EAST MAIN ST","assess_acres":116.88,"use_code":"130"},"geometry":{"type":"Polygon","coordinates":[[[-71.48424,42.16602],[-71.48427,42.16509],[-71.4834,42.16506],[-71.48347,42.16449],[-71.48262,42.16432],[-71.48264,42.16421],[-71.4823,42.16415],[-71.48222,42.16409],[-71.48226,42.16391],[-71.48152,42.16359],[-71.48308,42.1619],[-71.48336,42.16231],[-71.48407,42.16216],[-71.48486,42.16181],[-71.48571,42.16161],[-71.48618,42.16142],[-71.48698,42.16128],[-71.48706,42.16106],[-71.48696,42.16066],[-71.48799,42.16067],[-71.48794,42.16117],[-71.49107,42.1611],[-71.49233,42.16323],[-71.49626,42.16359],[-71.49575,42.16389],[-71.49544,42.16494],[-71.49554,42.16517],[-71.49517,42.16643],[-71.49314,42.16622],[-71.48424,42.16602]]]}},{"type":"Feature","properties":{"id":"pass-10","passed":true,"rank":10,"label":"Pine Island Road","town":"Hopkinton","acres":110.2,"pad_ac":16.3,"yd3":233019,"psf":6.56,"cost_m":4.66,"loc_id":"F_642689_2894382","site_addr":"0 PINE ISLAND ROAD","assess_acres":111.12,"use_code":"131"},"geometry":{"type":"MultiPolygon","coordinates":[[[[-71.54692,42.1943],[-71.54607,42.19294],[-71.54736,42.19259],[-71.54767,42.19247],[-71.54784,42.1921],[-71.54768,42.19161],[-71.54738,42.19149],[-71.54687,42.19041],[-71.549,42.18949],[-71.54874,42.18818],[-71.54861,42.18778],[-71.54763,42.18808],[-71.54746,42.1881],[-71.54673,42.18797],[-71.54644,42.18804],[-71.54633,42.18789],[-71.54586,42.18701],[-71.54344,42.18799],[-71.54758,42.18615],[-71.54765,42.18628],[-71.54954,42.18532],[-71.54986,42.18513],[-71.55078,42.18472],[-71.55121,42.18475],[-71.55145,42.18442],[-71.5516,42.18435],[-71.55168,42.18476],[-71.55129,42.18477],[-71.55098,42.18538],[-71.55179,42.18517],[-71.55187,42.18552],[-71.55197,42.18576],[-71.55197,42.18604],[-71.55131,42.186],[-71.55126,42.18614],[-71.55196,42.18617],[-71.55189,42.18683],[-71.55193,42.18707],[-71.55202,42.18723],[-71.55198,42.18734],[-71.55204,42.18744],[-71.55205,42.18756],[-71.55193,42.18787],[-71.55186,42.18785],[-71.55164,42.18805],[-71.55221,42.18824],[-71.55217,42.18828],[-71.55216,42.18837],[-71.55221,42.18844],[-71.55226,42.18862],[-71.55232,42.18866],[-71.55233,42.18877],[-71.55242,42.18886],[-71.55255,42.18881],[-71.55254,42.18887],[-71.55262,42.18892],[-71.55259,42.18895],[-71.55252,42.18894],[-71.55255,42.18907],[-71.55236,42.18928],[-71.55237,42.18931],[-71.55249,42.18938],[-71.55204,42.18956],[-71.55225,42.18979],[-71.55216,42.18982],[-71.55277,42.19136],[-71.55335,42.19127],[-71.5534,42.19148],[-71.55384,42.19142],[-71.55385,42.19159],[-71.55381,42.19169],[-71.55387,42.19178],[-71.55382,42.19181],[-71.55388,42.19188],[-71.55385,42.19195],[-71.5539,42.19198],[-71.55387,42.19205],[-71.55395,42.19211],[-71.55396,42.19214],[-71.55389,42.19227],[-71.55391,42.19237],[-71.55384,42.19265],[-71.55308,42.19267],[-71.55308,42.19293],[-71.55316,42.19337],[-71.54919,42.19368],[-71.54989,42.19525],[-71.54991,42.19543],[-71.54737,42.19599],[-71.54666,42.19438],[-71.54692,42.1943]]],[[[-71.55223,42.19207],[-71.55218,42.19155],[-71.55147,42.19157],[-71.55152,42.1921],[-71.55223,42.19207]]],[[[-71.55199,42.18619],[-71.55282,42.18595],[-71.55289,42.1861],[-71.5529,42.18627],[-71.55287,42.1864],[-71.55296,42.18652],[-71.55293,42.18658],[-71.55315,42.1867],[-71.5527,42.18683],[-71.5528,42.18699],[-71.55244,42.1873],[-71.55205,42.18727],[-71.55205,42.1872],[-71.55197,42.18707],[-71.55193,42.18683],[-71.55199,42.18619]]]]}},{"type":"Feature","properties":{"id":"pass-11","passed":true,"rank":11,"label":"Farm St","town":"Bellingham","acres":16.3,"pad_ac":7.4,"yd3":110234,"psf":6.9,"cost_m":2.2,"loc_id":"F_668365_2873635","site_addr":"0  FARM ST","assess_acres":17,"use_code":"720"},"geometry":{"type":"Polygon","coordinates":[[[-71.45286,42.13282],[-71.45561,42.13263],[-71.45647,42.13196],[-71.45779,42.13319],[-71.45639,42.13369],[-71.45558,42.13432],[-71.45305,42.13461],[-71.45286,42.13282]]]}},{"type":"Feature","properties":{"id":"pass-12","passed":true,"rank":12,"label":"Lumber Street","town":"Hopkinton","acres":16.5,"pad_ac":7.4,"yd3":129444,"psf":8.1,"cost_m":2.59,"loc_id":"F_648742_2897904","site_addr":"0 LUMBER STREET","assess_acres":17.11,"use_code":"601"},"geometry":{"type":"Polygon","coordinates":[[[-71.52416,42.20068],[-71.52431,42.19876],[-71.52483,42.19874],[-71.52488,42.19895],[-71.52494,42.19975],[-71.52493,42.19989],[-71.52504,42.2],[-71.52518,42.20002],[-71.52612,42.19993],[-71.52604,42.19936],[-71.52603,42.1987],[-71.52726,42.1986],[-71.52847,42.20106],[-71.52777,42.20111],[-71.52539,42.20117],[-71.5242,42.20075],[-71.52416,42.20068]]]}},{"type":"Feature","properties":{"id":"pass-13","passed":true,"rank":13,"label":"306 Maple St","town":"Bellingham","acres":11.5,"pad_ac":7.4,"yd3":141798,"psf":8.87,"cost_m":2.84,"loc_id":"F_669974_2861180","site_addr":"306  MAPLE ST","assess_acres":11.51,"use_code":"440"},"geometry":{"type":"Polygon","coordinates":[[[-71.44763,42.09861],[-71.4484,42.0985],[-71.45074,42.0983],[-71.45081,42.09885],[-71.45078,42.09984],[-71.4489,42.10001],[-71.44722,42.10001],[-71.44763,42.09861]]]}},{"type":"Feature","properties":{"id":"pass-14","passed":true,"rank":14,"label":"Fisher St","town":"Holliston","acres":17.3,"pad_ac":7.4,"yd3":175079,"psf":10.95,"cost_m":3.5,"loc_id":"M_202617_878687","site_addr":"0 FISHER ST","assess_acres":17.19,"use_code":"440"},"geometry":{"type":"Polygon","coordinates":[[[-71.46593,42.15931],[-71.46615,42.15788],[-71.46999,42.1573],[-71.47011,42.15762],[-71.47023,42.15808],[-71.47023,42.15819],[-71.47013,42.1586],[-71.4701,42.15882],[-71.47017,42.15908],[-71.47027,42.15928],[-71.46806,42.15961],[-71.46752,42.15946],[-71.46593,42.15931]]]}},{"type":"Feature","properties":{"passed":false,"rank":null,"id":"fail-01","label":"Off Lumber Street","town":"Hopkinton","acres":11.7,"constrained":50,"loc_id":"F_649041_2895731","site_addr":"OFF LUMBER STREET","assess_acres":12.5,"use_code":"717"},"geometry":{"type":"Polygon","coordinates":[[[-71.52489,42.19473],[-71.52387,42.19483],[-71.5234,42.19392],[-71.52922,42.19322],[-71.52932,42.19371],[-71.52788,42.19435],[-71.52489,42.19473]]]}},{"type":"Feature","properties":{"passed":false,"rank":null,"id":"fail-02","label":"0 Lumber Street","town":"Hopkinton","acres":20.4,"constrained":76,"loc_id":"F_649502_2894587","site_addr":"0 LUMBER STREET","assess_acres":20.16,"use_code":"440"},"geometry":{"type":"Polygon","coordinates":[[[-71.52254,42.19189],[-71.52265,42.1916],[-71.52296,42.19106],[-71.52299,42.19083],[-71.52294,42.19051],[-71.52296,42.19043],[-71.52332,42.19017],[-71.52355,42.18984],[-71.52354,42.18964],[-71.52338,42.18941],[-71.52612,42.18948],[-71.52611,42.18941],[-71.52613,42.18941],[-71.52655,42.19188],[-71.52272,42.19239],[-71.52264,42.19234],[-71.52254,42.19189]]]}},{"type":"Feature","properties":{"passed":false,"rank":null,"id":"fail-03","label":"253 Lumber Street","town":"Hopkinton","acres":14.3,"constrained":71,"loc_id":"F_650439_2894503","site_addr":"253 LUMBER STREET","assess_acres":14.38,"use_code":"440"},"geometry":{"type":"Polygon","coordinates":[[[-71.52013,42.18926],[-71.5221,42.18931],[-71.52212,42.19002],[-71.52292,42.19029],[-71.52284,42.19036],[-71.52279,42.19048],[-71.52284,42.19084],[-71.5228,42.19107],[-71.52199,42.19086],[-71.52159,42.19186],[-71.5223,42.19214],[-71.52225,42.19225],[-71.52147,42.19196],[-71.52112,42.19245],[-71.51973,42.19156],[-71.51972,42.19151],[-71.51986,42.1913],[-71.52013,42.18926]]]}},{"type":"Feature","properties":{"passed":false,"rank":null,"id":"fail-04","label":"0 Granite Street","town":"Hopkinton","acres":29.3,"constrained":71,"loc_id":"F_651014_2895063","site_addr":"0 GRANITE STREET","assess_acres":26.67,"use_code":"440"},"geometry":{"type":"MultiPolygon","coordinates":[[[[-71.51815,42.19498],[-71.51794,42.1939],[-71.5175,42.19215],[-71.51751,42.19195],[-71.51738,42.19165],[-71.51722,42.1906],[-71.51882,42.19034],[-71.51885,42.18923],[-71.52013,42.18926],[-71.51986,42.1913],[-71.51972,42.19154],[-71.52112,42.19245],[-71.52066,42.19287],[-71.52067,42.19329],[-71.52035,42.19386],[-71.52035,42.19396],[-71.52042,42.19416],[-71.51946,42.19412],[-71.51954,42.19474],[-71.51815,42.19498]]],[[[-71.51747,42.18942],[-71.51743,42.1892],[-71.51854,42.18923],[-71.51747,42.18942]]]]}},{"type":"Feature","properties":{"passed":false,"rank":null,"id":"fail-05","label":"0 South St","town":"Holliston","acres":10.4,"constrained":38,"loc_id":"M_201898_878945","site_addr":"0 SOUTH ST","assess_acres":10.700000000000001,"use_code":"132"},"geometry":{"type":"Polygon","coordinates":[[[-71.47528,42.16279],[-71.4749,42.16259],[-71.47473,42.16266],[-71.4781,42.15874],[-71.47807,42.16177],[-71.47663,42.16189],[-71.47617,42.16169],[-71.47528,42.16279]]]}},{"type":"Feature","properties":{"passed":false,"rank":null,"id":"fail-06","label":"Rear Purchase St","town":"Milford","acres":12.6,"constrained":86,"loc_id":"F_645667_2888042","site_addr":"REAR PURCHASE ST","assess_acres":12.1,"use_code":"132"},"geometry":{"type":"Polygon","coordinates":[[[-71.53672,42.17324],[-71.53794,42.17247],[-71.54049,42.17153],[-71.54075,42.17414],[-71.53672,42.17324]]]}},{"type":"Feature","properties":{"passed":false,"rank":null,"id":"fail-07","label":"Silver Hill Rd","town":"Milford","acres":34.6,"constrained":85,"loc_id":"F_646041_2887686","site_addr":"SILVER HILL RD","assess_acres":34,"use_code":"132"},"geometry":{"type":"Polygon","coordinates":[[[-71.53612,42.17368],[-71.53556,42.17319],[-71.53339,42.17155],[-71.53349,42.17113],[-71.53584,42.17001],[-71.53514,42.16848],[-71.5358,42.16834],[-71.53576,42.16829],[-71.53593,42.16823],[-71.53644,42.16895],[-71.53684,42.16984],[-71.53722,42.17088],[-71.53725,42.17104],[-71.53798,42.1713],[-71.53811,42.17148],[-71.54104,42.17026],[-71.54133,42.17158],[-71.54049,42.17153],[-71.53794,42.17247],[-71.53672,42.17324],[-71.53612,42.17368]]]}},{"type":"Feature","properties":{"passed":false,"rank":null,"id":"fail-08","label":"Rear Haven St","town":"Milford","acres":15.3,"constrained":44,"loc_id":"F_651445_2893313","site_addr":"REAR HAVEN ST","assess_acres":14.700000000000001,"use_code":"132"},"geometry":{"type":"Polygon","coordinates":[[[-71.51729,42.18919],[-71.51683,42.18674],[-71.51676,42.18659],[-71.51607,42.18579],[-71.51857,42.18546],[-71.51877,42.18688],[-71.51876,42.18916],[-71.51849,42.18922],[-71.51729,42.18919]]]}},{"type":"Feature","properties":{"passed":false,"rank":null,"id":"fail-09","label":"400 Deer St","town":"Milford","acres":25.0,"constrained":57,"loc_id":"F_651469_2889092","site_addr":"400 DEER ST","assess_acres":25.22,"use_code":"391"},"geometry":{"type":"Polygon","coordinates":[[[-71.51329,42.17368],[-71.51416,42.17434],[-71.51433,42.17451],[-71.51443,42.17447],[-71.51478,42.17496],[-71.51483,42.17511],[-71.51486,42.17534],[-71.51492,42.17549],[-71.51502,42.17563],[-71.51522,42.17582],[-71.51659,42.1751],[-71.51724,42.17538],[-71.51857,42.17466],[-71.51991,42.17594],[-71.51984,42.17655],[-71.51688,42.17684],[-71.51433,42.17614],[-71.51415,42.17619],[-71.51382,42.17561],[-71.51321,42.17488],[-71.51281,42.17422],[-71.51238,42.17383],[-71.51224,42.17363],[-71.51216,42.17345],[-71.5121,42.17313],[-71.51164,42.17303],[-71.51179,42.17274],[-71.51207,42.17251],[-71.51206,42.17227],[-71.51229,42.17241],[-71.51263,42.17255],[-71.51281,42.17271],[-71.51292,42.1729],[-71.51304,42.1734],[-71.51315,42.17355],[-71.51329,42.17368]]]}},{"type":"Feature","properties":{"passed":false,"rank":null,"id":"fail-10","label":"10 Country Way","town":"Hopkinton","acres":10.4,"constrained":52,"loc_id":"F_640282_2902892","site_addr":"10 COUNTRY WAY","assess_acres":10.21,"use_code":"131"},"geometry":{"type":"Polygon","coordinates":[[[-71.55785,42.21434],[-71.5577,42.21434],[-71.55693,42.21382],[-71.55736,42.21357],[-71.55647,42.21304],[-71.55657,42.21296],[-71.5573,42.2134],[-71.55757,42.21328],[-71.55783,42.2131],[-71.55818,42.2128],[-71.55794,42.21265],[-71.55806,42.21224],[-71.56029,42.2136],[-71.56026,42.21377],[-71.56029,42.21391],[-71.56023,42.21405],[-71.56027,42.21412],[-71.56034,42.21416],[-71.55827,42.2148],[-71.55785,42.21434]]]}},{"type":"Feature","properties":{"passed":false,"rank":null,"id":"fail-11","label":"80 Deer St","town":"Milford","acres":13.3,"constrained":99,"loc_id":"F_653127_2887105","site_addr":"80 DEER ST","assess_acres":12.9,"use_code":"391"},"geometry":{"type":"Polygon","coordinates":[[[-71.51043,42.17112],[-71.51002,42.1706],[-71.51005,42.16938],[-71.51129,42.16942],[-71.51137,42.16933],[-71.51149,42.1693],[-71.51149,42.16908],[-71.5113,42.16878],[-71.5113,42.16852],[-71.51321,42.16971],[-71.51255,42.17023],[-71.51372,42.17125],[-71.51385,42.17143],[-71.51391,42.17158],[-71.51331,42.17102],[-71.51265,42.17062],[-71.51201,42.17134],[-71.51141,42.17174],[-71.51043,42.17112]]]}},{"type":"Feature","properties":{"passed":false,"rank":null,"id":"fail-12","label":"Rear Cedar St","town":"Milford","acres":11.5,"constrained":84,"loc_id":"F_654195_2893373","site_addr":"REAR CEDAR ST","assess_acres":11.200000000000001,"use_code":"971"},"geometry":{"type":"Polygon","coordinates":[[[-71.50689,42.18894],[-71.50674,42.1888],[-71.50648,42.18876],[-71.50603,42.18609],[-71.50607,42.18574],[-71.50632,42.18572],[-71.50639,42.18605],[-71.5074,42.18622],[-71.50738,42.18637],[-71.50748,42.18657],[-71.50852,42.18678],[-71.50819,42.18714],[-71.50808,42.18734],[-71.50806,42.18756],[-71.50755,42.18766],[-71.50763,42.18786],[-71.50775,42.18832],[-71.50771,42.18896],[-71.50689,42.18894]]]}},{"type":"Feature","properties":{"passed":false,"rank":null,"id":"fail-13","label":"Rear Cedar St","town":"Milford","acres":10.4,"constrained":24,"loc_id":"F_656153_2885604","site_addr":"REAR CEDAR ST","assess_acres":10.3,"use_code":"423"},"geometry":{"type":"Polygon","coordinates":[[[-71.4984,42.16681],[-71.49893,42.16541],[-71.50169,42.16547],[-71.50136,42.16727],[-71.4984,42.16681]]]}},{"type":"Feature","properties":{"passed":false,"rank":null,"id":"fail-14","label":"I-495 remnant","town":"Milford","acres":18.5,"constrained":100,"loc_id":"F_657021_2885160","site_addr":"I 495","assess_acres":18.59,"use_code":"442"},"geometry":{"type":"Polygon","coordinates":[[[-71.49517,42.16643],[-71.49554,42.16517],[-71.49544,42.16494],[-71.49575,42.16389],[-71.49626,42.16359],[-71.4968,42.16352],[-71.49743,42.1629],[-71.49766,42.16287],[-71.49766,42.16275],[-71.49842,42.16304],[-71.49853,42.1637],[-71.49823,42.16431],[-71.4979,42.16449],[-71.49775,42.16479],[-71.49779,42.16507],[-71.49808,42.16525],[-71.49802,42.16553],[-71.49789,42.16585],[-71.49767,42.16599],[-71.4976,42.16621],[-71.49704,42.16662],[-71.49517,42.16643]]]}},{"type":"Feature","properties":{"passed":false,"rank":null,"id":"fail-15","label":"Maple St","town":"Milford","acres":24.0,"constrained":74,"loc_id":"F_660258_2875097","site_addr":"MAPLE ST","assess_acres":23.96,"use_code":"440"},"geometry":{"type":"Polygon","coordinates":[[[-71.48326,42.1355],[-71.48328,42.135],[-71.48405,42.13508],[-71.48436,42.13502],[-71.48635,42.1352],[-71.48659,42.13671],[-71.48618,42.13672],[-71.4857,42.13814],[-71.48643,42.13824],[-71.48561,42.13996],[-71.48496,42.13978],[-71.48445,42.13951],[-71.48425,42.13936],[-71.48405,42.13916],[-71.4838,42.13879],[-71.48332,42.13768],[-71.48417,42.13748],[-71.48426,42.13739],[-71.48435,42.13728],[-71.48464,42.13661],[-71.48469,42.13631],[-71.48465,42.13615],[-71.48396,42.13614],[-71.48369,42.13602],[-71.48321,42.13601],[-71.48326,42.1355]]]}},{"type":"Feature","properties":{"passed":false,"rank":null,"id":"fail-16","label":"Off Medway Rd","town":"Milford","acres":12.3,"constrained":100,"loc_id":"F_661497_2878188","site_addr":"OFF MEDWAY RD","assess_acres":12.47,"use_code":"442"},"geometry":{"type":"Polygon","coordinates":[[[-71.48143,42.14709],[-71.48109,42.14688],[-71.48093,42.14685],[-71.48094,42.14681],[-71.47931,42.14646],[-71.47929,42.14654],[-71.479,42.1463],[-71.47829,42.14625],[-71.47831,42.14479],[-71.47883,42.14481],[-71.47957,42.14501],[-71.48128,42.14524],[-71.48109,42.14597],[-71.4824,42.14631],[-71.48205,42.14712],[-71.48143,42.14709]]]}},{"type":"Feature","properties":{"passed":false,"rank":null,"id":"fail-17","label":"0 Hartford Av","town":"Bellingham","acres":24.1,"constrained":64,"loc_id":"F_659776_2865936","site_addr":"0  HARTFORD AV","assess_acres":23.84,"use_code":"130"},"geometry":{"type":"Polygon","coordinates":[[[-71.48472,42.11388],[-71.48469,42.11347],[-71.48519,42.1127],[-71.48574,42.11262],[-71.48503,42.11106],[-71.48792,42.11013],[-71.48803,42.11025],[-71.48808,42.11044],[-71.48819,42.11061],[-71.48816,42.11072],[-71.48805,42.1108],[-71.4882,42.11091],[-71.48838,42.11113],[-71.48847,42.1113],[-71.4886,42.11136],[-71.48878,42.11165],[-71.48857,42.11169],[-71.48868,42.11191],[-71.4887,42.11203],[-71.48869,42.11212],[-71.48861,42.11226],[-71.4886,42.11238],[-71.48849,42.11245],[-71.48829,42.11246],[-71.48807,42.1127],[-71.48769,42.1129],[-71.48746,42.1131],[-71.48741,42.11317],[-71.48753,42.11356],[-71.48766,42.11367],[-71.48807,42.11391],[-71.48703,42.11391],[-71.487,42.11394],[-71.48706,42.114],[-71.48706,42.11406],[-71.48682,42.11421],[-71.48669,42.11424],[-71.48616,42.11413],[-71.48613,42.11411],[-71.4861,42.114],[-71.48592,42.11398],[-71.48571,42.11403],[-71.48552,42.11424],[-71.48542,42.11424],[-71.48529,42.11418],[-71.48501,42.11417],[-71.48474,42.11426],[-71.48472,42.11388]]]}},{"type":"Feature","properties":{"passed":false,"rank":null,"id":"fail-18","label":"Downey Street","town":"Hopkinton","acres":11.9,"constrained":27,"loc_id":"F_641850_2900713","site_addr":"DOWNEY STREET","assess_acres":11.94,"use_code":"130"},"geometry":{"type":"Polygon","coordinates":[[[-71.55237,42.20868],[-71.55231,42.20832],[-71.55224,42.20708],[-71.55116,42.20743],[-71.55042,42.20688],[-71.54946,42.20633],[-71.54906,42.20571],[-71.55008,42.2055],[-71.55055,42.20655],[-71.55141,42.20632],[-71.55293,42.2061],[-71.55304,42.20653],[-71.55363,42.20644],[-71.55367,42.20672],[-71.55331,42.20678],[-71.5533,42.20756],[-71.55367,42.20756],[-71.5537,42.20804],[-71.5536,42.20807],[-71.55363,42.2082],[-71.55237,42.20868]]]}},{"type":"Feature","properties":{"passed":false,"rank":null,"id":"fail-19","label":"0 Hartford Av","town":"Bellingham","acres":44.5,"constrained":72,"loc_id":"F_663644_2864200","site_addr":"0  HARTFORD AV","assess_acres":39.1,"use_code":"130"},"geometry":{"type":"Polygon","coordinates":[[[-71.46835,42.1091],[-71.46828,42.10872],[-71.46846,42.10825],[-71.46843,42.10779],[-71.46923,42.10707],[-71.47038,42.10777],[-71.47136,42.10689],[-71.47021,42.10619],[-71.47186,42.10469],[-71.47181,42.10536],[-71.47247,42.10513],[-71.47328,42.10497],[-71.47372,42.10653],[-71.47383,42.10727],[-71.47382,42.10768],[-71.47373,42.10829],[-71.47339,42.1094],[-71.47314,42.1094],[-71.47216,42.11007],[-71.46932,42.11066],[-71.46923,42.11016],[-71.46934,42.10895],[-71.46835,42.1091]]]}},{"type":"Feature","properties":{"passed":false,"rank":null,"id":"fail-20","label":"187 Farm St","town":"Bellingham","acres":11.9,"constrained":95,"loc_id":"F_664328_2871891","site_addr":"187  FARM ST","assess_acres":12.24,"use_code":"440"},"geometry":{"type":"Polygon","coordinates":[[[-71.47049,42.1267],[-71.47106,42.1285],[-71.47146,42.12843],[-71.47136,42.12885],[-71.47111,42.12885],[-71.47074,42.12891],[-71.47106,42.1295],[-71.46961,42.13002],[-71.46967,42.12994],[-71.46965,42.12987],[-71.46955,42.12984],[-71.46939,42.12987],[-71.4692,42.12982],[-71.46893,42.12957],[-71.46888,42.12947],[-71.46872,42.12937],[-71.46872,42.12931],[-71.46877,42.12922],[-71.46871,42.12921],[-71.46867,42.12914],[-71.46856,42.12917],[-71.46853,42.12915],[-71.4685,42.12904],[-71.46864,42.12877],[-71.46862,42.12867],[-71.46854,42.1286],[-71.46854,42.12856],[-71.46862,42.1284],[-71.46867,42.12822],[-71.46882,42.12811],[-71.46883,42.12801],[-71.46895,42.12796],[-71.46903,42.12786],[-71.46916,42.12784],[-71.46926,42.12776],[-71.46938,42.12774],[-71.46944,42.12763],[-71.46983,42.12752],[-71.47004,42.12735],[-71.47017,42.12708],[-71.47036,42.12697],[-71.4705,42.12695],[-71.47049,42.1267]]]}},{"type":"Feature","properties":{"passed":false,"rank":null,"id":"fail-21","label":"0 North Main St","town":"Bellingham","acres":31.6,"constrained":90,"loc_id":"F_664657_2862986","site_addr":"0  NORTH MAIN ST","assess_acres":31.64,"use_code":"130"},"geometry":{"type":"Polygon","coordinates":[[[-71.46914,42.10116],[-71.4718,42.10121],[-71.47184,42.10167],[-71.47264,42.1017],[-71.47258,42.10224],[-71.47293,42.10224],[-71.4729,42.10229],[-71.47283,42.10232],[-71.47246,42.10228],[-71.47226,42.10223],[-71.47215,42.1021],[-71.47202,42.10205],[-71.47187,42.10209],[-71.47178,42.10219],[-71.47067,42.10146],[-71.47043,42.10139],[-71.46989,42.10138],[-71.46988,42.10181],[-71.47048,42.10286],[-71.46939,42.10319],[-71.46961,42.10411],[-71.47079,42.10531],[-71.46972,42.10628],[-71.46641,42.1059],[-71.46559,42.10584],[-71.4656,42.1048],[-71.4664,42.1049],[-71.46637,42.10424],[-71.46922,42.10253],[-71.46905,42.10184],[-71.46914,42.10116]]]}},{"type":"Feature","properties":{"passed":false,"rank":null,"id":"fail-22","label":"0 Maple St","town":"Bellingham","acres":106.1,"constrained":69,"loc_id":"F_665067_2862387","site_addr":"0  MAPLE ST","assess_acres":97.27,"use_code":"440"},"geometry":{"type":"Polygon","coordinates":[[[-71.4592,42.10729],[-71.45898,42.10638],[-71.45936,42.10629],[-71.46055,42.10653],[-71.45983,42.10717],[-71.46133,42.10722],[-71.46169,42.10621],[-71.46262,42.10624],[-71.46448,42.10701],[-71.46484,42.10587],[-71.46424,42.10531],[-71.46414,42.1044],[-71.46454,42.10393],[-71.46348,42.1028],[-71.46327,42.10341],[-71.46102,42.1028],[-71.46129,42.10263],[-71.46152,42.10238],[-71.46454,42.10232],[-71.46612,42.10187],[-71.46755,42.10115],[-71.46914,42.10116],[-71.46905,42.10184],[-71.46922,42.10253],[-71.46637,42.10424],[-71.4664,42.1049],[-71.4656,42.1048],[-71.46559,42.10584],[-71.46641,42.1059],[-71.46972,42.10628],[-71.46994,42.10642],[-71.4672,42.10892],[-71.46738,42.11066],[-71.46711,42.1109],[-71.46697,42.11095],[-71.46678,42.1111],[-71.46675,42.11123],[-71.46682,42.11133],[-71.46681,42.11153],[-71.46672,42.11184],[-71.46658,42.11189],[-71.46655,42.11197],[-71.46647,42.112],[-71.46643,42.11214],[-71.46621,42.11229],[-71.46578,42.11235],[-71.46527,42.11221],[-71.46379,42.11072],[-71.46258,42.10967],[-71.46129,42.10867],[-71.46061,42.10819],[-71.4592,42.10729]],[[-71.46391,42.11024],[-71.46554,42.11009],[-71.4673,42.10846],[-71.46629,42.10863],[-71.46629,42.10924],[-71.46384,42.10912],[-71.46391,42.11024]]]}},{"type":"Feature","properties":{"passed":false,"rank":null,"id":"fail-23","label":"0 Maple St","town":"Bellingham","acres":10.2,"constrained":35,"loc_id":"F_669646_2858085","site_addr":"0  MAPLE ST","assess_acres":10.700000000000001,"use_code":"130"},"geometry":{"type":"Polygon","coordinates":[[[-71.45099,42.08711],[-71.45157,42.08702],[-71.45092,42.08865],[-71.45083,42.08897],[-71.4508,42.08938],[-71.45089,42.09044],[-71.45089,42.09074],[-71.45084,42.09104],[-71.45061,42.09186],[-71.45021,42.09297],[-71.45016,42.09329],[-71.44918,42.09329],[-71.45099,42.08711]]]}},{"type":"Feature","properties":{"passed":false,"rank":null,"id":"fail-24","label":"0 Oak St","town":"Bellingham","acres":12.1,"constrained":46,"loc_id":"F_670911_2866211","site_addr":"0  OAK ST","assess_acres":11.9,"use_code":"442"},"geometry":{"type":"Polygon","coordinates":[[[-71.44435,42.11531],[-71.44472,42.11313],[-71.44482,42.1131],[-71.44489,42.11238],[-71.44668,42.11202],[-71.44682,42.11228],[-71.44622,42.11355],[-71.44583,42.11376],[-71.44527,42.11394],[-71.44589,42.11468],[-71.44695,42.1146],[-71.44679,42.11517],[-71.44679,42.11545],[-71.44435,42.11531]]]}},{"type":"Feature","properties":{"passed":false,"rank":null,"id":"fail-25","label":"36 R Alder St","town":"Medway","acres":35.6,"constrained":100,"loc_id":"M_201944_876835","site_addr":"36 R ALDER ST","assess_acres":12.5,"use_code":"442"},"geometry":{"type":"Polygon","coordinates":[[[-71.47648,42.14511],[-71.47648,42.14392],[-71.47456,42.14289],[-71.4748,42.14253],[-71.47465,42.14053],[-71.47484,42.14064],[-71.47522,42.14074],[-71.47778,42.13922],[-71.47839,42.13965],[-71.47836,42.14174],[-71.47749,42.14241],[-71.47772,42.14255],[-71.47785,42.1428],[-71.47834,42.14269],[-71.4783,42.14564],[-71.47648,42.14511]]]}},{"type":"Feature","properties":{"passed":false,"rank":null,"id":"fail-26","label":"0 Oak Grove","town":"Medway","acres":13.0,"constrained":44,"loc_id":"M_202070_877231","site_addr":"0  OAK GROVE","assess_acres":12.6,"use_code":"442"},"geometry":{"type":"MultiPolygon","coordinates":[[[[-71.47561,42.14539],[-71.47549,42.1458],[-71.47427,42.14561],[-71.47439,42.14521],[-71.47454,42.14523],[-71.47448,42.14542],[-71.47463,42.14545],[-71.4747,42.14525],[-71.47561,42.14539]]],[[[-71.47035,42.14347],[-71.47027,42.14376],[-71.46994,42.14344],[-71.4697,42.14356],[-71.46966,42.14352],[-71.46989,42.1434],[-71.46981,42.14332],[-71.46958,42.14344],[-71.46945,42.14332],[-71.47049,42.143],[-71.47041,42.14327],[-71.47013,42.14323],[-71.47007,42.14343],[-71.47035,42.14347]]],[[[-71.47277,42.14536],[-71.47218,42.14527],[-71.47224,42.14508],[-71.47235,42.14509],[-71.47241,42.14492],[-71.47271,42.14497],[-71.47265,42.14514],[-71.47318,42.14523],[-71.47312,42.14542],[-71.47277,42.14536]]],[[[-71.47546,42.14345],[-71.47536,42.14375],[-71.47506,42.1437],[-71.47508,42.14366],[-71.47479,42.14361],[-71.47483,42.1435],[-71.47512,42.14355],[-71.47513,42.1435],[-71.47484,42.14345],[-71.47496,42.1431],[-71.47523,42.14325],[-71.47519,42.1434],[-71.47546,42.14345]]],[[[-71.47544,42.14369],[-71.4758,42.14376],[-71.47582,42.14371],[-71.47546,42.14364],[-71.47554,42.14342],[-71.47614,42.14373],[-71.47606,42.14396],[-71.47539,42.14384],[-71.47544,42.14369]]],[[[-71.47599,42.14422],[-71.47583,42.1442],[-71.47577,42.1444],[-71.47514,42.14431],[-71.47521,42.1441],[-71.4756,42.14416],[-71.47566,42.14397],[-71.47605,42.14403],[-71.47599,42.14422]]],[[[-71.47328,42.14577],[-71.47319,42.14606],[-71.47307,42.14604],[-71.47317,42.14575],[-71.47265,42.14566],[-71.47272,42.14542],[-71.47336,42.14552],[-71.47328,42.14577]]],[[[-71.47648,42.14547],[-71.47594,42.14539],[-71.476,42.14519],[-71.47592,42.14518],[-71.47599,42.14498],[-71.47637,42.14503],[-71.47632,42.14523],[-71.47648,42.14526],[-71.47648,42.14547]]],[[[-71.47161,42.14452],[-71.47155,42.14472],[-71.47148,42.1447],[-71.47153,42.14451],[-71.47138,42.14449],[-71.47133,42.14468],[-71.47091,42.14461],[-71.47096,42.14441],[-71.47111,42.14444],[-71.47116,42.14425],[-71.47153,42.1443],[-71.47158,42.14452],[-71.47161,42.14452]]],[[[-71.46893,42.14342],[-71.46864,42.14351],[-71.46853,42.14334],[-71.46847,42.14336],[-71.46828,42.14307],[-71.46866,42.14302],[-71.46881,42.14324],[-71.46886,42.14322],[-71.46898,42.14341],[-71.46893,42.14342]]],[[[-71.47437,42.14318],[-71.47456,42.14289],[-71.47489,42.14307],[-71.47479,42.14339],[-71.47433,42.14329],[-71.47437,42.14318]]],[[[-71.47062,42.14509],[-71.47054,42.14534],[-71.4699,42.14523],[-71.46998,42.14499],[-71.47062,42.14509]]],[[[-71.47088,42.14394],[-71.47082,42.14414],[-71.47061,42.14411],[-71.47066,42.14391],[-71.47052,42.14389],[-71.47046,42.14408],[-71.47032,42.14406],[-71.47043,42.14367],[-71.47087,42.14374],[-71.47081,42.14393],[-71.47088,42.14394]]],[[[-71.47506,42.14408],[-71.47499,42.14428],[-71.47454,42.14421],[-71.4746,42.144],[-71.47469,42.14401],[-71.47474,42.14382],[-71.47505,42.14387],[-71.47499,42.14407],[-71.47506,42.14408]]],[[[-71.47047,42.14481],[-71.47041,42.14501],[-71.47005,42.14495],[-71.47017,42.14456],[-71.47047,42.1446],[-71.4704,42.1448],[-71.47047,42.14481]]],[[[-71.46923,42.14448],[-71.46911,42.14454],[-71.46886,42.14429],[-71.46909,42.14418],[-71.46922,42.1443],[-71.46945,42.14418],[-71.46958,42.14431],[-71.46923,42.14448]]],[[[-71.47609,42.14569],[-71.47624,42.14571],[-71.47631,42.14549],[-71.47648,42.14552],[-71.47648,42.14595],[-71.47604,42.14588],[-71.47609,42.14569]]],[[[-71.47576,42.14494],[-71.47563,42.14534],[-71.47539,42.1453],[-71.47545,42.1451],[-71.47533,42.14508],[-71.47539,42.14488],[-71.47576,42.14494]]],[[[-71.47379,42.14532],[-71.47373,42.14551],[-71.47327,42.14544],[-71.47333,42.14525],[-71.47357,42.14529],[-71.47362,42.1451],[-71.47378,42.14513],[-71.47372,42.14531],[-71.47379,42.14532]]],[[[-71.46852,42.14355],[-71.46825,42.14364],[-71.46801,42.14327],[-71.46827,42.14319],[-71.46852,42.14355]]],[[[-71.47177,42.14501],[-71.47163,42.14499],[-71.47157,42.14519],[-71.47148,42.14517],[-71.47159,42.14478],[-71.47206,42.14485],[-71.47202,42.14499],[-71.47196,42.14504],[-71.47177,42.14501]]],[[[-71.46825,42.14303],[-71.46787,42.14306],[-71.46776,42.14289],[-71.46825,42.14272],[-71.46825,42.14303]]],[[[-71.47616,42.14547],[-71.47609,42.14569],[-71.47563,42.14561],[-71.47568,42.1454],[-71.47616,42.14547]]],[[[-71.47476,42.14349],[-71.47468,42.14375],[-71.47431,42.1437],[-71.4744,42.14343],[-71.47476,42.14349]]],[[[-71.47628,42.14474],[-71.47622,42.14496],[-71.47592,42.14491],[-71.47605,42.1445],[-71.4762,42.14452],[-71.47614,42.14472],[-71.47628,42.14474]]],[[[-71.47648,42.14449],[-71.47648,42.14451],[-71.47615,42.14446],[-71.47621,42.14426],[-71.47636,42.14428],[-71.4764,42.14409],[-71.47648,42.1441],[-71.47648,42.14449]]],[[[-71.46917,42.14334],[-71.4691,42.14337],[-71.46885,42.14299],[-71.46915,42.14294],[-71.46925,42.14311],[-71.46905,42.14317],[-71.46917,42.14334]]],[[[-71.46981,42.14493],[-71.46962,42.14513],[-71.46937,42.14502],[-71.46955,42.14481],[-71.46981,42.14493]]],[[[-71.47546,42.14441],[-71.47539,42.14461],[-71.47505,42.14455],[-71.47513,42.14436],[-71.47546,42.14441]]],[[[-71.47482,42.14431],[-71.47476,42.14451],[-71.47445,42.14446],[-71.47452,42.14426],[-71.47482,42.14431]]],[[[-71.4759,42.14448],[-71.47584,42.14468],[-71.47555,42.14463],[-71.47561,42.14443],[-71.4759,42.14448]]],[[[-71.46998,42.14472],[-71.46969,42.14458],[-71.46977,42.14451],[-71.46954,42.14439],[-71.4696,42.14436],[-71.47002,42.14456],[-71.46998,42.14472]]],[[[-71.4697,42.14318],[-71.46944,42.14326],[-71.46932,42.14308],[-71.46957,42.14299],[-71.4697,42.14318]]],[[[-71.46788,42.14381],[-71.46802,42.14395],[-71.46777,42.14408],[-71.46763,42.14389],[-71.46788,42.14381]]],[[[-71.47648,42.14404],[-71.47613,42.14398],[-71.4762,42.14377],[-71.47648,42.14392],[-71.47648,42.14404]]],[[[-71.4763,42.14497],[-71.47637,42.14476],[-71.47628,42.14474],[-71.47634,42.14455],[-71.47648,42.14457],[-71.47648,42.14478],[-71.47644,42.14478],[-71.47638,42.14498],[-71.4763,42.14497]]],[[[-71.47111,42.1447],[-71.47134,42.14474],[-71.47129,42.14493],[-71.47105,42.1449],[-71.47111,42.1447]]],[[[-71.4676,42.14384],[-71.46754,42.14375],[-71.46786,42.14365],[-71.46789,42.14369],[-71.46815,42.14362],[-71.46817,42.14366],[-71.4676,42.14384]]],[[[-71.475,42.14503],[-71.47494,42.14523],[-71.47487,42.14522],[-71.47493,42.14502],[-71.47478,42.145],[-71.47484,42.1448],[-71.475,42.14482],[-71.47494,42.14502],[-71.475,42.14503]]],[[[-71.4694,42.14371],[-71.46917,42.14382],[-71.46905,42.1437],[-71.46928,42.14358],[-71.4694,42.14371]]],[[[-71.47455,42.14571],[-71.47447,42.14596],[-71.47431,42.14593],[-71.47439,42.14568],[-71.47455,42.14571]]],[[[-71.46969,42.14458],[-71.46962,42.14466],[-71.46929,42.14451],[-71.46941,42.14445],[-71.46969,42.14458]]],[[[-71.47408,42.14516],[-71.47424,42.14518],[-71.47418,42.14537],[-71.47402,42.14534],[-71.47408,42.14516]]],[[[-71.47469,42.14478],[-71.47463,42.14497],[-71.47447,42.14495],[-71.47454,42.14475],[-71.47469,42.14478]]],[[[-71.47117,42.14398],[-71.47111,42.14418],[-71.47096,42.14416],[-71.47102,42.14396],[-71.47117,42.14398]]],[[[-71.46875,42.14385],[-71.46851,42.14396],[-71.46842,42.14388],[-71.46867,42.14376],[-71.46875,42.14385]]],[[[-71.47068,42.14437],[-71.47062,42.14457],[-71.47048,42.14455],[-71.47054,42.14435],[-71.47068,42.14437]]],[[[-71.4708,42.14347],[-71.47074,42.14366],[-71.4706,42.14364],[-71.47066,42.14344],[-71.4708,42.14347]]],[[[-71.47052,42.14415],[-71.47046,42.14434],[-71.47032,42.14431],[-71.47038,42.14412],[-71.47052,42.14415]]],[[[-71.469,42.14409],[-71.46877,42.14421],[-71.46869,42.14413],[-71.46892,42.14402],[-71.469,42.14409]]],[[[-71.47057,42.14297],[-71.47071,42.14299],[-71.47065,42.14318],[-71.47052,42.14316],[-71.47057,42.14297]]],[[[-71.4699,42.14497],[-71.46983,42.14522],[-71.46969,42.14516],[-71.46986,42.14495],[-71.4699,42.14497]]],[[[-71.47477,42.14369],[-71.47506,42.14373],[-71.47503,42.14381],[-71.47474,42.14376],[-71.47477,42.14369]]],[[[-71.4684,42.14395],[-71.46815,42.14407],[-71.4681,42.14403],[-71.46836,42.14391],[-71.4684,42.14395]]],[[[-71.47088,42.1442],[-71.47095,42.14421],[-71.47089,42.1444],[-71.47082,42.14439],[-71.47088,42.1442]]],[[[-71.47018,42.14429],[-71.47025,42.1443],[-71.47019,42.1445],[-71.47012,42.14449],[-71.47018,42.14429]]],[[[-71.47044,42.14341],[-71.47051,42.14342],[-71.47045,42.14361],[-71.47038,42.1436],[-71.47044,42.14341]]],[[[-71.47146,42.14476],[-71.47153,42.14477],[-71.47147,42.14496],[-71.4714,42.14495],[-71.47146,42.14476]]],[[[-71.46953,42.14383],[-71.4693,42.14395],[-71.46926,42.14391],[-71.46949,42.14379],[-71.46953,42.14383]]],[[[-71.47069,42.14484],[-71.47062,42.14504],[-71.47056,42.14503],[-71.47062,42.14483],[-71.47069,42.14484]]],[[[-71.46799,42.14338],[-71.46774,42.14346],[-71.46771,42.14341],[-71.46795,42.14334],[-71.46799,42.14338]]]]}},{"type":"Feature","properties":{"passed":false,"rank":null,"id":"fail-27","label":"26 Alder St","town":"Medway","acres":11.3,"constrained":82,"loc_id":"M_202200_876756","site_addr":"26  ALDER ST","assess_acres":10.35,"use_code":"440"},"geometry":{"type":"Polygon","coordinates":[[[-71.47486,42.1399],[-71.47477,42.13997],[-71.47454,42.14005],[-71.47456,42.14012],[-71.47452,42.1403],[-71.47465,42.14053],[-71.47477,42.14206],[-71.47207,42.14224],[-71.47195,42.1415],[-71.47194,42.14117],[-71.47199,42.14084],[-71.47215,42.14064],[-71.47241,42.1405],[-71.47449,42.14003],[-71.47486,42.1399]]]}},{"type":"Feature","properties":{"passed":false,"rank":null,"id":"fail-28","label":"0 R Stone End Rd","town":"Medway","acres":25.3,"constrained":84,"loc_id":"M_202369_878100","site_addr":"0 R STONE END RD","assess_acres":26.240000000000002,"use_code":"132"},"geometry":{"type":"Polygon","coordinates":[[[-71.471,42.15688],[-71.47126,42.15634],[-71.47244,42.1561],[-71.4727,42.1558],[-71.47265,42.15535],[-71.47194,42.15517],[-71.47189,42.15501],[-71.47227,42.15473],[-71.47224,42.15453],[-71.47187,42.15435],[-71.4715,42.15456],[-71.47099,42.15452],[-71.47082,42.1542],[-71.47025,42.15401],[-71.47011,42.15423],[-71.47005,42.15423],[-71.47009,42.15422],[-71.47021,42.15385],[-71.47013,42.15377],[-71.46971,42.15366],[-71.4695,42.15354],[-71.4689,42.15348],[-71.46876,42.15353],[-71.4686,42.15355],[-71.46848,42.15353],[-71.46841,42.15342],[-71.46863,42.15302],[-71.46886,42.15282],[-71.46884,42.15276],[-71.47007,42.15263],[-71.47005,42.15252],[-71.47046,42.15221],[-71.47141,42.15213],[-71.47428,42.15387],[-71.47315,42.15479],[-71.47345,42.155],[-71.47361,42.1552],[-71.47361,42.15525],[-71.47347,42.1554],[-71.47331,42.15547],[-71.47337,42.15574],[-71.4735,42.15588],[-71.47349,42.15598],[-71.47332,42.15613],[-71.47309,42.15624],[-71.47282,42.15647],[-71.47275,42.15663],[-71.47283,42.15688],[-71.47088,42.15717],[-71.471,42.15688]]]}},{"type":"Feature","properties":{"passed":false,"rank":null,"id":"fail-29","label":"0 Mine Brook","town":"Franklin","acres":15.0,"constrained":51,"loc_id":"M_204523_872293","site_addr":"0  MINE BROOK","assess_acres":14.97,"use_code":"442"},"geometry":{"type":"Polygon","coordinates":[[[-71.44311,42.10137],[-71.44374,42.10129],[-71.44408,42.10083],[-71.44407,42.09993],[-71.44524,42.09936],[-71.44694,42.10095],[-71.44659,42.10215],[-71.44651,42.10262],[-71.44548,42.10228],[-71.44541,42.10241],[-71.44507,42.10229],[-71.44515,42.10216],[-71.44311,42.10137]]]}},{"type":"Feature","properties":{"passed":false,"rank":null,"id":"fail-30","label":"0 Mine Brook","town":"Franklin","acres":23.0,"constrained":64,"loc_id":"M_204785_872082","site_addr":"0  MINE BROOK","assess_acres":23.06,"use_code":"442"},"geometry":{"type":"Polygon","coordinates":[[[-71.44407,42.09993],[-71.44366,42.09977],[-71.44266,42.10027],[-71.44214,42.10036],[-71.44131,42.0995],[-71.44033,42.09945],[-71.44039,42.09889],[-71.44068,42.09826],[-71.44094,42.09785],[-71.44134,42.09777],[-71.44169,42.09778],[-71.44346,42.09836],[-71.44356,42.09875],[-71.4453,42.09872],[-71.44567,42.09883],[-71.44577,42.09939],[-71.44658,42.09911],[-71.44686,42.0987],[-71.44763,42.0986],[-71.44694,42.10095],[-71.44524,42.09936],[-71.44407,42.09993]]]}},{"type":"Feature","properties":{"passed":false,"rank":null,"id":"fail-31","label":"0 Old Town Road","town":"Hopkinton","acres":13.2,"constrained":61,"loc_id":"F_642923_2896824","site_addr":"0 OLD TOWN ROAD","assess_acres":14.75,"use_code":"131"},"geometry":{"type":"Polygon","coordinates":[[[-71.54883,42.19933],[-71.54737,42.19599],[-71.54991,42.19543],[-71.55002,42.19612],[-71.55001,42.1963],[-71.55,42.19648],[-71.54986,42.19701],[-71.5494,42.19836],[-71.54922,42.19876],[-71.54917,42.19926],[-71.54883,42.19933]]]}},{"type":"Feature","properties":{"passed":false,"rank":null,"id":"fail-32","label":"300 Fisher St","town":"Franklin","acres":18.3,"constrained":82,"loc_id":"M_207397_869446","site_addr":"300  FISHER ST","assess_acres":18.26,"use_code":"442"},"geometry":{"type":"Polygon","coordinates":[[[-71.409,42.07618],[-71.40848,42.07523],[-71.41186,42.07303],[-71.41193,42.07308],[-71.41191,42.0731],[-71.41276,42.07368],[-71.41089,42.07491],[-71.41204,42.07546],[-71.41071,42.07693],[-71.4104,42.07699],[-71.40946,42.077],[-71.409,42.07618]]]}},{"type":"Feature","properties":{"passed":false,"rank":null,"id":"fail-33","label":"0 King St","town":"Franklin","acres":24.4,"constrained":51,"loc_id":"M_207604_868174","site_addr":"0  KING ST","assess_acres":24.5,"use_code":"130"},"geometry":{"type":"MultiPolygon","coordinates":[[[[-71.41009,42.06293],[-71.41018,42.06294],[-71.41017,42.06296],[-71.41,42.06305],[-71.40985,42.06308],[-71.40989,42.06301],[-71.41009,42.06293]]],[[[-71.40661,42.06317],[-71.40666,42.06317],[-71.40661,42.06321],[-71.40656,42.06321],[-71.40661,42.06317]]],[[[-71.40621,42.06325],[-71.40659,42.06201],[-71.40724,42.06174],[-71.40752,42.06213],[-71.40833,42.0618],[-71.40861,42.06218],[-71.40904,42.062],[-71.40876,42.06163],[-71.40939,42.06137],[-71.40966,42.06204],[-71.41005,42.06201],[-71.40995,42.0628],[-71.41028,42.06291],[-71.41006,42.06292],[-71.40988,42.063],[-71.40984,42.06306],[-71.40947,42.06315],[-71.40932,42.0631],[-71.40885,42.06313],[-71.40861,42.06306],[-71.40836,42.06318],[-71.40821,42.0632],[-71.40773,42.06319],[-71.40765,42.06323],[-71.40737,42.06326],[-71.40716,42.06316],[-71.40688,42.06319],[-71.40685,42.06315],[-71.40677,42.06313],[-71.40639,42.06322],[-71.40628,42.06331],[-71.4062,42.06329],[-71.40621,42.06325]]],[[[-71.40917,42.06477],[-71.40822,42.06458],[-71.40602,42.06479],[-71.40601,42.06448],[-71.40609,42.06365],[-71.40619,42.0633],[-71.40629,42.06332],[-71.4064,42.06324],[-71.40661,42.06322],[-71.40678,42.06315],[-71.40687,42.0632],[-71.40716,42.06318],[-71.40737,42.06328],[-71.40766,42.06325],[-71.40773,42.0632],[-71.40826,42.06322],[-71.40861,42.06307],[-71.40884,42.06314],[-71.40932,42.06311],[-71.40947,42.06316],[-71.40973,42.06308],[-71.40994,42.06308],[-71.4103,42.06292],[-71.41041,42.06296],[-71.41031,42.06299],[-71.41024,42.06305],[-71.41008,42.06352],[-71.41032,42.06372],[-71.40975,42.06408],[-71.41029,42.0643],[-71.40949,42.06483],[-71.40917,42.06477]]]]}},{"type":"Feature","properties":{"passed":false,"rank":null,"id":"fail-34","label":"555 King St","town":"Franklin","acres":12.6,"constrained":55,"loc_id":"M_207925_868195","site_addr":"555  KING ST","assess_acres":11.66,"use_code":"440"},"geometry":{"type":"Polygon","coordinates":[[[-71.40369,42.06499],[-71.40288,42.06459],[-71.40249,42.06407],[-71.40292,42.06327],[-71.40342,42.06298],[-71.40397,42.06275],[-71.40408,42.06317],[-71.4043,42.06316],[-71.40471,42.06322],[-71.40492,42.06318],[-71.40566,42.06382],[-71.4058,42.06501],[-71.40605,42.06513],[-71.40606,42.06532],[-71.40369,42.06499]]]}},{"type":"Feature","properties":{"passed":false,"rank":null,"id":"fail-35","label":"0 Summer St","town":"Franklin","acres":10.4,"constrained":33,"loc_id":"M_209971_869018","site_addr":"0  SUMMER ST","assess_acres":10.39,"use_code":"132"},"geometry":{"type":"Polygon","coordinates":[[[-71.37815,42.06997],[-71.37946,42.06998],[-71.38069,42.07204],[-71.38033,42.07341],[-71.37914,42.07256],[-71.37815,42.06997]]]}},{"type":"Feature","properties":{"passed":false,"rank":null,"id":"fail-36","label":"0 Uncas Pond","town":"Franklin","acres":15.6,"constrained":14,"loc_id":"M_210148_868642","site_addr":"0  UNCAS POND","assess_acres":15.63,"use_code":"132"},"geometry":{"type":"Polygon","coordinates":[[[-71.37681,42.07021],[-71.37629,42.06934],[-71.37577,42.06731],[-71.37663,42.06707],[-71.37796,42.06681],[-71.37972,42.06677],[-71.37964,42.06724],[-71.3789,42.06768],[-71.3787,42.06773],[-71.37839,42.06791],[-71.37798,42.06841],[-71.37784,42.06883],[-71.37701,42.07074],[-71.37681,42.07021]]]}},{"type":"Feature","properties":{"passed":false,"rank":null,"id":"fail-37","label":"0 Lumber Street","town":"Hopkinton","acres":27.8,"constrained":74,"loc_id":"F_645921_2903103","site_addr":"0 LUMBER STREET","assess_acres":27.59,"use_code":"132"},"geometry":{"type":"Polygon","coordinates":[[[-71.53904,42.21216],[-71.53828,42.21368],[-71.5389,42.21409],[-71.54031,42.21314],[-71.54143,42.21371],[-71.54143,42.21424],[-71.54134,42.21472],[-71.54002,42.21442],[-71.53989,42.21527],[-71.53792,42.21527],[-71.53574,42.21364],[-71.53541,42.21333],[-71.53549,42.21281],[-71.53606,42.21275],[-71.5357,42.21133],[-71.53394,42.21049],[-71.5339,42.21034],[-71.5375,42.21206],[-71.53904,42.21216]]]}},{"type":"Feature","properties":{"passed":false,"rank":null,"id":"fail-38","label":"0 Lumber Street","town":"Hopkinton","acres":27.5,"constrained":73,"loc_id":"F_645642_2901891","site_addr":"0 LUMBER STREET","assess_acres":27.060000000000002,"use_code":"601"},"geometry":{"type":"Polygon","coordinates":[[[-71.54119,42.21201],[-71.541,42.21227],[-71.5375,42.21206],[-71.53554,42.21113],[-71.53608,42.2098],[-71.54172,42.20993],[-71.54154,42.21029],[-71.54149,42.21049],[-71.54156,42.21138],[-71.54154,42.21148],[-71.54119,42.21201]]]}},{"type":"Feature","properties":{"passed":false,"rank":null,"id":"fail-39","label":"0 West Main Street","town":"Hopkinton","acres":10.1,"constrained":62,"loc_id":"F_646735_2904666","site_addr":"0 WEST MAIN STREET","assess_acres":9.93,"use_code":"130"},"geometry":{"type":"Polygon","coordinates":[[[-71.53547,42.22121],[-71.53369,42.21741],[-71.53387,42.21731],[-71.53421,42.21656],[-71.53324,42.21477],[-71.53349,42.21475],[-71.53349,42.21463],[-71.53622,42.22072],[-71.53547,42.22121]]]}},{"type":"Feature","properties":{"passed":false,"rank":null,"id":"fail-40","label":"Off Teresa Road","town":"Hopkinton","acres":40.3,"constrained":81,"loc_id":"F_647385_2900853","site_addr":"OFF TERESA ROAD","assess_acres":36.1,"use_code":"132"},"geometry":{"type":"Polygon","coordinates":[[[-71.52818,42.20809],[-71.52854,42.20764],[-71.52919,42.20699],[-71.5298,42.20852],[-71.53067,42.20836],[-71.52955,42.20546],[-71.53049,42.20538],[-71.53168,42.20499],[-71.53348,42.20776],[-71.53385,42.21011],[-71.53154,42.21005],[-71.52998,42.21005],[-71.52954,42.20926],[-71.52882,42.2094],[-71.52848,42.20892],[-71.52818,42.2089],[-71.52818,42.20809]]]}}]}