{"type":"FeatureCollection","features":[{"type":"Feature","properties":{"name":"Detroit"},"geometry":{"type":"Polygon","coordinates":[[[-83.28780300044481,42.4426829998862],[-83.28779599987381,42.44262900019097],[-83.28779099985094,42.44260399967792],[-83.28776999993454,42.442523999692824],[-83.28776099971371,42.442448000308374],[-83.28775099966798,42.44236800012404],[-83.28771700023108,42.442103000233956],[-83.28767100020033,42.43949900000392],[-83.28766500035256,42.43931299972941],[-83.28761400029892,42.43772199977516],[-83.28761000010097,42.43759999984751],[-83.28755099965142,42.4358819999675],[-83.2875270002603,42.43488199989649],[-83.28744699989436,42.43223900016157],[-83.28735599965776,42.42912000028641],[-83.28734300013727,42.428609000131765],[-83.28734099958913,42.42855399967997],[-83.28732800006868,42.428220000312294],[-83.28730600032736,42.427716000172715],[-83.28727100016727,42.426881999779496],[-83.28722699978633,42.42569900025826],[-83.2871969996491,42.42505600005224],[-83.28711800000639,42.423247999916605],[-83.28704199983841,42.421439000015326],[-83.28692800003559,42.41909100029029],[-83.28681099985972,42.41662699975219],[-83.28671600032348,42.41467100003796],[-83.28669799988181,42.41425200009154],[-83.2866040001705,42.41175400003078],[-83.28651600030695,42.409424999726625],[-83.28651700013184,42.40931899977036],[-83.28646299970518,42.4069999997098],[-83.28560800028573,42.40702600007613],[-83.28492200002239,42.40704699987945],[-83.28349199976937,42.40710300020495],[-83.282845999689,42.40712700004486],[-83.28223899996668,42.4071509998756],[-83.2820289999044,42.40715699999769],[-83.28195199991151,42.40716000005849],[-83.28157100014498,42.407174999697155],[-83.28141700015921,42.407180999816944],[-83.28070199958356,42.40719600011389],[-83.28001299984545,42.407210999743945],[-83.27937199978797,42.40723099990839],[-83.27869899994339,42.407251000066466],[-83.27803199994662,42.40726500010702],[-83.27713099959813,42.40727799990497],[-83.27668100023463,42.40727799990497],[-83.27594100044294,42.40728099995998],[-83.27587899962033,42.40540700020552],[-83.27581400022132,42.403707999898415],[-83.27578699955882,42.40177599983327],[-83.27572499963456,42.40009600013189],[-83.27567299975603,42.39816799984086],[-83.27555800012829,42.39519099992798],[-83.27545099999816,42.392457999891526],[-83.27543199973158,42.39198499998456],[-83.27536099958648,42.39018999984258],[-83.27530200003524,42.38869799994111],[-83.27523099989014,42.38583699986708],[-83.27520800032391,42.385467999936324],[-83.27520199957782,42.38526399992293],[-83.27518599968431,42.38486899969409],[-83.27513399980575,42.38337800001456],[-83.27505599998796,42.38092800002964],[-83.27502099982785,42.379916999975364],[-83.27498800021588,42.378606999732284],[-83.26845999964006,42.378751999691],[-83.26723699997459,42.37877899984772],[-83.2666670000622,42.378793000268494],[-83.26666299986424,42.378604000297095],[-83.26666299986424,42.378542000214196],[-83.26666100021443,42.37845799996139],[-83.26665199999358,42.37785899986214],[-83.26663899957478,42.3770759997044],[-83.26663000025228,42.37640700028679],[-83.26662000020653,42.375793000031706],[-83.26661600000857,42.37554300001302],[-83.26661500018366,42.37550500021506],[-83.26659900029014,42.3744580002124],[-83.26647200006853,42.371496000202725],[-83.26639800044867,42.36909999988726],[-83.26632700030356,42.36712700018264],[-83.26632200028071,42.36697700016882],[-83.26631300005987,42.36672900001517],[-83.26621299960243,42.364266000182894],[-83.2661950000591,42.36365799968246],[-83.26617800034064,42.36308099999853],[-83.26606199998969,42.3622820000901],[-83.26605199994395,42.35890100027076],[-83.2660400002484,42.35853299972967],[-83.26598699964663,42.35704600024441],[-83.26565600010883,42.357055000310496],[-83.26549299990224,42.35506999980749],[-83.26533399989354,42.353539000289956],[-83.26514399992276,42.3517299999582],[-83.26486400043858,42.34893000025336],[-83.26461199964521,42.34630000028851],[-83.26441599982662,42.344377000052795],[-83.26434200020677,42.34357199980012],[-83.26438999988734,42.343324000223745],[-83.26435300007742,42.34308900014553],[-83.26425000014527,42.34279500015574],[-83.26410600020522,42.34258400004283],[-83.26398700037953,42.342152000192556],[-83.26398599965631,42.34205800024077],[-83.26402199964132,42.34174900007999],[-83.26404500010587,42.34169099996653],[-83.26370799982196,42.341700000239484],[-83.26318599959014,42.341714000292654],[-83.26246599988991,42.34173300012272],[-83.2622380002843,42.34172900029878],[-83.2609860003065,42.341700000239484],[-83.2608170002521,42.341696999706],[-83.25977000031374,42.3417050000217],[-83.25851400013799,42.34173200016674],[-83.25728800009948,42.34176300012229],[-83.25607799995448,42.34179699992742],[-83.25485699993885,42.341831999668514],[-83.2538390003128,42.34187399973057],[-83.25362300040273,42.341893000176235],[-83.25241200043281,42.3420080000255],[-83.25216700021045,42.342034000089264],[-83.24886700038668,42.34239699990789],[-83.24450200018286,42.34288000023082],[-83.24428100024993,42.34289699983368],[-83.24372100038329,42.34294899987919],[-83.24327500031944,42.34298099983475],[-83.2430760001278,42.34298899998712],[-83.24250500039051,42.34300500028874],[-83.24135499962165,42.34302199985779],[-83.24018600038288,42.34304399976196],[-83.24001499978031,42.34304700023117],[-83.23900999967475,42.34306600032235],[-83.23784599956052,42.34308599967832],[-83.23770699964334,42.33944800014488],[-83.23756799972617,42.33573600018645],[-83.23732000002906,42.33574199983008],[-83.23634000003784,42.335786000076816],[-83.23552699955287,42.3358069998064],[-83.23510499977847,42.3358339998279],[-83.23504600022724,42.3342700001552],[-83.2350000001965,42.33304300019633],[-83.2349719997091,42.33272700019813],[-83.2349509997927,42.332265999938066],[-83.2349370004473,42.331989999820486],[-83.23500600004427,42.330776000241094],[-83.23498099992992,42.32983000012285],[-83.23465399969177,42.32984300001732],[-83.23245000021019,42.33086999979164],[-83.23126799965428,42.331330000200914],[-83.23011799978374,42.33178799967422],[-83.23009000019466,42.33179800015042],[-83.22894199997396,42.33222899997096],[-83.22852500022245,42.33238200023233],[-83.22791299957892,42.33260700013592],[-83.2277069997146,42.33237699970883],[-83.22644999971394,42.33057800004998],[-83.22560600016517,42.32936899988098],[-83.22532900015574,42.328947999987335],[-83.22522600022357,42.32881200009625],[-83.22519699991125,42.328809000276],[-83.22502899968177,42.32881499991635],[-83.22481000029696,42.328641000152935],[-83.22386299991771,42.32865899978436],[-83.22268100026012,42.32868200022829],[-83.2214839996356,42.328716999963724],[-83.2204479995679,42.32875799998959],[-83.22026400034319,42.328765999959124],[-83.21996999971701,42.32877900007349],[-83.2181319999333,42.3288910001811],[-83.21759999965575,42.3289240001451],[-83.21696799981908,42.32893099993398],[-83.21607400004157,42.32893300025302],[-83.21599700004869,42.3289339997484],[-83.21576799971983,42.32893799972213],[-83.2156670003358,42.328938999881544],[-83.21558500032002,42.328941000200295],[-83.21535500016627,42.328945000173576],[-83.215357999641,42.32901799980685],[-83.21536199983896,42.32910500022348],[-83.21538100010552,42.32976899986702],[-83.21539500034923,42.330331999970674],[-83.21529099969385,42.33169900008114],[-83.21527999982318,42.3319239997717],[-83.21527700034846,42.33221300024761],[-83.215357999641,42.33306099989621],[-83.21539000032637,42.33334700019246],[-83.21539399962602,42.33358400032786],[-83.2154070000448,42.33472900020104],[-83.21541500044073,42.33613500014331],[-83.2150820003548,42.336139000323094],[-83.21488399998806,42.336133000053294],[-83.2146880001695,42.336115999949804],[-83.21444700014506,42.33607800020958],[-83.21419900044795,42.336020000177434],[-83.21402500037068,42.33596100004399],[-83.21386700018692,42.335895000178084],[-83.21377299957729,42.33584899990861],[-83.21365799994955,42.3357839999757],[-83.21324799987073,42.33604600006107],[-83.21320400038812,42.336063000183486],[-83.21303699998353,42.33612699978292],[-83.21281199985263,42.33617399989342],[-83.21259400029275,42.336194000113466],[-83.2119930004182,42.33621200023964],[-83.21072899984654,42.33624400030367],[-83.20950700000598,42.336268000009035],[-83.20828799964018,42.33628800019918],[-83.20706699962453,42.33630600029845],[-83.20588599979186,42.336317000098376],[-83.20458000028572,42.33631900018249],[-83.20335000004926,42.33632899993825],[-83.20210999976703,42.336353000275174],[-83.20086600018514,42.3363680002321],[-83.19962500007803,42.33638899976735],[-83.19853200010891,42.33640000021676],[-83.19839300019173,42.33640799987837],[-83.1982860000616,42.33641300008137],[-83.19717300000102,42.33642699998365],[-83.19613500028346,42.33643500030588],[-83.19591000015258,42.33643899980258],[-83.1959829999475,42.33823999983803],[-83.19603300017621,42.33943300025865],[-83.19612400041282,42.33968199989914],[-83.19614199995615,42.34005099991312],[-83.19622300014701,42.34195100010341],[-83.19628699972112,42.34348799992467],[-83.19628800044433,42.34366500021899],[-83.19628900026925,42.34388899967083],[-83.19632400042934,42.34461899999914],[-83.19631500020853,42.34487999988486],[-83.1963419999727,42.34545600014838],[-83.19637299993484,42.34604899986048],[-83.19643200038439,42.34727599967039],[-83.19648799956256,42.34842099986917],[-83.19654399963906,42.349595000207394],[-83.19660899993637,42.350890000263924],[-83.19550799957133,42.35091200007029],[-83.19445200031048,42.35093099977617],[-83.1933919999533,42.35095199975886],[-83.19233099977122,42.35097199992558],[-83.1912870002059,42.35099200008587],[-83.19028299992524,42.35101099976757],[-83.18925600007834,42.35103199972353],[-83.18810299983477,42.351052999672476],[-83.18691100013145,42.35107899997892],[-83.18676700019138,42.351085000150256],[-83.18568400026803,42.351102999996925],[-83.1844790001459,42.351127999812256],[-83.18207300009963,42.351178999882734],[-83.18193400018245,42.35118100015804],[-83.17959199971027,42.351232000185504],[-83.17837999991546,42.35125799975402],[-83.17718400001418,42.351283999975664],[-83.1760240000979,42.35131000018655],[-83.17491600006016,42.35133400011636],[-83.17375799979371,42.35135899983982],[-83.17260100025048,42.35138400021722],[-83.17136799964096,42.35141100018879],[-83.16999900038562,42.351441000217335],[-83.16969999973658,42.35144500008729],[-83.16850300001038,42.351475000099605],[-83.16739300032282,42.35149899996636],[-83.16629500033082,42.35152400028813],[-83.16612200007845,42.3515280001528],[-83.16502499991137,42.3515529997991],[-83.16391600004872,42.351577000299955],[-83.16208900013568,42.35161800002796],[-83.16092900021938,42.35164199984011],[-83.15977299960277,42.35166700010495],[-83.15866399974011,42.351690999898445],[-83.15752499974023,42.351716000143796],[-83.1563389998847,42.351739999918564],[-83.1551630000749,42.35176399968413],[-83.15398700026509,42.35178700030838],[-83.15263499982989,42.35181599969804],[-83.15163499974717,42.35183600025366],[-83.1506299996416,42.351856000139044],[-83.1496229998862,42.35187699981273],[-83.14861799978061,42.35189800014324],[-83.14773599969868,42.35191599975708],[-83.14768399982016,42.35155999972481],[-83.14766700010172,42.35127499974695],[-83.14765399968294,42.351194000286135],[-83.14759199975865,42.350753000210126],[-83.14754499990299,42.34991799986598],[-83.14771300013247,42.3491410003129],[-83.14795599980673,42.34740399988033],[-83.14843100018287,42.34468799973089],[-83.14887899989652,42.34422100001062],[-83.14917799964728,42.3427329999191],[-83.14922700005108,42.342489000129035],[-83.14940899962595,42.341461000226055],[-83.14949400001477,42.34103599973336],[-83.14955199974109,42.34082499969335],[-83.14963299993194,42.34061400027324],[-83.14970099970401,42.34046999990376],[-83.14978799974264,42.340294999868476],[-83.14989999989562,42.34011600008355],[-83.15002100026946,42.3399500002505],[-83.15013300042246,42.33978000003128],[-83.15023499963138,42.339654000212796],[-83.15090099980326,42.338868999946804],[-83.15103200022283,42.338788999775474],[-83.15176899964148,42.33830799991982],[-83.15233500025423,42.33799399984587],[-83.15318300000096,42.337612000099156],[-83.15384999999773,42.33738200004684],[-83.15442800030605,42.337239000271545],[-83.1551720002957,42.33710699983282],[-83.15582599987371,42.33699100028496],[-83.15585699983585,42.33698099997048],[-83.1569809997671,42.336961000000734],[-83.15685400044381,42.333943000132116],[-83.15673700026794,42.32992499990269],[-83.15671600035155,42.329521999794174],[-83.15668700003923,42.32890899974099],[-83.15668000036655,42.328731000250954],[-83.15667399962044,42.32856000008739],[-83.15664600003136,42.328163000233936],[-83.15663099996274,42.3279520001687],[-83.15659400015282,42.32779800024402],[-83.15655800016782,42.327668999788344],[-83.1565509995968,42.327240000308805],[-83.15500499989115,42.32765399974911],[-83.15320899994023,42.32808699975376],[-83.15294199997653,42.32773599983149],[-83.14943100026558,42.32289699978949],[-83.14713499982415,42.31975300007738],[-83.14703799973978,42.319630000246875],[-83.1469480002264,42.31952499976398],[-83.14681000013415,42.31930800007047],[-83.14631200019177,42.318615999854394],[-83.14611800002302,42.31834400027379],[-83.14422099978977,42.31574299979237],[-83.1434480003861,42.314690000109046],[-83.14176700006291,42.312402000162884],[-83.140780000399,42.31100799987709],[-83.14068199959141,42.310796000290374],[-83.14058899970497,42.31057899972633],[-83.1405550002681,42.31038500023269],[-83.14053400035169,42.31023300007466],[-83.140484000123,42.31008500005759],[-83.13980700008048,42.30900499981188],[-83.13973699976027,42.30884099987635],[-83.13971699966879,42.30866200026111],[-83.13977500029343,42.30849100002709],[-83.13987400002763,42.30832099981566],[-83.14004200025713,42.308210000117704],[-83.14042300002362,42.308041000303405],[-83.14060600032172,42.30788899979983],[-83.14072299959928,42.30766099968503],[-83.14075399956141,42.307437000085045],[-83.14068199959141,42.307168000209096],[-83.1405839996821,42.30684600004629],[-83.14068300031461,42.30667600004291],[-83.14080700016318,42.30658999968658],[-83.14096600017183,42.30651600008934],[-83.14118000043207,42.30646899974337],[-83.14135600015916,42.306458000038994],[-83.14223300021823,42.30609800031795],[-83.14239399987673,42.30598700002199],[-83.14247800044063,42.30584700021347],[-83.14249900035702,42.30568600028132],[-83.14249400033414,42.30550200032926],[-83.14243800025766,42.30525199971317],[-83.1422809998988,42.304828000251995],[-83.14223900006603,42.30471300018949],[-83.14195299983577,42.30407299990352],[-83.14192900044462,42.30368599997595],[-83.14165200043519,42.30217199969483],[-83.14141899990837,42.30164299966829],[-83.14077000035327,42.3003409997236],[-83.14052500013086,42.2995440003225],[-83.14040299993215,42.29905400031413],[-83.14052799960561,42.29774900001813],[-83.14070000003305,42.29703599993215],[-83.14093000018681,42.296509999977225],[-83.14127599979322,42.29600700004294],[-83.14156299984842,42.295457000149305],[-83.14168599987205,42.29534999981361],[-83.14184800025377,42.29519000031386],[-83.14231799970874,42.29470299976681],[-83.14247800044063,42.294554999786364],[-83.14264099974893,42.29441499980799],[-83.14287699975047,42.2944119996769],[-83.14299599957617,42.29441100029762],[-83.14316200015584,42.29440900021012],[-83.14320800018659,42.29441599985165],[-83.14346099990657,42.29443299992705],[-83.14365900027329,42.29441100029762],[-83.14377300007611,42.29438299973124],[-83.14391799984107,42.2943030001328],[-83.14400800025274,42.29419499978274],[-83.1440400000398,42.29409100010739],[-83.143998000207,42.29379200008412],[-83.14447299968485,42.29358399989515],[-83.14453299995931,42.29356899970483],[-83.14534200024632,42.29323699980495],[-83.14574200027938,42.29312600009251],[-83.14604100003011,42.29304300003006],[-83.14622099995519,42.29298400012732],[-83.14625199991733,42.2929730000605],[-83.14637599976588,42.2928870002572],[-83.14660199972168,42.29284900032212],[-83.14671200022485,42.29282999968152],[-83.14695700044724,42.292800999671925],[-83.14710800005997,42.29265900030301],[-83.14711700028082,42.29264499996417],[-83.14731800012227,42.29256899977912],[-83.14746799991009,42.2925390002404],[-83.1476589997058,42.2925390002404],[-83.14784100017899,42.29255899971296],[-83.14798699976886,42.29261000010015],[-83.14811700036351,42.29271400022761],[-83.14851400002355,42.29288199991729],[-83.14868200025305,42.29312199983583],[-83.14882299982003,42.29320200026995],[-83.14902000036186,42.293417000144],[-83.14914699968514,42.29367100013126],[-83.1492849997774,42.29381299987649],[-83.14942399969456,42.294086999912],[-83.14949700038781,42.29430899974072],[-83.14956900035784,42.29452599990659],[-83.14955400028923,42.29471999976478],[-83.14956099996192,42.29486900005843],[-83.1496160002135,42.29501900003365],[-83.14968800018352,42.295236999777195],[-83.14968300016066,42.295407000102],[-83.14968200033574,42.295419999799165],[-83.14976299962828,42.29556599968954],[-83.15006800012512,42.29582499975454],[-83.15033500008882,42.29600399998764],[-83.15054099995315,42.29611399992678],[-83.15083300003118,42.296205000051344],[-83.15107900007848,42.29623299980766],[-83.15122499966836,42.29623599985204],[-83.15133000014866,42.29626500027329],[-83.15148499995935,42.29628099983559],[-83.15177100018961,42.29626800031615],[-83.15363099971462,42.29566700018022],[-83.15412500035734,42.295562000252325],[-83.15448199983442,42.29555600009924],[-83.1548120004456,42.2955840001441],[-83.15536300009143,42.29554399979147],[-83.15561699963632,42.29547599999737],[-83.15608399961657,42.29537399983642],[-83.15650299991623,42.2953449996693],[-83.15689299990356,42.29527999975026],[-83.15696599969849,42.29527100014464],[-83.15716599971505,42.29523499971592],[-83.15732800009675,42.29518100003093],[-83.15747899970948,42.29511399987753],[-83.15777400016057,42.294964000128516],[-83.15801299963687,42.29479099982379],[-83.15817900021653,42.294558999952024],[-83.15825100018655,42.29432599984504],[-83.1582600004074,42.294130000005765],[-83.15823100009507,42.29391099970114],[-83.15813800020865,42.29375400003056],[-83.15802900042871,42.29360200025176],[-83.15792800014637,42.29345000010607],[-83.15789499963608,42.293374000227935],[-83.15783299971181,42.29322799990739],[-83.15778699968106,42.29303700030155],[-83.1577900000541,42.292800999671925],[-83.15780099992476,42.29267299997422],[-83.15781199979541,42.292591000051964],[-83.15785000032857,42.292436999974214],[-83.15793999984193,42.29232500010405],[-83.15810200022364,42.29216199999053],[-83.15833300020232,42.292024000172106],[-83.158668999763,42.29195800006539],[-83.15913099972035,42.29194899998512],[-83.15991099969503,42.291934000069865],[-83.16047300010982,42.29192299981966],[-83.16096199983136,42.291895000140705],[-83.16120100020596,42.29187100012112],[-83.16126200030533,42.291864000196796],[-83.16140500042047,42.2918490002613],[-83.16174799965383,42.29178899981923],[-83.16224200029656,42.29159799983659],[-83.16231900028944,42.29156799983538],[-83.16266999991873,42.29143300031768],[-83.16304099963948,42.291263999991855],[-83.16322599958741,42.29116499994035],[-83.16324400002908,42.29115200002938],[-83.16351000016785,42.291004999776426],[-83.16400700028531,42.29073100028784],[-83.16426300037836,42.29058999967907],[-83.16469400037357,42.29031099983479],[-83.16527299960849,42.290056000139515],[-83.16609600013919,42.28981699995177],[-83.16707399958227,42.289571000007115],[-83.167055000214,42.28952300018144],[-83.16702199970372,42.2894589996924],[-83.16685199982442,42.28914800007647],[-83.16676499978578,42.2890279999701],[-83.16665600000584,42.28890600003743],[-83.16654399985285,42.288797999736424],[-83.16643599989783,42.28869800032636],[-83.16572299987027,42.28808299969992],[-83.16525800043819,42.28770300023964],[-83.16496999965977,42.287441000203515],[-83.164562999954,42.28707999991595],[-83.16431199988384,42.286840000234875],[-83.1642249998452,42.28675699986378],[-83.16416499957074,42.28667900021609],[-83.1639079996528,42.28623899984902],[-83.16380700026878,42.28605500022213],[-83.16337000042577,42.28526299973834],[-83.16334199993835,42.28521399976316],[-83.16317999955665,42.28492299969486],[-83.16306300027911,42.284685000167656],[-83.16294699992817,42.28445200008625],[-83.1624509996356,42.28333699974524],[-83.16229800037304,42.28300400018643],[-83.16218399967191,42.282792000013394],[-83.16202200018851,42.2825330001882],[-83.16187700042357,42.282331999692744],[-83.16179899970744,42.2822330002248],[-83.16147200036762,42.281856999680386],[-83.16089400005929,42.2813030001666],[-83.16079399960188,42.281204999999886],[-83.16073699970046,42.28114899974126],[-83.15973099976996,42.2801620002232],[-83.15874199955792,42.27927900024243],[-83.15868899985446,42.27923200017062],[-83.1582400003159,42.278844000161634],[-83.15851999980008,42.27847399978455],[-83.1606060001792,42.27571299994216],[-83.16080199999779,42.275452999920155],[-83.16117299971854,42.27497500016918],[-83.16135799966648,42.27460899977799],[-83.16148700043621,42.27435099991396],[-83.16184300008838,42.27394299970453],[-83.16510299972917,42.27006700025924],[-83.16745900044505,42.26726800030795],[-83.16795300018947,42.26663499982631],[-83.16813899996231,42.26645199994567],[-83.16831200021467,42.26628500006685],[-83.1685189999039,42.26609700002828],[-83.16868100028562,42.26595699996063],[-83.1688639996854,42.26576299994183],[-83.16966499957648,42.26487499973995],[-83.16967600034543,42.2648529997603],[-83.16977000005677,42.26474199989719],[-83.16990700032412,42.26457699984726],[-83.16938000006942,42.26447699988887],[-83.16923399958125,42.26445399991587],[-83.1690760002958,42.26441799982574],[-83.16895200044725,42.264381999715],[-83.16883899957104,42.26434300001508],[-83.16872499976823,42.26429500024897],[-83.1686179996381,42.26424299968549],[-83.1685189999039,42.264187000309235],[-83.16842600001748,42.26412499973086],[-83.16833999980375,42.264057999787845],[-83.16826100016104,42.26398700032624],[-83.16818800036611,42.26391200000286],[-83.16810999964999,42.26381700030721],[-83.16803000018236,42.26369599995581],[-83.16779699965554,42.263265000174215],[-83.16726399955307,42.26228100011992],[-83.16700499998528,42.26197400022456],[-83.16692299996954,42.26187799970792],[-83.16690000040332,42.26183500020476],[-83.16683500010598,42.261565999678794],[-83.16679300027319,42.2612859997189],[-83.16678599970217,42.26119800006358],[-83.16677800020459,42.261077000004555],[-83.16677900002948,42.26095700028812],[-83.1667799998544,42.26080399991952],[-83.16677499983152,42.26069400015512],[-83.16677900002948,42.26050899981642],[-83.16675999976292,42.26033799980764],[-83.16671700010521,42.26016899984486],[-83.16664400031028,42.25999100010242],[-83.16659999992933,42.259909000193936],[-83.16654100037812,42.259816000306515],[-83.16643199969987,42.2596750003228],[-83.16639999991281,42.25963800023246],[-83.16635499970695,42.25959599979803],[-83.16628399956186,42.25953000029368],[-83.16603300039,42.25931000011709],[-83.16576899990105,42.25909700007907],[-83.16559999984663,42.25897100027041],[-83.16543800036324,42.25885399970022],[-83.16529500024811,42.25875100013806],[-83.164815999674,42.2584399998776],[-83.16447699974027,42.258227000225226],[-83.16401800015596,42.25793799978061],[-83.16375899968989,42.257774999796894],[-83.16349400027433,42.25759999983483],[-83.16326800031852,42.257427999949805],[-83.16306099973097,42.25724499993973],[-83.16283399995025,42.25701000018341],[-83.16273600004097,42.25689199998961],[-83.16211300042511,42.25608600017647],[-83.16172000006472,42.25558099997167],[-83.16160999956156,42.25545599978378],[-83.16149499993384,42.2553360000086],[-83.16136900043546,42.255217000006105],[-83.161268999978,42.25512999986213],[-83.16112699968781,42.255015000152625],[-83.16105200024305,42.25495999989942],[-83.1608589998992,42.255191999977],[-83.16073300040081,42.25533300001129],[-83.15893400007685,42.2573679999723],[-83.15668299984127,42.26005200016785],[-83.15604599998174,42.260796999867694],[-83.15490899963169,42.262149999905645],[-83.15303300021314,42.26440100029305],[-83.15142499968489,42.26643699994281],[-83.14973900023716,42.268433999822015],[-83.14804000037063,42.270437999899954],[-83.14635300019967,42.27243400026203],[-83.14465500015804,42.27442799983966],[-83.1435339997015,42.27573500011977],[-83.14221599960148,42.277313999789115],[-83.14082100040687,42.27892799994819],[-83.14062100039035,42.279176000152404],[-83.14036799977202,42.27946599989817],[-83.13879399957897,42.281325999973426],[-83.13798199981724,42.282287999948394],[-83.13769200028734,42.28261100031686],[-83.13752999990564,42.28279099978518],[-83.13687100030478,42.28253099972353],[-83.13657199965573,42.28241900018427],[-83.13636199959345,42.282391000268355],[-83.13628999962341,42.282400999954945],[-83.1362050001329,42.28240599979764],[-83.13607200006354,42.28244599985404],[-83.13602000018498,42.28247600021199],[-83.13598199965183,42.282499999823486],[-83.13596199956035,42.28252899992335],[-83.13592800012347,42.28254100005246],[-83.13587100022208,42.28258700008303],[-83.13585699997836,42.282608999854666],[-83.13574400000046,42.28258899988136],[-83.13567399968028,42.282744999903485],[-83.1342900003563,42.282225999894],[-83.13285599990535,42.28180400006837],[-83.13156999959237,42.28140799993871],[-83.13027999997973,42.281099999889534],[-83.1287900003506,42.280791000068675],[-83.12197100041993,42.27943499981946],[-83.11943700032714,42.279172999960096],[-83.11885200034612,42.27913400010607],[-83.11837299977203,42.27918699996997],[-83.11805700030284,42.27930299974236],[-83.1178510004385,42.27946200010331],[-83.11774400030839,42.27962299995542],[-83.11770300030052,42.28002500030856],[-83.11771900019403,42.28041200009051],[-83.11783899984464,42.281162999976736],[-83.11893699983663,42.28297500030515],[-83.11906900008111,42.283282999828586],[-83.11936700000695,42.28440099973954],[-83.11934400044073,42.28476200009353],[-83.11938299990047,42.28511599969842],[-83.11950400027429,42.28560400012424],[-83.11981100042095,42.28645599990665],[-83.11995399963777,42.28755400027155],[-83.11985800027662,42.28801399967968],[-83.11969099987203,42.288384999997106],[-83.11953600006133,42.28875399985605],[-83.11932599999906,42.289056999723236],[-83.11826399999208,42.28972700001864],[-83.11799100018061,42.28978900000116],[-83.11737600006236,42.29002100016589],[-83.11662399967678,42.29018600006101],[-83.1163149998803,42.290202999949145],[-83.11615099984876,42.29021200027896],[-83.11584600025024,42.2902300002702],[-83.11470499970223,42.290176999727535],[-83.11452399995225,42.2901460002671],[-83.11365600011403,42.28999800021065],[-83.11207400042336,42.28958800006122],[-83.11114399976255,42.28947400019701],[-83.10931299965154,42.28923900029819],[-83.10922499978798,42.2892249998637],[-83.10838999956172,42.289056999723236],[-83.10366600023102,42.28792200019972],[-83.10121099978095,42.28710700024651],[-83.0986869997339,42.286146000260054],[-83.09770400026794,42.28967499983622],[-83.09073399982624,42.296279999821536],[-83.08002000004507,42.30717200023789],[-83.07896800008382,42.30798000018039],[-83.07839399997347,42.30842000013532],[-83.07820700037571,42.30856499996004],[-83.07626199956357,42.3095299998838],[-83.0734250004204,42.310937999948386],[-83.06363700020376,42.316857000006124],[-83.06203399969839,42.317389999767705],[-83.04981000019656,42.32145899988891],[-83.04524099977824,42.322762999951365],[-83.04084299996248,42.324017000310654],[-83.04058000019677,42.3240929997304],[-83.0395070003191,42.32460300003319],[-83.03915300031679,42.32477100031375],[-83.02623400033079,42.32890999990088],[-83.02403400014883,42.32942999986063],[-83.01902399968958,42.3306159997929],[-83.01717000001233,42.330879999749655],[-83.01407600005288,42.33132099977184],[-83.008036000272,42.33160200009021],[-83.00362800041049,42.331807999960894],[-82.9998909998454,42.331982000260986],[-82.9891970001557,42.332480999890656],[-82.97878499960001,42.33515099997693],[-82.96310399991559,42.33917299966968],[-82.95974999966514,42.3400330002218],[-82.94810799977127,42.346041999984934],[-82.94548499999001,42.347396000289784],[-82.94157199969783,42.348255999906115],[-82.94097900021923,42.348389999876986],[-82.94013700032025,42.34858000031707],[-82.9316989999907,42.350486999732574],[-82.92628799967345,42.35164700015944],[-82.92594399971685,42.35171900019911],[-82.92454100012634,42.35201799990563],[-82.92404700038192,42.352122999924696],[-82.92417399970522,42.352298000230576],[-82.92514000035105,42.353606999757886],[-82.92724099990049,42.356453999776356],[-82.92725799961892,42.35647600029046],[-82.92774499969065,42.35700200027137],[-82.92867100015349,42.35801199976428],[-82.92851899981754,42.35807099978357],[-82.92843799962668,42.35810000025655],[-82.92856599967318,42.35829499967875],[-82.92996199959103,42.360365000202144],[-82.93000500014703,42.36048099977025],[-82.93029300002713,42.36091400009466],[-82.93069700025819,42.36152500018564],[-82.93094699960511,42.36190300013287],[-82.9303540001265,42.36214000016201],[-82.93053999989934,42.3624170003178],[-82.93058599993009,42.36248700005125],[-82.93238699990387,42.3651240001164],[-82.93352199970579,42.36684400022421],[-82.93497700007318,42.36907499992077],[-82.9355429997876,42.36993000002999],[-82.93740200038602,42.372692999806],[-82.93876200031885,42.37474199980736],[-82.93890999955852,42.37514000030337],[-82.93935399997252,42.37593699977653],[-82.93938199956162,42.37596900019113],[-82.93942599994256,42.37599299999369],[-82.93947600017125,42.37600500022331],[-82.93952800004982,42.376006999708366],[-82.93958999997409,42.37600400014899],[-82.93968100021068,42.375988000284416],[-82.93973399991413,42.37607099978629],[-82.93994899999929,42.37640600021888],[-82.94131399995497,42.3784689996849],[-82.94257199978055,42.38039499993079],[-82.94241299977188,42.380461000188454],[-82.94256699975767,42.380673999883264],[-82.94283799991932,42.381093999799994],[-82.94300100012593,42.38103900014453],[-82.94391099979696,42.38241800019074],[-82.94543300011148,42.38473900028471],[-82.94579899980938,42.38531600008035],[-82.94572600001445,42.38534399999414],[-82.94605999992528,42.38585999996177],[-82.94614899961374,42.3859809998019],[-82.94687599988497,42.38698999994922],[-82.94673500031799,42.387042999902576],[-82.94664400008139,42.38746899969233],[-82.94647000000411,42.38749500019023],[-82.94560200016589,42.38764799996722],[-82.94447300021176,42.38784700010359],[-82.94403899984347,42.38792499976826],[-82.94335299958013,42.38804700015519],[-82.94289099962278,42.38812799987867],[-82.94274300038308,42.388154000103604],[-82.94271099969771,42.38816000005193],[-82.9425900002222,42.38818299995902],[-82.94221000028061,42.38824700023307],[-82.94166200010952,42.38834399973615],[-82.94088999963245,42.38847899968434],[-82.94057099979021,42.3885430003201],[-82.93960300039289,42.38872800008039],[-82.93941599989682,42.38877099985689],[-82.93921900025332,42.38881500013779],[-82.93834300001916,42.389016000289764],[-82.93764300041045,42.38918199990693],[-82.93734700013444,42.38925400006005],[-82.93720499984421,42.38928800004834],[-82.93635200007459,42.38952200001462],[-82.93610000017951,42.38959600015702],[-82.93550299960462,42.38978199998617],[-82.93537000043355,42.38982700007605],[-82.93463399994148,42.39007899998326],[-82.93439999958977,42.390158999889685],[-82.93343100036752,42.390500999700016],[-82.93243999960733,42.39086900006461],[-82.93193099979429,42.391060999773366],[-82.93144799992054,42.39124299991565],[-82.93032499981419,42.391689000205815],[-82.92905500029305,42.39221499992028],[-82.92779499991936,42.39273300008109],[-82.92726099999196,42.39295100028708],[-82.92667099998808,42.39318199980079],[-82.92648199984221,42.39325600027225],[-82.92569199982178,42.393564000149674],[-82.92535299988808,42.3936960001083],[-82.92461999976905,42.393981999840264],[-82.92444200039213,42.39405500024504],[-82.92346499987566,42.394431999693424],[-82.9223989996707,42.394828999668356],[-82.92218100011081,42.39495399988589],[-82.92186700029146,42.39517199967489],[-82.92171800032853,42.39529900007018],[-82.92167599959743,42.39534400018517],[-82.92156900036561,42.395460000170544],[-82.92137500019687,42.39570099999808],[-82.92106100037749,42.39614500028231],[-82.9203490001749,42.397154000245806],[-82.92012900006688,42.397465999825144],[-82.91975400014813,42.397995999773336],[-82.91933999987135,42.39858300023793],[-82.9191180001135,42.39892600029123],[-82.91874800021766,42.39949599980905],[-82.91870800003468,42.399557000064014],[-82.91831499967428,42.40038300023459],[-82.9177170001728,42.40163699997086],[-82.91713499966654,42.40284799979892],[-82.91686400040321,42.40339699981706],[-82.91679400008299,42.403528000020046],[-82.9162960001406,42.404470999850794],[-82.91592600024477,42.40517099988498],[-82.91562900014384,42.40579800014306],[-82.9149350003829,42.40726599968342],[-82.91444199956508,42.408316999994376],[-82.91389699976703,42.409479999714684],[-82.91368699970477,42.40992699992726],[-82.91329699971742,42.41076000016603],[-82.91317100021904,42.41102899998929],[-82.91296899965435,42.41145900015603],[-82.91288699963859,42.41163400030534],[-82.91280100032317,42.41183000015818],[-82.91274299969855,42.41196499999166],[-82.91266300023092,42.412148000024146],[-82.91255699992571,42.41239000024753],[-82.91239200006926,42.41276799978599],[-82.91230300038082,42.41296199977687],[-82.91209999999121,42.41340700009407],[-82.91174299961583,42.41419100019672],[-82.91131199962061,42.41514699972891],[-82.91119100014512,42.41542099985483],[-82.91096099999133,42.41602500014975],[-82.91093300040225,42.41609900020971],[-82.91077299967037,42.416594000076856],[-82.91068999982967,42.41694900017481],[-82.91065100036995,42.41711699968126],[-82.91063399975319,42.41718900027941],[-82.91054699971455,42.41779999996438],[-82.91053400019409,42.41788999971887],[-82.9105290001712,42.41794400017274],[-82.9104859996152,42.418379000327384],[-82.91046899989675,42.418549000101336],[-82.91045499965304,42.41874100000178],[-82.91042700006396,42.41902300009535],[-82.91054000004186,42.41902899974495],[-82.9125979999336,42.419832999985],[-82.9132740001512,42.42009599980956],[-82.91339299997688,42.4201650002012],[-82.91345599972607,42.420226000253486],[-82.91349199971108,42.42026800029846],[-82.91352699987118,42.42029899996624],[-82.91355399963535,42.42031599984175],[-82.91359899984121,42.4203369998376],[-82.91428599992946,42.42062000007485],[-82.91435000040188,42.42063699986333],[-82.91439800008246,42.42064500007425],[-82.91446199965657,42.420650000205576],[-82.91456999961159,42.42065599969949],[-82.91482300022992,42.42075200014471],[-82.91531299977635,42.420955000166984],[-82.91538200027163,42.420982000074716],[-82.91611600021555,42.42128000029773],[-82.91626299963035,42.42133699986753],[-82.91632700010277,42.4213540001247],[-82.91741900024697,42.421781999776364],[-82.9179919996341,42.42201199990686],[-82.91864100008753,42.422275999875815],[-82.91988700021753,42.422782999961804],[-82.92093699963063,42.42321699971749],[-82.92189499988055,42.42361299993223],[-82.92286900002398,42.424016000106285],[-82.9238130000302,42.42440600011851],[-82.92475200001353,42.424792999813526],[-82.9256990003928,42.42518700011249],[-82.92661200043686,42.42556600004612],[-82.92715100038711,42.42578899994762],[-82.9273060001978,42.42587299985056],[-82.9274950003437,42.42597499991292],[-82.92765600000217,42.426062000049455],[-82.92787799976001,42.42618299995483],[-82.92800699963146,42.4262530002154],[-82.92999000007843,42.42706500004558],[-82.93219500028326,42.42796799975444],[-82.93434299968835,42.42884499978662],[-82.93738200029453,42.43008999989064],[-82.93982799962545,42.4310890003137],[-82.9400560001294,42.43118199979582],[-82.9404159999795,42.4313290000005],[-82.94078800042351,42.43148099979097],[-82.94361200004622,42.432637000076156],[-82.94573500023527,42.43350299973701],[-82.94785500005129,42.434372999921386],[-82.94989399967645,42.4352070000952],[-82.95135700043974,42.4358089998359],[-82.95100400026233,42.43627199974739],[-82.95160299958872,42.43629700013501],[-82.95180199978033,42.43637299968743],[-82.95150499967943,42.43676400015877],[-82.95110700019448,42.43728900009318],[-82.95043099997687,42.438190000196315],[-82.94996399999663,42.43880600008031],[-82.94973499966778,42.43910700029223],[-82.94933700018284,42.43963699976529],[-82.94905099995258,42.44001799993534],[-82.94872600026257,42.440450000274886],[-82.94836600041245,42.440927999889574],[-82.94803099977838,42.44137299994371],[-82.94768099997401,42.441837999886026],[-82.94731600010104,42.44232800032503],[-82.94694500038025,42.44282499994294],[-82.94687900025802,42.442921999918056],[-82.94680100044022,42.44303600008644],[-82.94639600038427,42.443685000076066],[-82.94612699987243,42.44410600017392],[-82.94599200015324,42.44430399990625],[-82.94557700005151,42.44487000013603],[-82.94508999997981,42.44553299980246],[-82.94435400038606,42.44647800029161],[-82.94429400011161,42.44655700025503],[-82.94367700034354,42.447384999759294],[-82.94359299977964,42.44750699985796],[-82.94348800019766,42.447661000034444],[-82.94299600010307,42.44830000001046],[-82.9428780001023,42.44844699983268],[-82.94221600012838,42.44920499980734],[-82.94128299999284,42.450230000108434],[-82.94162000027671,42.45022400013092],[-82.94214900018123,42.45021399994616],[-82.94228899992333,42.450210999956695],[-82.9426310002301,42.45020499997736],[-82.94299500027815,42.4501989999974],[-82.94330999992242,42.45019300001692],[-82.94376400038219,42.4501989999974],[-82.94530599988988,42.450219999924634],[-82.94551699977707,42.45022400013092],[-82.94605499990243,42.45022799967412],[-82.9462080000633,42.45022799967412],[-82.94639200018631,42.45022899989128],[-82.94757700021692,42.45021399994616],[-82.94810600012146,42.4502039997598],[-82.94847799966713,42.45019700022494],[-82.94883900024047,42.45019000002644],[-82.94945199981055,42.450178000063175],[-82.94954300004716,42.45017699984514],[-82.94963500010866,42.45017500007197],[-82.95131499970864,42.45014299971518],[-82.95140799959503,42.45014099994089],[-82.95164199994677,42.4501360001735],[-82.95249899991434,42.45011899976826],[-82.95273200044116,42.45011500021811],[-82.95375000006722,42.45009499981218],[-82.95388999980929,42.450091999817005],[-82.95395900030458,42.45009000004107],[-82.95503300000713,42.45007000029001],[-82.95548300026894,42.45006300007732],[-82.95606400005198,42.45005100008967],[-82.95620999964184,42.450048000092444],[-82.9566060003753,42.45004200009745],[-82.9568399998287,42.450039000099785],[-82.9577060000171,42.450025999887146],[-82.95773600015433,42.450025999887146],[-82.9586359997796,42.45001299967182],[-82.95916800005718,42.45000300011616],[-82.96011899973607,42.44998699989591],[-82.96099900016819,42.44997199989279],[-82.96111200014609,42.44997000011307],[-82.96217300032815,42.449953000325614],[-82.96327799999285,42.44993700009253],[-82.96339900036668,42.449935000311655],[-82.96367300000306,42.449931000086956],[-82.96388999973804,42.44992699986195],[-82.96465600036733,42.44991199984446],[-82.96472800033736,42.44991100028508],[-82.96493599985149,42.44990700005879],[-82.96609300029304,42.44988600002663],[-82.96769099987722,42.449842999717845],[-82.96788099984803,42.44983799992667],[-82.96793799974944,42.44983600014268],[-82.96829900032279,42.44982200032706],[-82.96871799972412,42.44980600006056],[-82.96910100003876,42.44978499999453],[-82.96982499993695,42.44973800004219],[-82.96991699999845,42.44973300024264],[-82.97060400008671,42.44968900026585],[-82.97092100027912,42.44966999994999],[-82.97104099992971,42.44966500014501],[-82.97132499961185,42.44965400030747],[-82.97142099987133,42.44965000006478],[-82.97166799974353,42.449639999788374],[-82.97207899964725,42.44962400013818],[-82.97221900028765,42.44961999989358],[-82.9724129995581,42.449615000084606],[-82.9728500002994,42.44960400023834],[-82.97317800036248,42.4495959997463],[-82.97338699970152,42.44959099993542],[-82.97355300028119,42.44958699968869],[-82.97380799965102,42.4495810003124],[-82.97431399998932,42.4495680000047],[-82.97462500033393,42.449560000170926],[-82.9758479999994,42.449529999956624],[-82.97632199965233,42.4495170003012],[-82.9770170001365,42.449499000162],[-82.97708099971061,42.44949699970433],[-82.97717699997007,42.44949399968051],[-82.97773099998895,42.4494799997885],[-82.97781600037777,42.44947799999303],[-82.97825800024363,42.4494670001227],[-82.97831799961976,42.449465000326825],[-82.97892500024041,42.449448999969086],[-82.98015200010383,42.44941699990425],[-82.98031799978519,42.44941300030928],[-82.980768000047,42.4494010001971],[-82.9809229998577,42.44939699993825],[-82.98155499969434,42.44937999999529],[-82.9831980003827,42.449338999801974],[-82.98348299988973,42.449332999739056],[-82.98355300020994,42.449330999938944],[-82.98367100021072,42.449327999907176],[-82.98565899978225,42.44928000004248],[-82.98688800019382,42.44925099992685],[-82.98765800012276,42.44923299971121],[-82.9877879998191,42.449229999674756],[-82.98781499958328,42.44922900010449],[-82.98791099984274,42.449227000301],[-82.98809300031593,42.44922300003103],[-82.98816399956272,42.44922100022741],[-82.98930000008787,42.44919500012275],[-82.98944800022586,42.44919099985075],[-82.99036299991975,42.44917200004664],[-82.99054299984482,42.4491690000073],[-82.99074600023442,42.44916499973364],[-82.99174299994407,42.449142000309365],[-82.99177100043147,42.44914100007483],[-82.99216300006863,42.44913300018653],[-82.99227900041959,42.44913000014532],[-82.99293299999756,42.449113999702014],[-82.99294899989111,42.449113999702014],[-82.99339499995493,42.44910400000285],[-82.99412200022617,42.44908899978831],[-82.99419900021906,42.449086999980366],[-82.99470700020717,42.449074000233004],[-82.99542400043265,42.449057999775434],[-82.99543899960295,42.449057999775434],[-82.99652900009734,42.449035000311866],[-82.99662600018173,42.44903299983939],[-82.99786499974073,42.44900600008282],[-82.9985739995703,42.448984999748575],[-82.99887700041731,42.44897600026604],[-82.99909800035024,42.44897000016841],[-82.99914000018305,42.4489679996938],[-83.00016600020501,42.44892699989366],[-83.00034799977988,42.44892000021609],[-83.0007360001174,42.448914999688384],[-83.00085800031614,42.44891299987488],[-83.00110600001327,42.44890999982314],[-83.0025160001748,42.44890199990533],[-83.00261699955882,42.44890100032978],[-83.00269799974967,42.44890100032978],[-83.00377200035052,42.44887699990702],[-83.00476499986223,42.448836000047265],[-83.00486600014457,42.44883199975233],[-83.0051849999868,42.448818999952046],[-83.00526600017766,42.44881599989576],[-83.0053409996224,42.44881299983938],[-83.00549700015634,42.44880699972609],[-83.00553399996625,42.44880600014907],[-83.00588499959554,42.448792000103296],[-83.00607299991653,42.44878400017041],[-83.00627200010814,42.448776000236506],[-83.0069449999527,42.448742000008885],[-83.00719500019797,42.448729000189935],[-83.00727399984066,42.448724999888164],[-83.00737199974995,42.448718999766434],[-83.00761000029965,42.44870599994271],[-83.00929999994534,42.44860699981982],[-83.01007999992002,42.44856599978334],[-83.01029400018028,42.448557000240605],[-83.01073199984819,42.44854000006967],[-83.01079799997042,42.448537000000016],[-83.01101100040576,42.448532000104606],[-83.01209900035201,42.448505000132094],[-83.0124449999584,42.448497000162554],[-83.01248900033936,42.44849599991773],[-83.01291399958848,42.448486000119956],[-83.01311500032824,42.44848100022042],[-83.01417300013728,42.4484549998086],[-83.01437399997872,42.44844999990664],[-83.01462500004888,42.448443000175764],[-83.01490799990611,42.448435999781296],[-83.01531799998492,42.44842599997389],[-83.0156879998808,42.44841600016494],[-83.0160760002183,42.44840599969152],[-83.0162390004249,42.44840200003199],[-83.01686600023872,42.44838600006559],[-83.01742399955724,42.44836899984825],[-83.01758099991608,42.448363999939374],[-83.01940899965402,42.44830900025299],[-83.01971900017375,42.44830000001046],[-83.0198420001974,42.4482959996813],[-83.02064300008847,42.44827100010399],[-83.02147800031473,42.44824700010266],[-83.02149900023112,42.44824599985385],[-83.02193799972396,42.44823299993196],[-83.0220940002579,42.44822900026138],[-83.02235399965056,42.44822199984294],[-83.02255500039033,42.44821699992239],[-83.02281200030828,42.448210000165474],[-83.02359899995564,42.44818799997749],[-83.02361300019936,42.44818799997749],[-83.02474499962823,42.44815900001917],[-83.02596099962099,42.4481310002981],[-83.02677499993085,42.44811299976061],[-83.02718400018479,42.44810299990169],[-83.02754200038507,42.44809600013204],[-83.02758300039294,42.448094999880816],[-83.02768499960189,42.448091999789845],[-83.02839199978163,42.44807500015558],[-83.02840600002533,42.44807500015558],[-83.029558000444,42.448046999734096],[-83.02963100023892,42.44804499989293],[-83.03061799990286,42.44802099980501],[-83.03082700014022,42.448015999868396],[-83.03209599983643,42.44798800008341],[-83.03266599974884,42.44797399985481],[-83.03273900044209,42.44797200001126],[-83.03283399997834,42.44796899991441],[-83.03330400033161,42.447957000188474],[-83.03451899960115,42.44793600016542],[-83.03471299976991,42.44793499991164],[-83.03662099987382,42.44792899971429],[-83.03704400037142,42.44792800012321],[-83.03743600000858,42.44791899982595],[-83.03936400020397,42.44787499990072],[-83.03941699990743,42.447874000308786],[-83.04018799966127,42.44786100030969],[-83.04194000012956,42.44782200029621],[-83.04219299984956,42.44781600008799],[-83.04227200039058,42.44781400023945],[-83.04289500000644,42.44779800012285],[-83.04342599956077,42.447785000107984],[-83.04394600014275,42.44777200009037],[-83.04395899966323,42.44777200009037],[-83.04411900039513,42.44776799972753],[-83.04428199970343,42.44776500028378],[-83.04539800013708,42.447726999804786],[-83.04548500017573,42.44772399969619],[-83.04608100002739,42.447703999852514],[-83.04617999976159,42.44770099974283],[-83.04647199983962,42.447690999818136],[-83.04655399985539,42.44768899996556],[-83.04699099969841,42.44767799978106],[-83.04756999983162,42.447664000146],[-83.04761599986239,42.447662999887875],[-83.04866899964854,42.447641000170655],[-83.04869299993798,42.447639999912106],[-83.04947299991267,42.447616999927945],[-83.04972599963264,42.44761000010399],[-83.04983100011295,42.44760800024887],[-83.05039799965229,42.447595999790906],[-83.0507280002635,42.44758899996461],[-83.05106100034942,42.44758099987809],[-83.05127899990931,42.44757599990636],[-83.0514959996443,42.44757099993424],[-83.05187200028625,42.44756099998875],[-83.05226300009849,42.44755100004171],[-83.05241700008429,42.447547000327596],[-83.05253199971202,42.447544000210385],[-83.05298399962363,42.447533000000384],[-83.0534740000684,42.447521000190925],[-83.05349499998479,42.447521000190925],[-83.05374699987986,42.44751399969342],[-83.05389400019297,42.44751100023751],[-83.05405700039958,42.44750699985796],[-83.0546420003806,42.447493000184686],[-83.05592600014542,42.44746200004483],[-83.05622400007125,42.447455000203554],[-83.05733299993392,42.447427999766866],[-83.05745500013265,42.447425000306836],[-83.05835300010811,42.447402999843156],[-83.05843099992589,42.44740099998138],[-83.05865299968377,42.44739599999529],[-83.05916800024286,42.447384000159595],[-83.05931200018293,42.447381000034575],[-83.05940000004648,42.44737900017214],[-83.05986200000383,42.44736600007027],[-83.06039000008343,42.44735199970265],[-83.06093599970637,42.44733799999479],[-83.06130200030259,42.44732800001211],[-83.06149599957304,42.447323000020184],[-83.06167800004624,42.44731800002787],[-83.06204899976699,42.44730900030579],[-83.06221000032379,42.447304999913335],[-83.06265700021252,42.447293000060206],[-83.06278600008397,42.44728900032961],[-83.0628389997874,42.4472880000655],[-83.06387700040328,42.44725800008881],[-83.0649360000372,42.44724699982858],[-83.0649910002888,42.44724600022667],[-83.06511799961208,42.44724399969706],[-83.0656259996002,42.44723699983142],[-83.06572199985966,42.4472360002293],[-83.06592600007417,42.447233999699364],[-83.06606199961828,42.44723300009725],[-83.06641200032098,42.447228999699945],[-83.06660300011667,42.44722699983261],[-83.06694100022547,42.44722399970013],[-83.0671250003485,42.44722199983264],[-83.06749699989417,42.44721699983226],[-83.06799200036181,42.44721100022896],[-83.06819700040124,42.44720800009571],[-83.06835300003682,42.44720600022771],[-83.06879699955255,42.44719999996054],[-83.06902500005648,42.44719699982671],[-83.06928100014953,42.447194999958356],[-83.06947000029541,42.44719300008998],[-83.06994200029851,42.447188000087294],[-83.07003400036001,42.44718699982152],[-83.07036200042307,42.44718300008416],[-83.0705819996328,42.447181000215394],[-83.07082500020535,42.44717800008066],[-83.0710460001383,42.44717499994578],[-83.07143100010275,42.44716999994166],[-83.07146899973759,42.44716899967563],[-83.07186999959559,42.44716399967103],[-83.07203700000017,42.44716199980162],[-83.0723359997509,42.447158000062664],[-83.07249599958449,42.44715600019311],[-83.07284000043938,42.4471519997909],[-83.07302299983918,42.4471499999211],[-83.0731590002816,42.44714800005129],[-83.0735249999795,42.447143000045],[-83.07360899964507,42.447141999778516],[-83.07407599962532,42.44713499990153],[-83.07418199993053,42.447133000031194],[-83.07507300023329,42.44712300001583],[-83.07541299999191,42.447119000274384],[-83.07663999985536,42.44710699972274],[-83.07691000019209,42.44710400024734],[-83.07775399974086,42.4470940002273],[-83.07786099987099,42.44709299996008],[-83.07799700031343,42.44709100008845],[-83.07873299990717,42.44708199967092],[-83.07908899955932,42.44707799992686],[-83.07963000005772,42.44707200031025],[-83.0797980002872,42.447069999775074],[-83.08016300016018,42.44706600003024],[-83.0810369998462,42.4470549997363],[-83.08128700009145,42.44706499976252],[-83.08339299966377,42.44715300005718],[-83.08371499987904,42.4471499999211],[-83.08450300024964,42.44713699977175],[-83.08458799974014,42.447136000168086],[-83.08560000041672,42.447116999740665],[-83.08584899993875,42.4471119997319],[-83.08590400019033,42.44711100012784],[-83.08628300030703,42.447102999980274],[-83.08633500018556,42.44710199971319],[-83.08650099986691,42.44709799997035],[-83.08680200016579,42.44708999982117],[-83.08707599980218,42.447082999938324],[-83.08825599980993,42.447047999849545],[-83.08826900022873,42.447049000117495],[-83.088295000168,42.447047999849545],[-83.088872999578,42.44703499967903],[-83.08924099982404,42.447024000042525],[-83.08944099984056,42.44701799975792],[-83.09024699975451,42.44699399993941],[-83.09112999966136,42.446965000091204],[-83.09123900033961,42.44696099967679],[-83.09155499980879,42.446950000027286],[-83.09210399980479,42.44693100020633],[-83.09312099960594,42.44689799991052],[-83.09403600019813,42.44687799980313],[-83.09435500004037,42.446872999775294],[-83.09457099995043,42.446867999747056],[-83.09469999982187,42.44686500026022],[-83.09492900015074,42.44686200011034],[-83.09531900013808,42.44685099978058],[-83.09559199994955,42.44684500014228],[-83.09588999987538,42.44684000011182],[-83.09597899956383,42.44683899984047],[-83.09605599955671,42.44683800023206],[-83.09742100041072,42.446819999985905],[-83.09826699960934,42.446867999747056],[-83.0984540001054,42.44687799980313],[-83.09910100001068,42.446916000134266],[-83.09923900010294,42.44692900032953],[-83.09935799992864,42.44693999998266],[-83.09959899995307,42.446961999946126],[-83.09982599973378,42.446977000007166],[-83.10004699966672,42.44699000018972],[-83.1004609999435,42.44702000029475],[-83.10053100026371,42.447024000042525],[-83.10057800011936,42.44702599991634],[-83.10068199987644,42.44703299980551],[-83.1016300000806,42.44709299996008],[-83.10178999991417,42.44710199971319],[-83.1028750003857,42.44713999990845],[-83.10394200041556,42.44711299999883],[-83.10405799986819,42.44711100012784],[-83.10532499991459,42.44708199967092],[-83.10539500023478,42.44707900019433],[-83.10631599977646,42.44705600000414],[-83.10733299957762,42.44702900005831],[-83.10806800024476,42.44701000026135],[-83.10841200020134,42.44699899995758],[-83.10870699975413,42.44699200006457],[-83.10914699997018,42.446978999882425],[-83.10947099983528,42.44697099971801],[-83.10950500017046,42.44696899984249],[-83.10962599964598,42.4469589998009],[-83.10984599975401,42.44694399973554],[-83.10993299979263,42.44693999998266],[-83.11170600017732,42.44683100032106],[-83.11182199962997,42.44682600028947],[-83.11210799986024,42.446816000225105],[-83.11234200021195,42.44680900031164],[-83.11259499993196,42.4467999998536],[-83.11263000009205,42.44679900024452],[-83.11267899959753,42.44679699970062],[-83.11295399995714,42.44678999978503],[-83.11749200041332,42.446719000313074],[-83.11941499968752,42.44668799979019],[-83.11954100008423,42.44668599990559],[-83.12058100034989,42.44667000016376],[-83.12081099960535,42.446665999730506],[-83.1210249998656,42.44666399984525],[-83.12130100005011,42.446658999800334],[-83.12146400025672,42.44665699991481],[-83.12253299993641,42.44663900027952],[-83.1226090001044,42.44663800000498],[-83.12264699973923,42.44663699973047],[-83.12268199989933,42.44663600011882],[-83.12272000043248,42.446634999844285],[-83.12275899989221,42.446634000232564],[-83.12277899998372,42.446632999957984],[-83.1228069995728,42.4466319996834],[-83.12284000008307,42.44663100007168],[-83.12286199982438,42.44663100007168],[-83.12289899963429,42.446629999797004],[-83.12293700016745,42.446629000185254],[-83.12297099960432,42.44662700029881],[-83.12300699958934,42.44662600002408],[-83.12456999991174,42.446581999853485],[-83.1245950000261,42.44658100024097],[-83.12464500025482,42.44657999996555],[-83.12467899969168,42.44657899969011],[-83.124708000004,42.446578000077494],[-83.12475800023272,42.44657499991392],[-83.1247990002406,42.446573000025715],[-83.124896000325,42.446569000249156],[-83.12500000008205,42.4465669996979],[-83.12507299987699,42.4465660000851],[-83.12511899990774,42.4465660000851],[-83.12516300028867,42.44656499980944],[-83.12518300038016,42.446564000196645],[-83.12523100006074,42.44656299992096],[-83.12525000032731,42.44656299992096],[-83.12532700032021,42.446562000308084],[-83.1253480002366,42.44656100003236],[-83.1253769996506,42.44655999975663],[-83.12542799970423,42.446557999867935],[-83.12549100035173,42.446555999979225],[-83.12553599965928,42.4465549997034],[-83.12559799958355,42.44655299981456],[-83.12646499959686,42.44652699992826],[-83.12759500027421,42.44649299980566],[-83.1276649996961,42.44649099991488],[-83.12952799959417,42.44645800005012],[-83.13043700033859,42.44644099997243],[-83.1317610002864,42.446418000210876],[-83.13237200020667,42.446408000081384],[-83.13311500037142,42.44639499977805],[-83.13322800034932,42.44639299988408],[-83.1333179998627,42.446390999990115],[-83.13541599993742,42.44636100024669],[-83.13545500029547,42.44636100024669],[-83.13642799971568,42.4463470003173],[-83.13655300028746,42.44634499975898],[-83.13744700006495,42.446327000034046],[-83.13768399989142,42.44632000006594],[-83.13820899959796,42.44630999992075],[-83.13884600035584,42.44629700025997],[-83.13886300007427,42.44629599998001],[-83.13927700035104,42.4462870001111],[-83.13936199984155,42.44628500021375],[-83.13973900030841,42.446278000240945],[-83.13989599976892,42.44627500006296],[-83.14032199974129,42.446264999910646],[-83.14041399980277,42.446263000012536],[-83.1408079999881,42.44625499975672],[-83.14093699985952,42.446252999858295],[-83.14125400005193,42.446245999881924],[-83.14150199974904,42.44624000018568],[-83.14200600043753,42.446230000027725],[-83.1420409996993,42.446228999746694],[-83.14205999996588,42.446228999746694],[-83.14211100001951,42.44622800012855],[-83.1421250002632,42.44622800012855],[-83.14293299982698,42.4462090000886],[-83.1432090000115,42.446202999725884],[-83.14359499980087,42.44619500012525],[-83.1441179998576,42.446181999777714],[-83.14418999982763,42.4461810001588],[-83.14460699957915,42.44617200027338],[-83.14481400016669,42.44616700018919],[-83.14488000028894,42.446165999907166],[-83.14516599962087,42.446160000203264],[-83.14524299961379,42.44615700001963],[-83.14616300022885,42.44613699967566],[-83.14633800013104,42.44613299987125],[-83.14699000005919,42.44612000017369],[-83.14708700014359,42.44611699998819],[-83.14711700028082,42.446115999705356],[-83.14721099999214,42.44611500008535],[-83.14771200030756,42.44610300000427],[-83.14784799985168,42.44609999981796],[-83.14931800028768,42.44606600012649],[-83.15077000028198,42.44603499994331],[-83.15094400035927,42.446031000132386],[-83.15177899968721,42.4460120000327],[-83.15198600027477,42.44600699993575],[-83.15216399965169,42.446003000123035],[-83.1523839997597,42.44599800002536],[-83.15248500004205,42.44599499983398],[-83.15337700016973,42.445975999723366],[-83.15358200020914,42.445971000286434],[-83.15394700008213,42.44596299999327],[-83.15400599963336,42.44596100008552],[-83.1547839999582,42.44594399987296],[-83.15539800025154,42.44593100013623],[-83.15593999967652,42.4459190000199],[-83.15601800039265,42.44591700011074],[-83.15657800025929,42.445904999991726],[-83.15661800044226,42.445903999705514],[-83.15670399975768,42.44590199979588],[-83.15714099960068,42.44589099996049],[-83.15753399996107,42.44588399994366],[-83.15765799980962,42.445880000123104],[-83.1580009999413,42.44587199981833],[-83.1582479998135,42.445866999710205],[-83.15855300031035,42.445859999690704],[-83.15889300006897,42.44585399995744],[-83.15922199995694,42.44585000013497],[-83.15931800021642,42.445848999847875],[-83.15934900017854,42.445848000223656],[-83.1595070003623,42.44584399973792],[-83.16044299997259,42.44582099975718],[-83.16151599985022,42.44579399994195],[-83.1625779998572,42.44577299985668],[-83.16267499994159,42.44577200023121],[-83.16358100031296,42.44575499996735],[-83.16367900022226,42.44575399967874],[-83.16373699994857,42.44575300005301],[-83.1646819997797,42.445731999953935],[-83.16479200028286,42.445730000038864],[-83.16587199983319,42.4457059997269],[-83.16686600006813,42.44568500027497],[-83.16695999977945,42.4456829996955],[-83.16784500023442,42.445648000150314],[-83.16799900022022,42.445643000024305],[-83.1688999996704,42.44560999971284],[-83.16905500037942,42.44560399995569],[-83.16920299961912,42.44560200003648],[-83.17008399987613,42.44557700004694],[-83.1701669997168,42.44557399983538],[-83.17044399972623,42.445566000154436],[-83.17066600038241,42.44556100002188],[-83.1712649997088,42.44554499999273],[-83.17235000018032,42.44552199990222],[-83.17261700014402,42.445514999844164],[-83.1734339999286,42.44549899980326],[-83.1734969996778,42.44549699988071],[-83.17354299970854,42.44549600025087],[-83.17433299972897,42.445480000205116],[-83.17453100009568,42.44547699998892],[-83.17553600020126,42.445455000166895],[-83.17560499979824,42.44545300024293],[-83.17609199986997,42.44544499988363],[-83.17673499957729,42.445430000118634],[-83.17868299986417,42.445390000285904],[-83.18100500024485,42.44534299968746],[-83.18222200006254,42.445322999746516],[-83.18229999988033,42.4453220001139],[-83.18314599997726,42.445306000023656],[-83.18343100038261,42.445300000237395],[-83.18354900038338,42.44529800030848],[-83.18463300013168,42.445273000197616],[-83.18474000026181,42.44527100026785],[-83.18587900026169,42.44524400021558],[-83.18594399966071,42.44524299991881],[-83.1870569997213,42.44521999971742],[-83.18721599972996,42.44521700015172],[-83.18809399961394,42.445199999737206],[-83.1882950003537,42.44519500023834],[-83.18950499960037,42.44517200001934],[-83.18962099995133,42.445170000086335],[-83.19075099973037,42.44514800015651],[-83.19079799958605,42.4451469998582],[-83.1908219998755,42.445146000222735],[-83.19193099973815,42.445122999985735],[-83.19309400002746,42.44509999974034],[-83.19317199984528,42.44509599986968],[-83.19323999961733,42.44509500023345],[-83.19437299976943,42.445079000085286],[-83.19448900012038,42.44507799978588],[-83.19559100031034,42.44505999969686],[-83.19571299961075,42.445059000060056],[-83.19577399971013,42.44505799976033],[-83.19581899991597,42.44505700012345],[-83.19585099970303,42.44505700012345],[-83.19589799955868,42.44505599982369],[-83.19596500040414,42.44505500018682],[-83.19602200030556,42.44505399988704],[-83.19608500005475,42.44505300025008],[-83.19613699993327,42.445051999950266],[-83.19617299991829,42.445051000313335],[-83.19622700034498,42.44505000001349],[-83.19627099982759,42.44505000001349],[-83.19632000023138,42.44504899971357],[-83.19639399985122,42.44504800007658],[-83.19646300034653,42.445046999776686],[-83.19649599995847,42.445046000139676],[-83.19655000038516,42.445046000139676],[-83.19658700019508,42.445046000139676],[-83.19665599979206,42.44504400020266],[-83.19670600002077,42.445042000265566],[-83.19674200000578,42.44504099996557],[-83.19683300024238,42.4450379997284],[-83.19702200038826,42.44502999997895],[-83.19738200023836,42.44501500011465],[-83.19811000033451,42.44498799995205],[-83.19826599997013,42.44498099983433],[-83.19831899967357,42.444978999895234],[-83.19838999981869,42.44497500001689],[-83.19857700031474,42.44496400001867],[-83.19915999974764,42.44492999971072],[-83.19929000034229,42.44492500019026],[-83.19937400000786,42.44492000000655],[-83.19943000008436,42.44491699976353],[-83.19947799976494,42.444914000183275],[-83.19953499966635,42.444910999940014],[-83.19957700039747,42.44490899999868],[-83.1996230004282,42.44490700005733],[-83.19966899956066,42.44490399981368],[-83.19972499963714,42.444901000232804],[-83.19977999988873,42.44489799998887],[-83.19982099989663,42.44489499974485],[-83.19989600023969,42.44489099986115],[-83.19992999967657,42.44488899991917],[-83.1999740000575,42.44488500003509],[-83.20002500011111,42.444881000150744],[-83.20006799976883,42.44487799990586],[-83.20012600039345,42.44487299971839],[-83.20052200022857,42.44483900002391],[-83.20056700043442,42.44483599977701],[-83.20075499985708,42.44482200016977],[-83.20089399977424,42.44481199978545],[-83.20097199959206,42.444809000200166],[-83.20103400041465,42.44480599995183],[-83.20133599964012,42.4447980001728],[-83.20226799995076,42.44477699975366],[-83.20252599969362,42.444772000221036],[-83.2026500004405,42.444768999970925],[-83.20268100040263,42.444768000329475],[-83.20278799963445,42.44476500007918],[-83.2028400004113,42.444763999774764],[-83.20285299993176,42.444763999774764],[-83.20289499976457,42.444763000133186],[-83.20306100034423,42.444759000241056],[-83.20318199981975,42.44475599999038],[-83.20320399956105,42.44475700029493],[-83.20329800017069,42.44475400004409],[-83.20334500002637,42.44475200009774],[-83.2033819998363,42.44475099979312],[-83.20345700017937,42.44475000015139],[-83.20355799956339,42.44474800020491],[-83.20363200008156,42.44474600025843],[-83.2036930001809,42.44474499995371],[-83.20381000035677,42.44474100006043],[-83.20400899965009,42.444737000166896],[-83.20405300003101,42.444737000166896],[-83.20416400035911,42.44473500022],[-83.20442100027705,42.44472699976901],[-83.20459500035433,42.44472299987458],[-83.20466599960112,42.44472200023239],[-83.2048959997549,42.444715999727244],[-83.20522800001591,42.44470700029431],[-83.20589699966251,42.444689000098684],[-83.20679200016323,42.44466500005082],[-83.20691299963873,42.444661999795585],[-83.20784499994939,42.44463599978732],[-83.20790900042181,42.444635000143755],[-83.20796799997302,42.444633000193605],[-83.2091129998207,42.44460100032011],[-83.20952200007461,42.44459099990056],[-83.21025400036872,42.44456800012271],[-83.21063699978504,42.44455799969785],[-83.21075899998378,42.44455599974529],[-83.21093399988597,42.4445519998399],[-83.21136800025423,42.44453899981431],[-83.2114720000113,42.444538000169196],[-83.2125909999197,42.44451600001738],[-83.21360900044407,42.444495000166604],[-83.21376500007968,42.44449300021199],[-83.21433199961902,42.44447699991008],[-83.21444200012219,42.444474999954885],[-83.21497400039975,42.44445999995766],[-83.21597299975923,42.444433999865616],[-83.21614000016382,42.444429000305576],[-83.21666300022054,42.44441600025447],[-83.21674600006122,42.444414000297336],[-83.21709099984271,42.44440700011552],[-83.21744099964708,42.44439799997524],[-83.21755000032535,42.444396000017576],[-83.21930100007042,42.44435800014649],[-83.21963099978329,42.444348999999164],[-83.21972100019498,42.4443479996881],[-83.21980599968548,42.444345999728846],[-83.21988699987634,42.4443450000806],[-83.22002599979349,42.44434199981009],[-83.22015600038814,42.444339000202305],[-83.2213420002437,42.444311999748365],[-83.2224400002357,42.444288000218926],[-83.22251899987842,42.44428699990689],[-83.22304399958496,42.44427500013856],[-83.2231459996922,42.44427300017693],[-83.2236799996196,42.444260999743],[-83.22377599987907,42.44425899978097],[-83.2247630004413,42.44423700019408],[-83.22485600032772,42.44423500023123],[-83.2254329999128,42.44422299979003],[-83.225607999815,42.44421899986342],[-83.22604200018326,42.44420999969618],[-83.22614000009254,42.44420799973252],[-83.2271300001295,42.44418600012772],[-83.2272070001224,42.444184999814006],[-83.22811599996851,42.44416399985229],[-83.22840700022165,42.444159000270695],[-83.22881899995029,42.4441489997806],[-83.23226600008717,42.44407400003119],[-83.23272700021961,42.44406400019038],[-83.23333599959176,42.44404999974772],[-83.23396099975575,42.44403700028083],[-83.23455300030776,42.44402400014839],[-83.23502399958763,42.44401299998319],[-83.2357249999196,42.44399799987535],[-83.23593800035492,42.443993000280564],[-83.2364150003809,42.44398299976392],[-83.2369719998745,42.44397000028317],[-83.23731500000618,42.4439630000517],[-83.2373729997325,42.44396199973448],[-83.23822600040043,42.4439429996702],[-83.23942300012662,42.44391799968149],[-83.24068299960202,42.44388400013163],[-83.24141900009408,42.44386399972491],[-83.24145199970603,42.44386300006897],[-83.2418140001043,42.44385399985059],[-83.24255300007107,42.44383400009719],[-83.24258099966018,42.44383299977791],[-83.24268000029268,42.44383200012148],[-83.24294999973111,42.443824999874636],[-83.24425199993762,42.443791000274274],[-83.24540199980814,42.44375699999259],[-83.24547700015121,42.443755000014455],[-83.24554800029632,42.443753000036224],[-83.24596099984988,42.443741999823494],[-83.24607200017796,42.44373900018698],[-83.24664799993815,42.44372299969249],[-83.24683700008404,42.44371800007572],[-83.24793400025112,42.44368999969549],[-83.2488899999529,42.44366599992778],[-83.24915500026677,42.443659999984455],[-83.25025300025875,42.44363000025905],[-83.25037100025952,42.44362800027683],[-83.25517599978107,42.44349900029546],[-83.2553530002314,42.443495000322635],[-83.25632200035197,42.44346899983005],[-83.25641000021551,42.44346699984269],[-83.25655199960742,42.44346299986781],[-83.25702799980849,42.44345000027917],[-83.25712300024304,42.443448000291205],[-83.25886700031542,42.44340300021399],[-83.25889699955431,42.44340100022457],[-83.2609290004051,42.44334800014941],[-83.2610490000557,42.44334499983111],[-83.26286199972505,42.44329900001498],[-83.2646190002162,42.44325399983075],[-83.2647530001105,42.44325100017092],[-83.2653079999543,42.44323700020945],[-83.26653200034298,42.443205999952205],[-83.26850900004386,42.44315600003955],[-83.26854900022684,42.44315499970944],[-83.26925300003353,42.443136999730825],[-83.26934500009504,42.443134999732905],[-83.27018299979603,42.44311200008342],[-83.27325199964112,42.44301899974301],[-83.27337300001496,42.443014999739525],[-83.27569399967243,42.442945000300185],[-83.27686299980951,42.44290999988828],[-83.27700199972669,42.442907000211925],[-83.27753200035444,42.442889999833554],[-83.27819099995527,42.44286999977237],[-83.2782629999253,42.44286799976594],[-83.27829899991032,42.44286799976594],[-83.27843600017768,42.44286500008757],[-83.27846100029203,42.44286500008757],[-83.27851700036852,42.442863999752824],[-83.27861899957745,42.44286199974614],[-83.27908700028091,42.442851999711884],[-83.28003700013491,42.442832999973895],[-83.2807400001167,42.44281800024646],[-83.28092699971444,42.44281400023014],[-83.28132099989975,42.44280600019676],[-83.28177700000931,42.44279899983523],[-83.28518899998609,42.44273399985022],[-83.28696900004347,42.442698999983364],[-83.28742199978,42.442690999935294],[-83.28747299983361,42.44269000026064],[-83.28763900041328,42.44268600023616],[-83.28780300044481,42.4426829998862]],[[-83.12138999973858,42.41668699984095],[-83.12193200006186,42.41748200023957],[-83.12079999973469,42.41750800024003],[-83.11893199981375,42.417537999870156],[-83.11643999955376,42.41757900031402],[-83.11558900033229,42.41759699967553],[-83.11365899958875,42.41762699992621],[-83.1126540003815,42.417644999937075],[-83.11079399995818,42.41767700031211],[-83.10960899992754,42.41769799986546],[-83.10795199989381,42.41772399977642],[-83.10529300012753,42.41774900026728],[-83.10498900035392,42.41775700018349],[-83.10454699958973,42.417762999954164],[-83.10298900018851,42.41780300017938],[-83.1018119996555,42.41782799997556],[-83.10107799971156,42.41784699999969],[-83.09841599957225,42.417937999756184],[-83.09764200034367,42.41796500029981],[-83.09739700012128,42.41797400025741],[-83.09640200006146,42.41800799993812],[-83.09541200002448,42.418023000298525],[-83.09482799986839,42.418023000298525],[-83.09429499976592,42.41809100025158],[-83.09392499987005,42.41809100025158],[-83.09343000030074,42.418105999928954],[-83.09301699984887,42.418105999928954],[-83.09243799971564,42.41812100026592],[-83.09147100014322,42.41813700000241],[-83.08960200039738,42.41815399980088],[-83.08941699955113,42.41816100026272],[-83.08933299988554,42.41804200026359],[-83.08921599970968,42.417892999929514],[-83.08688599983138,42.41493400029016],[-83.08550900018012,42.4131839999259],[-83.08481500041917,42.412436999694755],[-83.08462299990023,42.412183999869846],[-83.08415699974492,42.41160699968879],[-83.08266799994067,42.40972999989673],[-83.08228799999908,42.409251000254756],[-83.08175999991947,42.40854199999715],[-83.08172899995733,42.408501999834506],[-83.0816150001545,42.40835600005269],[-83.08154800020736,42.40827199989696],[-83.0814800004353,42.40818899985372],[-83.08140400026733,42.408096000090346],[-83.08114899999919,42.40778000004251],[-83.08101199973184,42.40761200006586],[-83.0788059997021,42.40493699989359],[-83.07806799956022,42.40404100020248],[-83.07669699975675,42.402376999898514],[-83.07647699964872,42.40211099975863],[-83.07630099992163,42.40188999988193],[-83.07617700007307,42.40192400032181],[-83.07538200002978,42.40220599974849],[-83.07516799976953,42.40228200016756],[-83.07512799958656,42.4022970003092],[-83.07457600011583,42.40249799973865],[-83.07429599973335,42.40260199997941],[-83.07401500042427,42.40270499973538],[-83.07345700020745,42.40290799980272],[-83.07311499990068,42.4030120000272],[-83.072743000355,42.40317700013164],[-83.07247700021622,42.40329599981302],[-83.07213699955929,42.40344599997056],[-83.07117300035989,42.40379900027056],[-83.0701940001936,42.4041609998609],[-83.06921800040033,42.404517999925204],[-83.06878499985696,42.40467799997113],[-83.06762699959052,42.40510499973768],[-83.06675600027756,42.40542499974385],[-83.0658640001499,42.405753000228515],[-83.06428400010904,42.406334000224625],[-83.06332500003423,42.406687999779564],[-83.06292699965097,42.40683400012716],[-83.06244799997516,42.40700799967061],[-83.062084999752,42.407139999871404],[-83.06157299956593,42.407329000157794],[-83.06122100011174,42.407461999919654],[-83.06069600040519,42.40765099989918],[-83.06033300018203,42.40778400030495],[-83.05979699970649,42.407982000042566],[-83.05891399979967,42.408303999748455],[-83.05798800023513,42.40864399973251],[-83.0570709999931,42.40898099988996],[-83.0569170000073,42.40875199993487],[-83.0564729995933,42.40809400030075],[-83.05603199955233,42.40743399992339],[-83.055641999565,42.40685499999475],[-83.05557399979293,42.40675400025138],[-83.05510199978981,42.40605000026179],[-83.05466199957377,42.405394000019854],[-83.05421999970788,42.404733000141384],[-83.05402300006439,42.40444000031872],[-83.05263399981926,42.404426999932674],[-83.05019500016103,42.404428999839176],[-83.04992999984715,42.404428999839176],[-83.04725699983719,42.404460000040004],[-83.04643500002972,42.404456000228926],[-83.04498999970808,42.404447999942676],[-83.04392199985332,42.40444299984619],[-83.0425340003314,42.40444299984619],[-83.04250599984401,42.40145300011846],[-83.0425040001942,42.401278000089846],[-83.04250300036928,42.40110199989861],[-83.04249699962318,42.40050300025585],[-83.04249400014844,42.40018600008348],[-83.04248499992761,42.39927299993806],[-83.04248099972965,42.398766000170895],[-83.04247599970678,42.398297000245485],[-83.042469999859,42.397638999748374],[-83.04246900003407,42.39751999995208],[-83.04246800020918,42.39747399967493],[-83.04246800020918,42.39742700029428],[-83.04244800011767,42.396664000258816],[-83.04242899985111,42.39592800031322],[-83.04241700015554,42.395191999696706],[-83.04240999958454,42.395098000135704],[-83.04240799993471,42.39463100021534],[-83.04238100017052,42.393922999714604],[-83.04237199994971,42.393858999920376],[-83.04237500032275,42.39312700012004],[-83.0423490003835,42.39259400009003],[-83.04233599996469,42.392040999821546],[-83.04232099989608,42.391282999803266],[-83.04230400017764,42.39057099998242],[-83.0423019996295,42.39021400018083],[-83.04320399980291,42.39019799995634],[-83.0443560002216,42.390180999879234],[-83.04385200043144,42.389474000126675],[-83.04339299994881,42.38883000018124],[-83.04271900027933,42.387886000279764],[-83.04261299997414,42.387736000081986],[-83.0425190002628,42.387603000305695],[-83.04225700032197,42.38723599993033],[-83.04186700033463,42.38668799974939],[-83.04049399998303,42.38476300005301],[-83.04067599955792,42.38468700031286],[-83.0451949997475,42.38305199994124],[-83.05474699996257,42.3795949999171],[-83.0549109999941,42.37988000018245],[-83.05500800007849,42.380066000265735],[-83.05568299957287,42.38114500010097],[-83.05574600022037,42.38124499993342],[-83.05599399991749,42.38164099972301],[-83.05615200010124,42.3819019998023],[-83.05644599982912,42.382318000235855],[-83.05773899981476,42.384248000301355],[-83.05801199962625,42.3846439997294],[-83.058057999657,42.384692999929015],[-83.05815599956628,42.384837999767505],[-83.05926799980199,42.386485000290286],[-83.05965899961424,42.387057999705995],[-83.05991399988237,42.387430999812985],[-83.06058000005423,42.38841299989337],[-83.06193699961399,42.39040999994604],[-83.06248700033322,42.39124299991565],[-83.06383600039538,42.39074000031405],[-83.06423999972812,42.39058899979598],[-83.06615299985489,42.38987499969406],[-83.06640099955202,42.389791999861515],[-83.06645199960562,42.3897749996744],[-83.06727599996125,42.39078799989735],[-83.06829500031053,42.392044999760586],[-83.06881300034438,42.39266899973683],[-83.06895499973628,42.392843999891035],[-83.06913399983642,42.39305600023175],[-83.06927199992869,42.39323199977028],[-83.07119199972816,42.39560499968493],[-83.07329400000081,42.39822100030661],[-83.07364800000316,42.398641000249086],[-83.07377000020189,42.3987859997107],[-83.0752010002798,42.39820399974903],[-83.07578200006287,42.397983999766474],[-83.07616799985226,42.397837000325254],[-83.07823999998767,42.397048999859926],[-83.07972799996702,42.39648199991466],[-83.07996999981633,42.39638999979501],[-83.08269100040522,42.395356000033445],[-83.08565700031814,42.394228000283604],[-83.08866500006386,42.39310199976675],[-83.09177300026701,42.39198499998456],[-83.09467800008055,42.39093999977311],[-83.09772699983417,42.38984299973164],[-83.1005880001651,42.388814000267445],[-83.10208500036528,42.388276000045515],[-83.10227799981081,42.38808399977972],[-83.10252399985811,42.38845199971795],[-83.1025930003534,42.38855099998032],[-83.10294300015777,42.38904999974353],[-83.10300900028001,42.389151999984634],[-83.10316400009071,42.38939300014962],[-83.10333499979492,42.389643999951666],[-83.10355300025311,42.389931000086634],[-83.10371899993447,42.39014199980197],[-83.10433700042577,42.39093199975388],[-83.10441500024356,42.3910300002506],[-83.10489100044464,42.39169300016729],[-83.10546200018193,42.39248900003589],[-83.10590599969764,42.393100999964695],[-83.10610099969132,42.3935770001328],[-83.10617299966133,42.3937509999538],[-83.10628399998943,42.39399000013414],[-83.10634199971572,42.39411599981835],[-83.10647099958716,42.39436499974575],[-83.106627999946,42.39464399997745],[-83.10688099966599,42.39500699974905],[-83.10701499956029,42.39546199969944],[-83.10713400028429,42.395739999938186],[-83.107761999923,42.3966720002108],[-83.10796199993955,42.39696900011136],[-83.10855100011851,42.39784899969683],[-83.10856299981408,42.39787600026471],[-83.1087059999292,42.39808499969743],[-83.10888599985425,42.398347999838606],[-83.10891199979353,42.398385999742665],[-83.10904800023597,42.39858500033071],[-83.1090499998858,42.39861699981636],[-83.10911900038107,42.39874899976096],[-83.1092120002675,42.39886300000232],[-83.10924999990233,42.398879999717934],[-83.10928400023754,42.39892900008226],[-83.1093660002533,42.39904900023072],[-83.10973699997406,42.39959699995984],[-83.10983599970827,42.39973999980991],[-83.11020999980207,42.40029099986387],[-83.11067099993453,42.40097099993701],[-83.11111799982328,42.40163499997536],[-83.11157200028302,42.402288000091986],[-83.11208899959367,42.4030309998965],[-83.11215600043913,42.40312100028154],[-83.11319199960853,42.404493000129925],[-83.1132329996164,42.404554000170144],[-83.11327299979936,42.404615999769575],[-83.11330899978438,42.404672999892966],[-83.11401099994127,42.40579500001707],[-83.11570999980779,42.40822099974756],[-83.11648599958451,42.40939399998947],[-83.11682000039367,42.40989899970479],[-83.11714599990859,42.410391000183765],[-83.11749499988804,42.410925999971354],[-83.11766099956941,42.41117100013592],[-83.118160000235,42.41192600018754],[-83.11868400011663,42.41271900028136],[-83.11922399989182,42.413511000157165],[-83.1197650003902,42.41430400010724],[-83.12031000018824,42.41510300000375],[-83.12085499998629,42.41590299977069],[-83.12138999973858,42.41668699984095]]]}}]}