{"type":"FeatureCollection","features":[{"type":"Feature","properties":{"state":"Florida","abbr":"FL","kind":"state","direction":"N","directionLabel":"north","lat":31.00089,"lng":-85.15208},"geometry":{"type":"Point","coordinates":[-85.152085,31.000888]}},{"type":"Feature","properties":{"state":"Florida","abbr":"FL","kind":"state","direction":"E","directionLabel":"east","lat":26.79634,"lng":-80.03136},"geometry":{"type":"Point","coordinates":[-80.031362,26.796339]}},{"type":"Feature","properties":{"state":"Florida","abbr":"FL","kind":"state","direction":"S","directionLabel":"south","lat":24.5231,"lng":-81.97836},"geometry":{"type":"Point","coordinates":[-81.978363,24.523096]}},{"type":"Feature","properties":{"state":"Florida","abbr":"FL","kind":"state","direction":"W","directionLabel":"west","lat":30.86589,"lng":-87.63494},"geometry":{"type":"Point","coordinates":[-87.63493799999999,30.865886]}},{"type":"Feature","properties":{"state":"United States Virgin Islands","abbr":"VI","kind":"territory","direction":"N","directionLabel":"north","lat":18.41266,"lng":-64.90834},"geometry":{"type":"Point","coordinates":[-64.908343,18.412655]}},{"type":"Feature","properties":{"state":"United States Virgin Islands","abbr":"VI","kind":"territory","direction":"E","directionLabel":"east","lat":17.75552,"lng":-64.56491},"geometry":{"type":"Point","coordinates":[-64.56490699999999,17.755519]}},{"type":"Feature","properties":{"state":"United States Virgin Islands","abbr":"VI","kind":"territory","direction":"S","directionLabel":"south","lat":17.67398,"lng":-64.90043},"geometry":{"type":"Point","coordinates":[-64.900432,17.673976]}},{"type":"Feature","properties":{"state":"United States Virgin Islands","abbr":"VI","kind":"territory","direction":"W","directionLabel":"west","lat":18.3367,"lng":-65.08545},"geometry":{"type":"Point","coordinates":[-65.085452,18.336705]}},{"type":"Feature","properties":{"state":"Montana","abbr":"MT","kind":"state","direction":"N","directionLabel":"north","lat":49.00139,"lng":-114.37598},"geometry":{"type":"Point","coordinates":[-114.375977,49.00139]}},{"type":"Feature","properties":{"state":"Montana","abbr":"MT","kind":"state","direction":"E","directionLabel":"east","lat":45.12404,"lng":-104.03956},"geometry":{"type":"Point","coordinates":[-104.039563,45.124038999999996]}},{"type":"Feature","properties":{"state":"Montana","abbr":"MT","kind":"state","direction":"S","directionLabel":"south","lat":44.35796,"lng":-112.84518},"geometry":{"type":"Point","coordinates":[-112.845176,44.357962]}},{"type":"Feature","properties":{"state":"Montana","abbr":"MT","kind":"state","direction":"W","directionLabel":"west","lat":48.48125,"lng":-116.04915},"geometry":{"type":"Point","coordinates":[-116.049155,48.481246999999996]}},{"type":"Feature","properties":{"state":"Minnesota","abbr":"MN","kind":"state","direction":"N","directionLabel":"north","lat":49.38436,"lng":-95.15331},"geometry":{"type":"Point","coordinates":[-95.153314,49.384358]}},{"type":"Feature","properties":{"state":"Minnesota","abbr":"MN","kind":"state","direction":"E","directionLabel":"east","lat":48.00521,"lng":-89.49174},"geometry":{"type":"Point","coordinates":[-89.491739,48.005212]}},{"type":"Feature","properties":{"state":"Minnesota","abbr":"MN","kind":"state","direction":"S","directionLabel":"south","lat":43.49936,"lng":-93.2718},"geometry":{"type":"Point","coordinates":[-93.2718,43.499356]}},{"type":"Feature","properties":{"state":"Minnesota","abbr":"MN","kind":"state","direction":"W","directionLabel":"west","lat":48.96868,"lng":-97.23921},"geometry":{"type":"Point","coordinates":[-97.239209,48.968683999999996]}},{"type":"Feature","properties":{"state":"Maryland","abbr":"MD","kind":"state","direction":"N","directionLabel":"north","lat":39.72304,"lng":-78.72353},"geometry":{"type":"Point","coordinates":[-78.723529,39.723043000000004]}},{"type":"Feature","properties":{"state":"Maryland","abbr":"MD","kind":"state","direction":"E","directionLabel":"east","lat":38.45126,"lng":-75.04894},"geometry":{"type":"Point","coordinates":[-75.04893899999999,38.451263]}},{"type":"Feature","properties":{"state":"Maryland","abbr":"MD","kind":"state","direction":"S","directionLabel":"south","lat":37.91172,"lng":-75.88503},"geometry":{"type":"Point","coordinates":[-75.885032,37.911716999999996]}},{"type":"Feature","properties":{"state":"Maryland","abbr":"MD","kind":"state","direction":"W","directionLabel":"west","lat":39.27993,"lng":-79.48765},"geometry":{"type":"Point","coordinates":[-79.487651,39.279933]}},{"type":"Feature","properties":{"state":"South Carolina","abbr":"SC","kind":"state","direction":"N","directionLabel":"north","lat":35.2154,"lng":-82.39293},"geometry":{"type":"Point","coordinates":[-82.39292999999999,35.215402]}},{"type":"Feature","properties":{"state":"South Carolina","abbr":"SC","kind":"state","direction":"E","directionLabel":"east","lat":33.85192,"lng":-78.54203},"geometry":{"type":"Point","coordinates":[-78.54203,33.851924]}},{"type":"Feature","properties":{"state":"South Carolina","abbr":"SC","kind":"state","direction":"S","directionLabel":"south","lat":32.0346,"lng":-80.88552},"geometry":{"type":"Point","coordinates":[-80.885517,32.034600000000005]}},{"type":"Feature","properties":{"state":"South Carolina","abbr":"SC","kind":"state","direction":"W","directionLabel":"west","lat":34.69922,"lng":-83.35391},"geometry":{"type":"Point","coordinates":[-83.35391,34.699219]}},{"type":"Feature","properties":{"state":"Maine","abbr":"ME","kind":"state","direction":"N","directionLabel":"north","lat":47.45969,"lng":-69.22442},"geometry":{"type":"Point","coordinates":[-69.22442,47.459686]}},{"type":"Feature","properties":{"state":"Maine","abbr":"ME","kind":"state","direction":"E","directionLabel":"east","lat":44.81742,"lng":-66.94989},"geometry":{"type":"Point","coordinates":[-66.949895,44.817419]}},{"type":"Feature","properties":{"state":"Maine","abbr":"ME","kind":"state","direction":"S","directionLabel":"south","lat":42.97776,"lng":-70.60783},"geometry":{"type":"Point","coordinates":[-70.607834,42.977764]}},{"type":"Feature","properties":{"state":"Maine","abbr":"ME","kind":"state","direction":"W","directionLabel":"west","lat":45.30545,"lng":-71.08392},"geometry":{"type":"Point","coordinates":[-71.083924,45.305451]}},{"type":"Feature","properties":{"state":"Hawaii","abbr":"HI","kind":"state","direction":"N","directionLabel":"north","lat":28.40212,"lng":-178.28893},"geometry":{"type":"Point","coordinates":[-178.288927,28.402123]}},{"type":"Feature","properties":{"state":"Hawaii","abbr":"HI","kind":"state","direction":"E","directionLabel":"east","lat":19.51604,"lng":-154.80677},"geometry":{"type":"Point","coordinates":[-154.806773,19.516040999999998]}},{"type":"Feature","properties":{"state":"Hawaii","abbr":"HI","kind":"state","direction":"S","directionLabel":"south","lat":18.91036,"lng":-155.68279},"geometry":{"type":"Point","coordinates":[-155.682793,18.910360999999998]}},{"type":"Feature","properties":{"state":"Hawaii","abbr":"HI","kind":"state","direction":"W","directionLabel":"west","lat":28.38945,"lng":-178.3347},"geometry":{"type":"Point","coordinates":[-178.334698,28.389446]}},{"type":"Feature","properties":{"state":"District of Columbia","abbr":"DC","kind":"district","direction":"N","directionLabel":"north","lat":38.99511,"lng":-77.041},"geometry":{"type":"Point","coordinates":[-77.040999,38.995110000000004]}},{"type":"Feature","properties":{"state":"District of Columbia","abbr":"DC","kind":"district","direction":"E","directionLabel":"east","lat":38.89281,"lng":-76.9094},"geometry":{"type":"Point","coordinates":[-76.909395,38.892812]}},{"type":"Feature","properties":{"state":"District of Columbia","abbr":"DC","kind":"district","direction":"S","directionLabel":"south","lat":38.79164,"lng":-77.03901},"geometry":{"type":"Point","coordinates":[-77.039006,38.791644999999995]}},{"type":"Feature","properties":{"state":"District of Columbia","abbr":"DC","kind":"district","direction":"W","directionLabel":"west","lat":38.93434,"lng":-77.11976},"geometry":{"type":"Point","coordinates":[-77.119759,38.934343]}},{"type":"Feature","properties":{"state":"Commonwealth of the Northern Mariana Islands","abbr":"MP","kind":"territory","direction":"N","directionLabel":"north","lat":20.5538,"lng":144.89351},"geometry":{"type":"Point","coordinates":[144.893509,20.553801999999997]}},{"type":"Feature","properties":{"state":"Commonwealth of the Northern Mariana Islands","abbr":"MP","kind":"territory","direction":"E","directionLabel":"east","lat":16.0249,"lng":146.06482},"geometry":{"type":"Point","coordinates":[146.064818,16.024898]}},{"type":"Feature","properties":{"state":"Commonwealth of the Northern Mariana Islands","abbr":"MP","kind":"territory","direction":"S","directionLabel":"south","lat":14.11047,"lng":145.17304},"geometry":{"type":"Point","coordinates":[145.17303800000002,14.110472]}},{"type":"Feature","properties":{"state":"Commonwealth of the Northern Mariana Islands","abbr":"MP","kind":"territory","direction":"W","directionLabel":"west","lat":20.53994,"lng":144.88633},"geometry":{"type":"Point","coordinates":[144.88633099999998,20.539939]}},{"type":"Feature","properties":{"state":"Rhode Island","abbr":"RI","kind":"state","direction":"N","directionLabel":"north","lat":42.0188,"lng":-71.3814},"geometry":{"type":"Point","coordinates":[-71.381401,42.018798]}},{"type":"Feature","properties":{"state":"Rhode Island","abbr":"RI","kind":"state","direction":"E","directionLabel":"east","lat":41.49745,"lng":-71.12057},"geometry":{"type":"Point","coordinates":[-71.12057,41.497448]}},{"type":"Feature","properties":{"state":"Rhode Island","abbr":"RI","kind":"state","direction":"S","directionLabel":"south","lat":41.14634,"lng":-71.5937},"geometry":{"type":"Point","coordinates":[-71.5937,41.146339]}},{"type":"Feature","properties":{"state":"Rhode Island","abbr":"RI","kind":"state","direction":"W","directionLabel":"west","lat":41.30979,"lng":-71.86277},"geometry":{"type":"Point","coordinates":[-71.86277199999999,41.309791000000004]}},{"type":"Feature","properties":{"state":"Nebraska","abbr":"NE","kind":"state","direction":"N","directionLabel":"north","lat":43.00171,"lng":-103.96627},"geometry":{"type":"Point","coordinates":[-103.96627,43.001708]}},{"type":"Feature","properties":{"state":"Nebraska","abbr":"NE","kind":"state","direction":"E","directionLabel":"east","lat":40,"lng":-95.30829},"geometry":{"type":"Point","coordinates":[-95.30829000000001,39.999998]}},{"type":"Feature","properties":{"state":"Nebraska","abbr":"NE","kind":"state","direction":"S","directionLabel":"south","lat":40,"lng":-95.30829},"geometry":{"type":"Point","coordinates":[-95.30829000000001,39.999998]}},{"type":"Feature","properties":{"state":"Nebraska","abbr":"NE","kind":"state","direction":"W","directionLabel":"west","lat":41.15726,"lng":-104.05351},"geometry":{"type":"Point","coordinates":[-104.053514,41.157257]}},{"type":"Feature","properties":{"state":"Washington","abbr":"WA","kind":"state","direction":"N","directionLabel":"north","lat":49.00249,"lng":-122.25106},"geometry":{"type":"Point","coordinates":[-122.251063,49.002494]}},{"type":"Feature","properties":{"state":"Washington","abbr":"WA","kind":"state","direction":"E","directionLabel":"east","lat":45.99541,"lng":-116.91599},"geometry":{"type":"Point","coordinates":[-116.915989,45.995413]}},{"type":"Feature","properties":{"state":"Washington","abbr":"WA","kind":"state","direction":"S","directionLabel":"south","lat":45.54354,"lng":-122.2949},"geometry":{"type":"Point","coordinates":[-122.294901,45.543541]}},{"type":"Feature","properties":{"state":"Washington","abbr":"WA","kind":"state","direction":"W","directionLabel":"west","lat":48.17628,"lng":-124.76307},"geometry":{"type":"Point","coordinates":[-124.76306799999999,48.176283]}},{"type":"Feature","properties":{"state":"New Mexico","abbr":"NM","kind":"state","direction":"N","directionLabel":"north","lat":37.00023,"lng":-103.15592},"geometry":{"type":"Point","coordinates":[-103.155922,37.000232]}},{"type":"Feature","properties":{"state":"New Mexico","abbr":"NM","kind":"state","direction":"E","directionLabel":"east","lat":36.90957,"lng":-103.00196},"geometry":{"type":"Point","coordinates":[-103.001964,36.909573]}},{"type":"Feature","properties":{"state":"New Mexico","abbr":"NM","kind":"state","direction":"S","directionLabel":"south","lat":31.3323,"lng":-108.85111},"geometry":{"type":"Point","coordinates":[-108.851105,31.332301]}},{"type":"Feature","properties":{"state":"New Mexico","abbr":"NM","kind":"state","direction":"W","directionLabel":"west","lat":31.48,"lng":-109.05017},"geometry":{"type":"Point","coordinates":[-109.050173,31.480003999999997]}},{"type":"Feature","properties":{"state":"Puerto Rico","abbr":"PR","kind":"territory","direction":"N","directionLabel":"north","lat":18.51568,"lng":-67.08979},"geometry":{"type":"Point","coordinates":[-67.089793,18.515683]}},{"type":"Feature","properties":{"state":"Puerto Rico","abbr":"PR","kind":"territory","direction":"E","directionLabel":"east","lat":18.31208,"lng":-65.2207},"geometry":{"type":"Point","coordinates":[-65.22070300000001,18.312078]}},{"type":"Feature","properties":{"state":"Puerto Rico","abbr":"PR","kind":"territory","direction":"S","directionLabel":"south","lat":17.88328,"lng":-66.52824},"geometry":{"type":"Point","coordinates":[-66.528238,17.88328]}},{"type":"Feature","properties":{"state":"Puerto Rico","abbr":"PR","kind":"territory","direction":"W","directionLabel":"west","lat":18.08267,"lng":-67.9454},"geometry":{"type":"Point","coordinates":[-67.945404,18.082673]}},{"type":"Feature","properties":{"state":"South Dakota","abbr":"SD","kind":"state","direction":"N","directionLabel":"north","lat":45.94545,"lng":-102.65162},"geometry":{"type":"Point","coordinates":[-102.65162,45.94545]}},{"type":"Feature","properties":{"state":"South Dakota","abbr":"SD","kind":"state","direction":"E","directionLabel":"east","lat":43.12084,"lng":-96.43659},"geometry":{"type":"Point","coordinates":[-96.436589,43.120841999999996]}},{"type":"Feature","properties":{"state":"South Dakota","abbr":"SD","kind":"state","direction":"S","directionLabel":"south","lat":42.47964,"lng":-96.47879},"geometry":{"type":"Point","coordinates":[-96.478792,42.479635]}},{"type":"Feature","properties":{"state":"South Dakota","abbr":"SD","kind":"state","direction":"W","directionLabel":"west","lat":44.99761,"lng":-104.05788},"geometry":{"type":"Point","coordinates":[-104.057879,44.997605]}},{"type":"Feature","properties":{"state":"Texas","abbr":"TX","kind":"state","direction":"N","directionLabel":"north","lat":36.5007,"lng":-102.24499},"geometry":{"type":"Point","coordinates":[-102.24499,36.500704]}},{"type":"Feature","properties":{"state":"Texas","abbr":"TX","kind":"state","direction":"E","directionLabel":"east","lat":31.03235,"lng":-93.50829},"geometry":{"type":"Point","coordinates":[-93.508292,31.032351999999996]}},{"type":"Feature","properties":{"state":"Texas","abbr":"TX","kind":"state","direction":"S","directionLabel":"south","lat":25.83738,"lng":-97.39451},"geometry":{"type":"Point","coordinates":[-97.39451299999999,25.837377]}},{"type":"Feature","properties":{"state":"Texas","abbr":"TX","kind":"state","direction":"W","directionLabel":"west","lat":31.89565,"lng":-106.64565},"geometry":{"type":"Point","coordinates":[-106.645646,31.895648999999995]}},{"type":"Feature","properties":{"state":"California","abbr":"CA","kind":"state","direction":"N","directionLabel":"north","lat":42.00948,"lng":-122.37851},"geometry":{"type":"Point","coordinates":[-122.37851100000002,42.009485]}},{"type":"Feature","properties":{"state":"California","abbr":"CA","kind":"state","direction":"E","directionLabel":"east","lat":34.26273,"lng":-114.13121},"geometry":{"type":"Point","coordinates":[-114.131211,34.26273]}},{"type":"Feature","properties":{"state":"California","abbr":"CA","kind":"state","direction":"S","directionLabel":"south","lat":32.53416,"lng":-117.12486},"geometry":{"type":"Point","coordinates":[-117.12486200000001,32.534155999999996]}},{"type":"Feature","properties":{"state":"California","abbr":"CA","kind":"state","direction":"W","directionLabel":"west","lat":40.43808,"lng":-124.40959},"geometry":{"type":"Point","coordinates":[-124.409591,40.438075999999995]}},{"type":"Feature","properties":{"state":"Alabama","abbr":"AL","kind":"state","direction":"N","directionLabel":"north","lat":35.00803,"lng":-88.20296},"geometry":{"type":"Point","coordinates":[-88.20295899999999,35.008027999999996]}},{"type":"Feature","properties":{"state":"Alabama","abbr":"AL","kind":"state","direction":"E","directionLabel":"east","lat":32.26091,"lng":-84.88908},"geometry":{"type":"Point","coordinates":[-84.88908,32.260911]}},{"type":"Feature","properties":{"state":"Alabama","abbr":"AL","kind":"state","direction":"S","directionLabel":"south","lat":30.22333,"lng":-88.02136},"geometry":{"type":"Point","coordinates":[-88.02136399999999,30.223333999999998]}},{"type":"Feature","properties":{"state":"Alabama","abbr":"AL","kind":"state","direction":"W","directionLabel":"west","lat":31.89386,"lng":-88.47323},"geometry":{"type":"Point","coordinates":[-88.473227,31.893856]}},{"type":"Feature","properties":{"state":"Georgia","abbr":"GA","kind":"state","direction":"N","directionLabel":"north","lat":35.00066,"lng":-83.10861},"geometry":{"type":"Point","coordinates":[-83.108606,35.000659000000006]}},{"type":"Feature","properties":{"state":"Georgia","abbr":"GA","kind":"state","direction":"E","directionLabel":"east","lat":32.01152,"lng":-80.83973},"geometry":{"type":"Point","coordinates":[-80.83972899999999,32.011523]}},{"type":"Feature","properties":{"state":"Georgia","abbr":"GA","kind":"state","direction":"S","directionLabel":"south","lat":30.35785,"lng":-82.16176},"geometry":{"type":"Point","coordinates":[-82.161757,30.357851000000004]}},{"type":"Feature","properties":{"state":"Georgia","abbr":"GA","kind":"state","direction":"W","directionLabel":"west","lat":34.98468,"lng":-85.60516},"geometry":{"type":"Point","coordinates":[-85.605165,34.984677999999995]}},{"type":"Feature","properties":{"state":"Arkansas","abbr":"AR","kind":"state","direction":"N","directionLabel":"north","lat":36.4996,"lng":-94.3612},"geometry":{"type":"Point","coordinates":[-94.36120299999999,36.4996]}},{"type":"Feature","properties":{"state":"Arkansas","abbr":"AR","kind":"state","direction":"E","directionLabel":"east","lat":35.89478,"lng":-89.6444},"geometry":{"type":"Point","coordinates":[-89.644395,35.894782]}},{"type":"Feature","properties":{"state":"Arkansas","abbr":"AR","kind":"state","direction":"S","directionLabel":"south","lat":33.00411,"lng":-91.16607},"geometry":{"type":"Point","coordinates":[-91.166073,33.004106]}},{"type":"Feature","properties":{"state":"Arkansas","abbr":"AR","kind":"state","direction":"W","directionLabel":"west","lat":36.49941,"lng":-94.61792},"geometry":{"type":"Point","coordinates":[-94.61791900000001,36.49941400000001]}},{"type":"Feature","properties":{"state":"Pennsylvania","abbr":"PA","kind":"state","direction":"N","directionLabel":"north","lat":42.26986,"lng":-79.76195},"geometry":{"type":"Point","coordinates":[-79.761951,42.26986]}},{"type":"Feature","properties":{"state":"Pennsylvania","abbr":"PA","kind":"state","direction":"E","directionLabel":"east","lat":41.36384,"lng":-74.68952},"geometry":{"type":"Point","coordinates":[-74.68951600000001,41.363842999999996]}},{"type":"Feature","properties":{"state":"Pennsylvania","abbr":"PA","kind":"state","direction":"S","directionLabel":"south","lat":39.7198,"lng":-76.9909},"geometry":{"type":"Point","coordinates":[-76.990903,39.7198]}},{"type":"Feature","properties":{"state":"Pennsylvania","abbr":"PA","kind":"state","direction":"W","directionLabel":"west","lat":40.90666,"lng":-80.51989},"geometry":{"type":"Point","coordinates":[-80.519891,40.906661]}},{"type":"Feature","properties":{"state":"Missouri","abbr":"MO","kind":"state","direction":"N","directionLabel":"north","lat":40.61364,"lng":-91.72911},"geometry":{"type":"Point","coordinates":[-91.729115,40.61364]}},{"type":"Feature","properties":{"state":"Missouri","abbr":"MO","kind":"state","direction":"E","directionLabel":"east","lat":36.95785,"lng":-89.09884},"geometry":{"type":"Point","coordinates":[-89.09884300000002,36.95785]}},{"type":"Feature","properties":{"state":"Missouri","abbr":"MO","kind":"state","direction":"S","directionLabel":"south","lat":35.99568,"lng":-90.37789},"geometry":{"type":"Point","coordinates":[-90.37789,35.995683]}},{"type":"Feature","properties":{"state":"Missouri","abbr":"MO","kind":"state","direction":"W","directionLabel":"west","lat":40.57357,"lng":-95.7747},"geometry":{"type":"Point","coordinates":[-95.774704,40.573574]}},{"type":"Feature","properties":{"state":"Utah","abbr":"UT","kind":"state","direction":"N","directionLabel":"north","lat":42.0017,"lng":-111.04671},"geometry":{"type":"Point","coordinates":[-111.046714,42.001702]}},{"type":"Feature","properties":{"state":"Utah","abbr":"UT","kind":"state","direction":"E","directionLabel":"east","lat":37.90724,"lng":-109.04106},"geometry":{"type":"Point","coordinates":[-109.04105799999999,37.907236]}},{"type":"Feature","properties":{"state":"Utah","abbr":"UT","kind":"state","direction":"S","directionLabel":"south","lat":36.99797,"lng":-110.00068},"geometry":{"type":"Point","coordinates":[-110.000677,36.997968]}},{"type":"Feature","properties":{"state":"Utah","abbr":"UT","kind":"state","direction":"W","directionLabel":"west","lat":37.59278,"lng":-114.05296},"geometry":{"type":"Point","coordinates":[-114.052962,37.592783]}},{"type":"Feature","properties":{"state":"Oklahoma","abbr":"OK","kind":"state","direction":"N","directionLabel":"north","lat":37.00221,"lng":-100.11572},"geometry":{"type":"Point","coordinates":[-100.115722,37.002206]}},{"type":"Feature","properties":{"state":"Oklahoma","abbr":"OK","kind":"state","direction":"E","directionLabel":"east","lat":35.39248,"lng":-94.43066},"geometry":{"type":"Point","coordinates":[-94.430662,35.392478]}},{"type":"Feature","properties":{"state":"Oklahoma","abbr":"OK","kind":"state","direction":"S","directionLabel":"south","lat":33.61583,"lng":-94.52738},"geometry":{"type":"Point","coordinates":[-94.52737599999999,33.615832999999995]}},{"type":"Feature","properties":{"state":"Oklahoma","abbr":"OK","kind":"state","direction":"W","directionLabel":"west","lat":36.52659,"lng":-103.00257},"geometry":{"type":"Point","coordinates":[-103.002565,36.526588]}},{"type":"Feature","properties":{"state":"Tennessee","abbr":"TN","kind":"state","direction":"N","directionLabel":"north","lat":36.67812,"lng":-88.07053},"geometry":{"type":"Point","coordinates":[-88.070532,36.678118]}},{"type":"Feature","properties":{"state":"Tennessee","abbr":"TN","kind":"state","direction":"E","directionLabel":"east","lat":36.61192,"lng":-81.6469},"geometry":{"type":"Point","coordinates":[-81.6469,36.611917999999996]}},{"type":"Feature","properties":{"state":"Tennessee","abbr":"TN","kind":"state","direction":"S","directionLabel":"south","lat":34.98297,"lng":-85.46671},"geometry":{"type":"Point","coordinates":[-85.466713,34.982972]}},{"type":"Feature","properties":{"state":"Tennessee","abbr":"TN","kind":"state","direction":"W","directionLabel":"west","lat":35.00429,"lng":-90.3103},"geometry":{"type":"Point","coordinates":[-90.31029799999999,35.004295]}},{"type":"Feature","properties":{"state":"Wyoming","abbr":"WY","kind":"state","direction":"N","directionLabel":"north","lat":45.00581,"lng":-109.10323},"geometry":{"type":"Point","coordinates":[-109.103228,45.005815]}},{"type":"Feature","properties":{"state":"Wyoming","abbr":"WY","kind":"state","direction":"E","directionLabel":"east","lat":41.40766,"lng":-104.05216},"geometry":{"type":"Point","coordinates":[-104.05216,41.407662]}},{"type":"Feature","properties":{"state":"Wyoming","abbr":"WY","kind":"state","direction":"S","directionLabel":"south","lat":40.99475,"lng":-110.50072},"geometry":{"type":"Point","coordinates":[-110.500718,40.994746]}},{"type":"Feature","properties":{"state":"Wyoming","abbr":"WY","kind":"state","direction":"W","directionLabel":"west","lat":45.00095,"lng":-111.05456},"geometry":{"type":"Point","coordinates":[-111.05455600000002,45.000955]}},{"type":"Feature","properties":{"state":"Indiana","abbr":"IN","kind":"state","direction":"N","directionLabel":"north","lat":41.76059,"lng":-86.12784},"geometry":{"type":"Point","coordinates":[-86.127844,41.760591999999995]}},{"type":"Feature","properties":{"state":"Indiana","abbr":"IN","kind":"state","direction":"E","directionLabel":"east","lat":38.87532,"lng":-84.78458},"geometry":{"type":"Point","coordinates":[-84.784579,38.87532]}},{"type":"Feature","properties":{"state":"Indiana","abbr":"IN","kind":"state","direction":"S","directionLabel":"south","lat":37.77174,"lng":-87.95259},"geometry":{"type":"Point","coordinates":[-87.95259,37.771741999999996]}},{"type":"Feature","properties":{"state":"Indiana","abbr":"IN","kind":"state","direction":"W","directionLabel":"west","lat":37.90152,"lng":-88.09789},"geometry":{"type":"Point","coordinates":[-88.097892,37.901517]}},{"type":"Feature","properties":{"state":"Kansas","abbr":"KS","kind":"state","direction":"N","directionLabel":"north","lat":40.00316,"lng":-101.90418},"geometry":{"type":"Point","coordinates":[-101.904176,40.003161999999996]}},{"type":"Feature","properties":{"state":"Kansas","abbr":"KS","kind":"state","direction":"E","directionLabel":"east","lat":39.14987,"lng":-94.58841},"geometry":{"type":"Point","coordinates":[-94.588413,39.149868999999995]}},{"type":"Feature","properties":{"state":"Kansas","abbr":"KS","kind":"state","direction":"S","directionLabel":"south","lat":36.99302,"lng":-102.04209},"geometry":{"type":"Point","coordinates":[-102.042089,36.993016]}},{"type":"Feature","properties":{"state":"Kansas","abbr":"KS","kind":"state","direction":"W","directionLabel":"west","lat":40.00308,"lng":-102.05174},"geometry":{"type":"Point","coordinates":[-102.051744,40.003077999999995]}},{"type":"Feature","properties":{"state":"Idaho","abbr":"ID","kind":"state","direction":"N","directionLabel":"north","lat":49.00091,"lng":-116.04942},"geometry":{"type":"Point","coordinates":[-116.049418,49.000910999999995]}},{"type":"Feature","properties":{"state":"Idaho","abbr":"ID","kind":"state","direction":"E","directionLabel":"east","lat":42.72262,"lng":-111.04356},"geometry":{"type":"Point","coordinates":[-111.043564,42.722623999999996]}},{"type":"Feature","properties":{"state":"Idaho","abbr":"ID","kind":"state","direction":"S","directionLabel":"south","lat":41.98821,"lng":-113.86773},"geometry":{"type":"Point","coordinates":[-113.867726,41.988209]}},{"type":"Feature","properties":{"state":"Idaho","abbr":"ID","kind":"state","direction":"W","directionLabel":"west","lat":44.39097,"lng":-117.24303},"geometry":{"type":"Point","coordinates":[-117.243027,44.390974]}},{"type":"Feature","properties":{"state":"Alaska","abbr":"AK","kind":"state","direction":"N","directionLabel":"north","lat":71.36516,"lng":-156.34563},"geometry":{"type":"Point","coordinates":[-156.345635,71.36516200000001]}},{"type":"Feature","properties":{"state":"Alaska","abbr":"AK","kind":"state","direction":"E","directionLabel":"east","lat":55.28192,"lng":-129.97417},"geometry":{"type":"Point","coordinates":[-129.974167,55.281918999999995]}},{"type":"Feature","properties":{"state":"Alaska","abbr":"AK","kind":"state","direction":"S","directionLabel":"south","lat":51.21418,"lng":-179.13025},"geometry":{"type":"Point","coordinates":[-179.13025100000002,51.214183000000006]}},{"type":"Feature","properties":{"state":"Alaska","abbr":"AK","kind":"state","direction":"W","directionLabel":"west","lat":52.92716,"lng":172.46167},"geometry":{"type":"Point","coordinates":[172.46166699999998,52.92716]}},{"type":"Feature","properties":{"state":"Nevada","abbr":"NV","kind":"state","direction":"N","directionLabel":"north","lat":42.00221,"lng":-114.83108},"geometry":{"type":"Point","coordinates":[-114.831077,42.002207]}},{"type":"Feature","properties":{"state":"Nevada","abbr":"NV","kind":"state","direction":"E","directionLabel":"east","lat":41.88482,"lng":-114.03965},"geometry":{"type":"Point","coordinates":[-114.039648,41.884816]}},{"type":"Feature","properties":{"state":"Nevada","abbr":"NV","kind":"state","direction":"S","directionLabel":"south","lat":35.00186,"lng":-114.63349},"geometry":{"type":"Point","coordinates":[-114.63348700000002,35.001857]}},{"type":"Feature","properties":{"state":"Nevada","abbr":"NV","kind":"state","direction":"W","directionLabel":"west","lat":39.22521,"lng":-120.00575},"geometry":{"type":"Point","coordinates":[-120.00574600000002,39.22521]}},{"type":"Feature","properties":{"state":"Illinois","abbr":"IL","kind":"state","direction":"N","directionLabel":"north","lat":42.50848,"lng":-90.64284},"geometry":{"type":"Point","coordinates":[-90.642843,42.508480999999996]}},{"type":"Feature","properties":{"state":"Illinois","abbr":"IL","kind":"state","direction":"E","directionLabel":"east","lat":38.78198,"lng":-87.4952},"geometry":{"type":"Point","coordinates":[-87.495199,38.781979]}},{"type":"Feature","properties":{"state":"Illinois","abbr":"IL","kind":"state","direction":"S","directionLabel":"south","lat":36.9703,"lng":-89.17001},"geometry":{"type":"Point","coordinates":[-89.170008,36.970298]}},{"type":"Feature","properties":{"state":"Illinois","abbr":"IL","kind":"state","direction":"W","directionLabel":"west","lat":40.17854,"lng":-91.51308},"geometry":{"type":"Point","coordinates":[-91.51307899999999,40.178537]}},{"type":"Feature","properties":{"state":"Vermont","abbr":"VT","kind":"state","direction":"N","directionLabel":"north","lat":45.01666,"lng":-72.84563},"geometry":{"type":"Point","coordinates":[-72.84563299999999,45.016659]}},{"type":"Feature","properties":{"state":"Vermont","abbr":"VT","kind":"state","direction":"E","directionLabel":"east","lat":45.01364,"lng":-71.46455},"geometry":{"type":"Point","coordinates":[-71.46455499999999,45.013636999999996]}},{"type":"Feature","properties":{"state":"Vermont","abbr":"VT","kind":"state","direction":"S","directionLabel":"south","lat":42.72685,"lng":-72.45852},"geometry":{"type":"Point","coordinates":[-72.458519,42.726853]}},{"type":"Feature","properties":{"state":"Vermont","abbr":"VT","kind":"state","direction":"W","directionLabel":"west","lat":44.04501,"lng":-73.43774},"geometry":{"type":"Point","coordinates":[-73.43773999999999,44.045006]}},{"type":"Feature","properties":{"state":"Connecticut","abbr":"CT","kind":"state","direction":"N","directionLabel":"north","lat":42.05059,"lng":-73.43281},"geometry":{"type":"Point","coordinates":[-73.432812,42.050587]}},{"type":"Feature","properties":{"state":"Connecticut","abbr":"CT","kind":"state","direction":"E","directionLabel":"east","lat":41.65599,"lng":-71.78699},"geometry":{"type":"Point","coordinates":[-71.78699399999999,41.655992]}},{"type":"Feature","properties":{"state":"Connecticut","abbr":"CT","kind":"state","direction":"S","directionLabel":"south","lat":40.98014,"lng":-73.63008},"geometry":{"type":"Point","coordinates":[-73.63008099999999,40.980143999999996]}},{"type":"Feature","properties":{"state":"Connecticut","abbr":"CT","kind":"state","direction":"W","directionLabel":"west","lat":41.1007,"lng":-73.72777},"geometry":{"type":"Point","coordinates":[-73.727775,41.100696]}},{"type":"Feature","properties":{"state":"New Jersey","abbr":"NJ","kind":"state","direction":"N","directionLabel":"north","lat":41.35742,"lng":-74.69491},"geometry":{"type":"Point","coordinates":[-74.694914,41.357423]}},{"type":"Feature","properties":{"state":"New Jersey","abbr":"NJ","kind":"state","direction":"E","directionLabel":"east","lat":40.9972,"lng":-73.89398},"geometry":{"type":"Point","coordinates":[-73.893979,40.997197]}},{"type":"Feature","properties":{"state":"New Jersey","abbr":"NJ","kind":"state","direction":"S","directionLabel":"south","lat":38.92852,"lng":-74.93357},"geometry":{"type":"Point","coordinates":[-74.933571,38.928519]}},{"type":"Feature","properties":{"state":"New Jersey","abbr":"NJ","kind":"state","direction":"W","directionLabel":"west","lat":39.62421,"lng":-75.55961},"geometry":{"type":"Point","coordinates":[-75.559614,39.624207999999996]}},{"type":"Feature","properties":{"state":"North Dakota","abbr":"ND","kind":"state","direction":"N","directionLabel":"north","lat":49.00057,"lng":-97.77575},"geometry":{"type":"Point","coordinates":[-97.77575,49.00057400000001]}},{"type":"Feature","properties":{"state":"North Dakota","abbr":"ND","kind":"state","direction":"E","directionLabel":"east","lat":46.08398,"lng":-96.55451},"geometry":{"type":"Point","coordinates":[-96.55450700000002,46.083977999999995]}},{"type":"Feature","properties":{"state":"North Dakota","abbr":"ND","kind":"state","direction":"S","directionLabel":"south","lat":45.93505,"lng":-97.3189},"geometry":{"type":"Point","coordinates":[-97.318899,45.935054]}},{"type":"Feature","properties":{"state":"North Dakota","abbr":"ND","kind":"state","direction":"W","directionLabel":"west","lat":48.84739,"lng":-104.0489},"geometry":{"type":"Point","coordinates":[-104.0489,48.847387]}},{"type":"Feature","properties":{"state":"Iowa","abbr":"IA","kind":"state","direction":"N","directionLabel":"north","lat":43.5012,"lng":-95.24484},"geometry":{"type":"Point","coordinates":[-95.244844,43.501196]}},{"type":"Feature","properties":{"state":"Iowa","abbr":"IA","kind":"state","direction":"E","directionLabel":"east","lat":42.00325,"lng":-90.14006},"geometry":{"type":"Point","coordinates":[-90.140061,42.003251999999996]}},{"type":"Feature","properties":{"state":"Iowa","abbr":"IA","kind":"state","direction":"S","directionLabel":"south","lat":40.3755,"lng":-91.45246},"geometry":{"type":"Point","coordinates":[-91.452458,40.375501]}},{"type":"Feature","properties":{"state":"Iowa","abbr":"IA","kind":"state","direction":"W","directionLabel":"west","lat":42.73707,"lng":-96.6397},"geometry":{"type":"Point","coordinates":[-96.639704,42.737071]}},{"type":"Feature","properties":{"state":"New Hampshire","abbr":"NH","kind":"state","direction":"N","directionLabel":"north","lat":45.30548,"lng":-71.08556},"geometry":{"type":"Point","coordinates":[-71.08556399999999,45.305476]}},{"type":"Feature","properties":{"state":"New Hampshire","abbr":"NH","kind":"state","direction":"E","directionLabel":"east","lat":42.97641,"lng":-70.61062},"geometry":{"type":"Point","coordinates":[-70.610621,42.976406999999995]}},{"type":"Feature","properties":{"state":"New Hampshire","abbr":"NH","kind":"state","direction":"S","directionLabel":"south","lat":42.69699,"lng":-71.2942},"geometry":{"type":"Point","coordinates":[-71.29420499999999,42.69699]}},{"type":"Feature","properties":{"state":"New Hampshire","abbr":"NH","kind":"state","direction":"W","directionLabel":"west","lat":42.85302,"lng":-72.55725},"geometry":{"type":"Point","coordinates":[-72.55724699999999,42.853018999999996]}},{"type":"Feature","properties":{"state":"Arizona","abbr":"AZ","kind":"state","direction":"N","directionLabel":"north","lat":37.00426,"lng":-110.50069},"geometry":{"type":"Point","coordinates":[-110.50068999999999,37.004259999999995]}},{"type":"Feature","properties":{"state":"Arizona","abbr":"AZ","kind":"state","direction":"E","directionLabel":"east","lat":36.99908,"lng":-109.04522},"geometry":{"type":"Point","coordinates":[-109.045223,36.999083999999996]}},{"type":"Feature","properties":{"state":"Arizona","abbr":"AZ","kind":"state","direction":"S","directionLabel":"south","lat":31.33218,"lng":-111.00064},"geometry":{"type":"Point","coordinates":[-111.000643,31.332176999999998]}},{"type":"Feature","properties":{"state":"Arizona","abbr":"AZ","kind":"state","direction":"W","directionLabel":"west","lat":32.50696,"lng":-114.81651},"geometry":{"type":"Point","coordinates":[-114.81651,32.506963]}},{"type":"Feature","properties":{"state":"Delaware","abbr":"DE","kind":"state","direction":"N","directionLabel":"north","lat":39.83901,"lng":-75.57046},"geometry":{"type":"Point","coordinates":[-75.570464,39.839006999999995]}},{"type":"Feature","properties":{"state":"Delaware","abbr":"DE","kind":"state","direction":"E","directionLabel":"east","lat":38.45126,"lng":-75.04894},"geometry":{"type":"Point","coordinates":[-75.04893899999999,38.451263]}},{"type":"Feature","properties":{"state":"Delaware","abbr":"DE","kind":"state","direction":"S","directionLabel":"south","lat":38.45101,"lng":-75.18541},"geometry":{"type":"Point","coordinates":[-75.185413,38.451012999999996]}},{"type":"Feature","properties":{"state":"Delaware","abbr":"DE","kind":"state","direction":"W","directionLabel":"west","lat":39.68191,"lng":-75.78866},"geometry":{"type":"Point","coordinates":[-75.788658,39.681911]}},{"type":"Feature","properties":{"state":"Guam","abbr":"GU","kind":"territory","direction":"N","directionLabel":"north","lat":13.65438,"lng":144.85977},"geometry":{"type":"Point","coordinates":[144.85977,13.654383]}},{"type":"Feature","properties":{"state":"Guam","abbr":"GU","kind":"territory","direction":"E","directionLabel":"east","lat":13.59817,"lng":144.95671},"geometry":{"type":"Point","coordinates":[144.95671199999998,13.598168]}},{"type":"Feature","properties":{"state":"Guam","abbr":"GU","kind":"territory","direction":"S","directionLabel":"south","lat":13.23419,"lng":144.64669},"geometry":{"type":"Point","coordinates":[144.646686,13.234189]}},{"type":"Feature","properties":{"state":"Guam","abbr":"GU","kind":"territory","direction":"W","directionLabel":"west","lat":13.44781,"lng":144.61807},"geometry":{"type":"Point","coordinates":[144.618068,13.44781]}},{"type":"Feature","properties":{"state":"American Samoa","abbr":"AS","kind":"territory","direction":"N","directionLabel":"north","lat":-11.04693,"lng":-171.07363},"geometry":{"type":"Point","coordinates":[-171.073635,-11.046934]}},{"type":"Feature","properties":{"state":"American Samoa","abbr":"AS","kind":"territory","direction":"E","directionLabel":"east","lat":-14.54737,"lng":-168.1433},"geometry":{"type":"Point","coordinates":[-168.1433,-14.547367999999999]}},{"type":"Feature","properties":{"state":"American Samoa","abbr":"AS","kind":"territory","direction":"S","directionLabel":"south","lat":-14.5487,"lng":-168.1449},"geometry":{"type":"Point","coordinates":[-168.144905,-14.548699000000001]}},{"type":"Feature","properties":{"state":"American Samoa","abbr":"AS","kind":"territory","direction":"W","directionLabel":"west","lat":-11.05259,"lng":-171.08987},"geometry":{"type":"Point","coordinates":[-171.089874,-11.052591999999999]}},{"type":"Feature","properties":{"state":"Kentucky","abbr":"KY","kind":"state","direction":"N","directionLabel":"north","lat":39.14746,"lng":-84.74415},"geometry":{"type":"Point","coordinates":[-84.744149,39.147458]}},{"type":"Feature","properties":{"state":"Kentucky","abbr":"KY","kind":"state","direction":"E","directionLabel":"east","lat":37.54303,"lng":-81.96497},"geometry":{"type":"Point","coordinates":[-81.96497099999999,37.543026]}},{"type":"Feature","properties":{"state":"Kentucky","abbr":"KY","kind":"state","direction":"S","directionLabel":"south","lat":36.49713,"lng":-88.0532},"geometry":{"type":"Point","coordinates":[-88.05320499999999,36.497129]}},{"type":"Feature","properties":{"state":"Kentucky","abbr":"KY","kind":"state","direction":"W","directionLabel":"west","lat":36.55257,"lng":-89.57151},"geometry":{"type":"Point","coordinates":[-89.57150899999999,36.552569]}},{"type":"Feature","properties":{"state":"Ohio","abbr":"OH","kind":"state","direction":"N","directionLabel":"north","lat":41.97752,"lng":-80.51942},"geometry":{"type":"Point","coordinates":[-80.519425,41.977523]}},{"type":"Feature","properties":{"state":"Ohio","abbr":"OH","kind":"state","direction":"E","directionLabel":"east","lat":41.24885,"lng":-80.51869},"geometry":{"type":"Point","coordinates":[-80.518693,41.248855]}},{"type":"Feature","properties":{"state":"Ohio","abbr":"OH","kind":"state","direction":"S","directionLabel":"south","lat":38.4032,"lng":-82.5498},"geometry":{"type":"Point","coordinates":[-82.549799,38.403202]}},{"type":"Feature","properties":{"state":"Ohio","abbr":"OH","kind":"state","direction":"W","directionLabel":"west","lat":39.22722,"lng":-84.82016},"geometry":{"type":"Point","coordinates":[-84.82015899999999,39.227225]}},{"type":"Feature","properties":{"state":"Wisconsin","abbr":"WI","kind":"state","direction":"N","directionLabel":"north","lat":47.08062,"lng":-90.72871},"geometry":{"type":"Point","coordinates":[-90.72870900000001,47.080621]}},{"type":"Feature","properties":{"state":"Wisconsin","abbr":"WI","kind":"state","direction":"E","directionLabel":"east","lat":45.40732,"lng":-86.80541},"geometry":{"type":"Point","coordinates":[-86.805415,45.407323999999996]}},{"type":"Feature","properties":{"state":"Wisconsin","abbr":"WI","kind":"state","direction":"S","directionLabel":"south","lat":42.49198,"lng":-88.78668},"geometry":{"type":"Point","coordinates":[-88.786681,42.491983]}},{"type":"Feature","properties":{"state":"Wisconsin","abbr":"WI","kind":"state","direction":"W","directionLabel":"west","lat":45.62838,"lng":-92.88811},"geometry":{"type":"Point","coordinates":[-92.888114,45.628377]}},{"type":"Feature","properties":{"state":"Oregon","abbr":"OR","kind":"state","direction":"N","directionLabel":"north","lat":46.29203,"lng":-124.02381},"geometry":{"type":"Point","coordinates":[-124.02381499999998,46.292035]}},{"type":"Feature","properties":{"state":"Oregon","abbr":"OR","kind":"state","direction":"E","directionLabel":"east","lat":45.61578,"lng":-116.4635},"geometry":{"type":"Point","coordinates":[-116.463504,45.615784999999995]}},{"type":"Feature","properties":{"state":"Oregon","abbr":"OR","kind":"state","direction":"S","directionLabel":"south","lat":41.99179,"lng":-118.69641},"geometry":{"type":"Point","coordinates":[-118.69640899999999,41.991794]}},{"type":"Feature","properties":{"state":"Oregon","abbr":"OR","kind":"state","direction":"W","directionLabel":"west","lat":42.83639,"lng":-124.56624},"geometry":{"type":"Point","coordinates":[-124.566244,42.836392]}},{"type":"Feature","properties":{"state":"Mississippi","abbr":"MS","kind":"state","direction":"N","directionLabel":"north","lat":34.99605,"lng":-88.4698},"geometry":{"type":"Point","coordinates":[-88.46980099999999,34.996052]}},{"type":"Feature","properties":{"state":"Mississippi","abbr":"MS","kind":"state","direction":"E","directionLabel":"east","lat":34.8922,"lng":-88.09789},"geometry":{"type":"Point","coordinates":[-88.097888,34.892202]}},{"type":"Feature","properties":{"state":"Mississippi","abbr":"MS","kind":"state","direction":"S","directionLabel":"south","lat":30.17394,"lng":-89.46359},"geometry":{"type":"Point","coordinates":[-89.463595,30.173942999999998]}},{"type":"Feature","properties":{"state":"Mississippi","abbr":"MS","kind":"state","direction":"W","directionLabel":"west","lat":31.25181,"lng":-91.65501},"geometry":{"type":"Point","coordinates":[-91.65500899999999,31.251814999999997]}},{"type":"Feature","properties":{"state":"Colorado","abbr":"CO","kind":"state","direction":"N","directionLabel":"north","lat":41.00344,"lng":-107.00061},"geometry":{"type":"Point","coordinates":[-107.000606,41.003443999999995]}},{"type":"Feature","properties":{"state":"Colorado","abbr":"CO","kind":"state","direction":"E","directionLabel":"east","lat":37.37502,"lng":-102.04152},"geometry":{"type":"Point","coordinates":[-102.041524,37.375018]}},{"type":"Feature","properties":{"state":"Colorado","abbr":"CO","kind":"state","direction":"S","directionLabel":"south","lat":36.99243,"lng":-106.8698},"geometry":{"type":"Point","coordinates":[-106.86979600000001,36.992426]}},{"type":"Feature","properties":{"state":"Colorado","abbr":"CO","kind":"state","direction":"W","directionLabel":"west","lat":38.59933,"lng":-109.06025},"geometry":{"type":"Point","coordinates":[-109.060253,38.599328]}},{"type":"Feature","properties":{"state":"North Carolina","abbr":"NC","kind":"state","direction":"N","directionLabel":"north","lat":36.58812,"lng":-81.67753},"geometry":{"type":"Point","coordinates":[-81.67753499999999,36.588117]}},{"type":"Feature","properties":{"state":"North Carolina","abbr":"NC","kind":"state","direction":"E","directionLabel":"east","lat":35.57697,"lng":-75.46062},"geometry":{"type":"Point","coordinates":[-75.460621,35.576975]}},{"type":"Feature","properties":{"state":"North Carolina","abbr":"NC","kind":"state","direction":"S","directionLabel":"south","lat":33.84232,"lng":-77.96279},"geometry":{"type":"Point","coordinates":[-77.962794,33.842316]}},{"type":"Feature","properties":{"state":"North Carolina","abbr":"NC","kind":"state","direction":"W","directionLabel":"west","lat":34.98841,"lng":-84.32187},"geometry":{"type":"Point","coordinates":[-84.32186899999999,34.988408]}},{"type":"Feature","properties":{"state":"Virginia","abbr":"VA","kind":"state","direction":"N","directionLabel":"north","lat":39.46601,"lng":-78.34709},"geometry":{"type":"Point","coordinates":[-78.347087,39.466012]}},{"type":"Feature","properties":{"state":"Virginia","abbr":"VA","kind":"state","direction":"E","directionLabel":"east","lat":38.02721,"lng":-75.24227},"geometry":{"type":"Point","coordinates":[-75.242266,38.027209]}},{"type":"Feature","properties":{"state":"Virginia","abbr":"VA","kind":"state","direction":"S","directionLabel":"south","lat":36.54074,"lng":-79.51065},"geometry":{"type":"Point","coordinates":[-79.51064699999999,36.540738]}},{"type":"Feature","properties":{"state":"Virginia","abbr":"VA","kind":"state","direction":"W","directionLabel":"west","lat":36.60078,"lng":-83.67539},"geometry":{"type":"Point","coordinates":[-83.675395,36.600784]}},{"type":"Feature","properties":{"state":"West Virginia","abbr":"WV","kind":"state","direction":"N","directionLabel":"north","lat":40.6388,"lng":-80.51899},"geometry":{"type":"Point","coordinates":[-80.518991,40.638801]}},{"type":"Feature","properties":{"state":"West Virginia","abbr":"WV","kind":"state","direction":"E","directionLabel":"east","lat":39.32131,"lng":-77.71952},"geometry":{"type":"Point","coordinates":[-77.71951899999999,39.321314]}},{"type":"Feature","properties":{"state":"West Virginia","abbr":"WV","kind":"state","direction":"S","directionLabel":"south","lat":37.20148,"lng":-81.67821},"geometry":{"type":"Point","coordinates":[-81.67820999999999,37.201482999999996]}},{"type":"Feature","properties":{"state":"West Virginia","abbr":"WV","kind":"state","direction":"W","directionLabel":"west","lat":38.16549,"lng":-82.64474},"geometry":{"type":"Point","coordinates":[-82.644739,38.165487]}},{"type":"Feature","properties":{"state":"Louisiana","abbr":"LA","kind":"state","direction":"N","directionLabel":"north","lat":33.01946,"lng":-93.72327},"geometry":{"type":"Point","coordinates":[-93.72327299999999,33.019456999999996]}},{"type":"Feature","properties":{"state":"Louisiana","abbr":"LA","kind":"state","direction":"E","directionLabel":"east","lat":29.93425,"lng":-88.81702},"geometry":{"type":"Point","coordinates":[-88.81701699999999,29.934250000000002]}},{"type":"Feature","properties":{"state":"Louisiana","abbr":"LA","kind":"state","direction":"S","directionLabel":"south","lat":28.92861,"lng":-89.4179},"geometry":{"type":"Point","coordinates":[-89.417901,28.928608999999998]}},{"type":"Feature","properties":{"state":"Louisiana","abbr":"LA","kind":"state","direction":"W","directionLabel":"west","lat":32.69303,"lng":-94.04315},"geometry":{"type":"Point","coordinates":[-94.04314699999999,32.693031]}},{"type":"Feature","properties":{"state":"New York","abbr":"NY","kind":"state","direction":"N","directionLabel":"north","lat":45.01585,"lng":-74.82658},"geometry":{"type":"Point","coordinates":[-74.826578,45.01585]}},{"type":"Feature","properties":{"state":"New York","abbr":"NY","kind":"state","direction":"E","directionLabel":"east","lat":41.0706,"lng":-71.85621},"geometry":{"type":"Point","coordinates":[-71.856214,41.070598000000004]}},{"type":"Feature","properties":{"state":"New York","abbr":"NY","kind":"state","direction":"S","directionLabel":"south","lat":40.4961,"lng":-74.24669},"geometry":{"type":"Point","coordinates":[-74.24668799999999,40.496103]}},{"type":"Feature","properties":{"state":"New York","abbr":"NY","kind":"state","direction":"W","directionLabel":"west","lat":42.24305,"lng":-79.76215},"geometry":{"type":"Point","coordinates":[-79.762152,42.243054]}},{"type":"Feature","properties":{"state":"Michigan","abbr":"MI","kind":"state","direction":"N","directionLabel":"north","lat":48.2388,"lng":-88.34086},"geometry":{"type":"Point","coordinates":[-88.340858,48.23880000000001]}},{"type":"Feature","properties":{"state":"Michigan","abbr":"MI","kind":"state","direction":"E","directionLabel":"east","lat":42.97689,"lng":-82.41347},"geometry":{"type":"Point","coordinates":[-82.413474,42.976887]}},{"type":"Feature","properties":{"state":"Michigan","abbr":"MI","kind":"state","direction":"S","directionLabel":"south","lat":41.69612,"lng":-84.80597},"geometry":{"type":"Point","coordinates":[-84.805972,41.696118]}},{"type":"Feature","properties":{"state":"Michigan","abbr":"MI","kind":"state","direction":"W","directionLabel":"west","lat":46.56609,"lng":-90.41814},"geometry":{"type":"Point","coordinates":[-90.41813599999999,46.566094]}},{"type":"Feature","properties":{"state":"Massachusetts","abbr":"MA","kind":"state","direction":"N","directionLabel":"north","lat":42.88659,"lng":-70.9149},"geometry":{"type":"Point","coordinates":[-70.914899,42.886589]}},{"type":"Feature","properties":{"state":"Massachusetts","abbr":"MA","kind":"state","direction":"E","directionLabel":"east","lat":41.70845,"lng":-69.92839},"geometry":{"type":"Point","coordinates":[-69.928393,41.708449]}},{"type":"Feature","properties":{"state":"Massachusetts","abbr":"MA","kind":"state","direction":"S","directionLabel":"south","lat":41.23796,"lng":-70.01523},"geometry":{"type":"Point","coordinates":[-70.015225,41.237964]}},{"type":"Feature","properties":{"state":"Massachusetts","abbr":"MA","kind":"state","direction":"W","directionLabel":"west","lat":42.08626,"lng":-73.50814},"geometry":{"type":"Point","coordinates":[-73.50814199999999,42.086256999999996]}}]}