{"type":"FeatureCollection","features":[{"type":"Feature","properties":{"name":"Al-Qahirah (Cairo)","iso3":"EGY","capital":1,"p1975":7.336,"p1990":11.488,"p2000":15.502,"p2010":19.262,"p2020":23.757,"p2025":25.41,"p2030":27.023,"p2040":30.032,"p2050":32.266,"p2100":40.5},"geometry":{"type":"Point","coordinates":[31.2532,30.0707]}},{"type":"Feature","properties":{"name":"Luanda","iso3":"AGO","capital":1,"p2000":0.674,"p2010":3.314,"p2020":9.509,"p2025":11.211,"p2030":12.958,"p2040":16.614,"p2050":20.11,"p2100":35.1},"geometry":{"type":"Point","coordinates":[13.3083,-8.898]}},{"type":"Feature","properties":{"name":"Lagos","iso3":"NGA","p1975":2.532,"p1990":5.635,"p2000":7.807,"p2010":10.021,"p2020":11.92,"p2025":12.714,"p2030":13.534,"p2040":14.952,"p2050":16.124,"p2100":88.3},"geometry":{"type":"Point","coordinates":[3.3074,6.5725]}},{"type":"Feature","properties":{"name":"Kinshasa","iso3":"COD","capital":1,"p1975":0.984,"p1990":2.975,"p2000":5.221,"p2010":6.217,"p2020":10.204,"p2025":10.895,"p2030":11.551,"p2040":12.491,"p2050":13.173,"p2100":83.5},"geometry":{"type":"Point","coordinates":[15.3276,-4.3869]}},{"type":"Feature","properties":{"name":"Dar es Salaam","iso3":"TZA","capital":1,"p1975":0.275,"p1990":1.163,"p2000":2.023,"p2010":3.673,"p2020":6.687,"p2025":7.701,"p2030":8.758,"p2040":10.868,"p2050":13.048,"p2100":73.7},"geometry":{"type":"Point","coordinates":[39.2094,-6.8339]}},{"type":"Feature","properties":{"name":"\u0100d\u012bs \u1fb9beba (Addis Ababa)","iso3":"ETH","capital":1,"p1975":0.842,"p1990":1.917,"p2000":2.757,"p2010":3.628,"p2020":5.775,"p2025":6.626,"p2030":7.528,"p2040":9.218,"p2050":10.709,"p2100":35.8},"geometry":{"type":"Point","coordinates":[38.7514,9.0022]}},{"type":"Feature","properties":{"name":"Abidjan","iso3":"CIV","capital":1,"p1975":0.975,"p1990":2.345,"p2000":3.387,"p2010":4.448,"p2020":5.968,"p2025":6.566,"p2030":7.178,"p2040":8.424,"p2050":9.71,"p2100":32.0},"geometry":{"type":"Point","coordinates":[-4.0167,5.3562]}},{"type":"Feature","properties":{"name":"Al-Khar\u1e6d\u016bm (Khartoum)","iso3":"SDN","capital":1,"p1975":0.817,"p1990":2.67,"p2000":4.077,"p2010":5.203,"p2020":6.374,"p2025":6.771,"p2030":7.405,"p2040":8.456,"p2050":9.395,"p2100":56.6},"geometry":{"type":"Point","coordinates":[32.5084,15.6075]}},{"type":"Feature","properties":{"name":"Alexandria","iso3":"EGY","p1975":2.605,"p1990":3.811,"p2000":4.439,"p2010":5.39,"p2020":6.777,"p2025":7.227,"p2030":7.632,"p2040":8.39,"p2050":8.993},"geometry":{"type":"Point","coordinates":[29.9614,31.1896]}},{"type":"Feature","properties":{"name":"Johannesburg","iso3":"ZAF","p1975":1.178,"p1990":1.425,"p2000":2.694,"p2010":4.607,"p2020":6.409,"p2025":7.021,"p2030":7.509,"p2040":8.258,"p2050":8.886},"geometry":{"type":"Point","coordinates":[28.0206,-26.2202]}},{"type":"Feature","properties":{"name":"Onitsha","iso3":"NGA","p1975":0.732,"p1990":1.676,"p2000":2.316,"p2010":3.343,"p2020":4.878,"p2025":5.561,"p2030":6.231,"p2040":7.476,"p2050":8.63},"geometry":{"type":"Point","coordinates":[6.9282,6.0621]}},{"type":"Feature","properties":{"name":"Yaound\u00e9","iso3":"CMR","capital":1,"p1975":0.44,"p1990":0.956,"p2000":1.545,"p2010":2.605,"p2020":4.342,"p2025":5.039,"p2030":5.73,"p2040":7.18,"p2050":8.59},"geometry":{"type":"Point","coordinates":[11.5184,3.8417]}},{"type":"Feature","properties":{"name":"Nairobi","iso3":"KEN","capital":1,"p1975":0.515,"p1990":1.429,"p2000":2.52,"p2010":3.715,"p2020":5.501,"p2025":6.08,"p2030":6.631,"p2040":7.639,"p2050":8.472,"p2100":46.1},"geometry":{"type":"Point","coordinates":[36.845,-1.2591]}},{"type":"Feature","properties":{"name":"Kampala","iso3":"UGA","capital":1,"p1975":0.597,"p1990":0.985,"p2000":1.659,"p2010":2.749,"p2020":4.158,"p2025":4.816,"p2030":5.472,"p2040":6.711,"p2050":7.841,"p2100":40.1},"geometry":{"type":"Point","coordinates":[32.5703,0.3207]}},{"type":"Feature","properties":{"name":"Bamako","iso3":"MLI","capital":1,"p1975":0.331,"p1990":0.793,"p2000":1.223,"p2010":2.305,"p2020":3.577,"p2025":4.185,"p2030":4.848,"p2040":6.297,"p2050":7.576},"geometry":{"type":"Point","coordinates":[-7.9774,12.6226]}},{"type":"Feature","properties":{"name":"Luxor","iso3":"EGY","p1975":0.092,"p1990":0.093,"p2000":0.208,"p2010":0.803,"p2020":3.419,"p2025":4.127,"p2030":4.717,"p2040":6.072,"p2050":7.501},"geometry":{"type":"Point","coordinates":[32.6351,25.687]}},{"type":"Feature","properties":{"name":"Accra","iso3":"GHA","capital":1,"p1975":0.825,"p1990":1.651,"p2000":2.567,"p2010":3.867,"p2020":5.146,"p2025":5.554,"p2030":5.929,"p2040":6.617,"p2050":7.206},"geometry":{"type":"Point","coordinates":[-0.2126,5.6131]}},{"type":"Feature","properties":{"name":"Muqdisho (Mogadishu)","iso3":"SOM","capital":1,"p1975":0.432,"p1990":1.018,"p2000":1.232,"p2010":1.657,"p2020":3.686,"p2025":4.344,"p2030":4.936,"p2040":6.069,"p2050":7.138,"p2100":36.4},"geometry":{"type":"Point","coordinates":[45.3249,2.0608]}},{"type":"Feature","properties":{"name":"Owerri","iso3":"NGA","p1975":0.054,"p1990":0.572,"p2000":1.236,"p2010":2.068,"p2020":3.12,"p2025":3.767,"p2030":4.352,"p2040":5.576,"p2050":6.747},"geometry":{"type":"Point","coordinates":[7.0398,5.6954]}},{"type":"Feature","properties":{"name":"Lusaka","iso3":"ZMB","capital":1,"p1975":0.202,"p1990":0.695,"p2000":1.036,"p2010":1.812,"p2020":2.926,"p2025":3.458,"p2030":4.047,"p2040":5.201,"p2050":6.489,"p2100":37.7},"geometry":{"type":"Point","coordinates":[28.2907,-15.3964]}},{"type":"Feature","properties":{"name":"Douala","iso3":"CMR","p1975":0.341,"p1990":0.882,"p2000":1.423,"p2010":2.3,"p2020":3.602,"p2025":4.061,"p2030":4.545,"p2040":5.512,"p2050":6.403,"p2100":25.8},"geometry":{"type":"Point","coordinates":[9.7424,4.0521]}},{"type":"Feature","properties":{"name":"Kano","iso3":"NGA","p1975":0.73,"p1990":2.001,"p2000":2.682,"p2010":3.532,"p2020":4.499,"p2025":4.811,"p2030":5.14,"p2040":5.735,"p2050":6.339},"geometry":{"type":"Point","coordinates":[8.5067,11.9814]}},{"type":"Feature","properties":{"name":"Cape Town","iso3":"ZAF","capital":1,"p1975":0.956,"p1990":1.8,"p2000":2.397,"p2010":3.041,"p2020":4.015,"p2025":4.466,"p2030":4.855,"p2040":5.525,"p2050":6.099},"geometry":{"type":"Point","coordinates":[18.5967,-33.9774]}},{"type":"Feature","properties":{"name":"Antananarivo","iso3":"MDG","capital":1,"p1975":0.278,"p1990":0.749,"p2000":1.137,"p2010":1.832,"p2020":3.432,"p2025":3.877,"p2030":4.261,"p2040":5.174,"p2050":5.97},"geometry":{"type":"Point","coordinates":[47.5341,-18.8603]}},{"type":"Feature","properties":{"name":"Brazzaville","iso3":"COG","capital":1,"p1975":0.548,"p1990":1.012,"p2000":1.259,"p2010":1.914,"p2020":3.225,"p2025":3.62,"p2030":4.021,"p2040":4.868,"p2050":5.689},"geometry":{"type":"Point","coordinates":[15.2545,-4.2399]}},{"type":"Feature","properties":{"name":"Kumasi","iso3":"GHA","p1975":0.41,"p1990":0.751,"p2000":1.451,"p2010":2.347,"p2020":3.91,"p2025":4.269,"p2030":4.565,"p2040":5.056,"p2050":5.431},"geometry":{"type":"Point","coordinates":[-1.612,6.6886]}},{"type":"Feature","properties":{"name":"Dakar","iso3":"SEN","capital":1,"p1975":0.918,"p1990":1.584,"p2000":2.12,"p2010":2.751,"p2020":3.496,"p2025":3.82,"p2030":4.163,"p2040":4.804,"p2050":5.336},"geometry":{"type":"Point","coordinates":[-17.3838,14.7448]}},{"type":"Feature","properties":{"name":"Lubumbashi","iso3":"COD","p1975":0.186,"p1990":0.393,"p2000":0.709,"p2010":1.409,"p2020":2.336,"p2025":2.789,"p2030":3.271,"p2040":4.233,"p2050":5.209},"geometry":{"type":"Point","coordinates":[27.4811,-11.6556]}},{"type":"Feature","properties":{"name":"Kasa\u00ef-Oriental","iso3":"COD","p1975":0.876,"p1990":1.378,"p2000":1.899,"p2010":2.572,"p2020":3.329,"p2025":3.582,"p2030":3.921,"p2040":4.512,"p2050":5.089},"geometry":{"type":"Point","coordinates":[23.5995,-6.1243]}},{"type":"Feature","properties":{"name":"Casablanca","iso3":"MAR","p1975":1.71,"p1990":2.639,"p2000":3.15,"p2010":3.73,"p2020":4.255,"p2025":4.439,"p2030":4.592,"p2040":4.837,"p2050":4.983},"geometry":{"type":"Point","coordinates":[-7.5413,33.5813]}},{"type":"Feature","properties":{"name":"Ibadan","iso3":"NGA","p1975":0.798,"p1990":1.488,"p2000":2.067,"p2010":2.77,"p2020":3.503,"p2025":3.703,"p2030":3.914,"p2040":4.315,"p2050":4.649},"geometry":{"type":"Point","coordinates":[3.9234,7.3803]}},{"type":"Feature","properties":{"name":"Ouagadougou","iso3":"BFA","capital":1,"p1975":0.063,"p1990":0.448,"p2000":0.849,"p2010":1.797,"p2020":2.878,"p2025":3.179,"p2030":3.461,"p2040":3.979,"p2050":4.382},"geometry":{"type":"Point","coordinates":[-1.5318,12.3635]}},{"type":"Feature","properties":{"name":"Maputo","iso3":"MOZ","capital":1,"p1975":0.442,"p1990":1.048,"p2000":1.512,"p2010":2.008,"p2020":2.893,"p2025":3.143,"p2030":3.468,"p2040":3.957,"p2050":4.306},"geometry":{"type":"Point","coordinates":[32.5439,-25.8713]}},{"type":"Feature","properties":{"name":"El Djaza\u00efr (Algiers)","iso3":"DZA","capital":1,"p1975":1.504,"p1990":1.783,"p2000":2.165,"p2010":2.667,"p2020":3.071,"p2025":3.231,"p2030":3.372,"p2040":3.532,"p2050":3.682},"geometry":{"type":"Point","coordinates":[3.088,36.7328]}},{"type":"Feature","properties":{"name":"Banha","iso3":"EGY","p1975":0.122,"p1990":0.349,"p2000":0.773,"p2010":1.249,"p2020":1.763,"p2025":2.059,"p2030":2.386,"p2040":3.109,"p2050":3.648},"geometry":{"type":"Point","coordinates":[31.1674,30.4259]}},{"type":"Feature","properties":{"name":"Harare","iso3":"ZWE","capital":1,"p1975":0.486,"p1990":1.21,"p2000":1.73,"p2010":1.946,"p2020":1.898,"p2025":2.094,"p2030":2.324,"p2040":2.92,"p2050":3.429},"geometry":{"type":"Point","coordinates":[31.0431,-17.874]}},{"type":"Feature","properties":{"name":"Cotonou","iso3":"BEN","capital":1,"p1975":0.35,"p1990":0.732,"p2000":1.016,"p2010":1.478,"p2020":2.227,"p2025":2.483,"p2030":2.7,"p2040":3.078,"p2050":3.427},"geometry":{"type":"Point","coordinates":[2.3667,6.4057]}},{"type":"Feature","properties":{"name":"Coyah (Conacry)","iso3":"GIN","p1975":0.606,"p1990":0.942,"p2000":1.31,"p2010":1.863,"p2020":2.528,"p2025":2.71,"p2030":2.893,"p2040":3.162,"p2050":3.388},"geometry":{"type":"Point","coordinates":[-13.5382,9.6739]}},{"type":"Feature","properties":{"name":"Lom\u00e9","iso3":"TGO","capital":1,"p1975":0.193,"p1990":0.561,"p2000":1.042,"p2010":1.725,"p2020":2.221,"p2025":2.398,"p2030":2.611,"p2040":2.948,"p2050":3.253},"geometry":{"type":"Point","coordinates":[1.2268,6.2009]}},{"type":"Feature","properties":{"name":"Port Harcourt","iso3":"NGA","p1975":0.267,"p1990":0.561,"p2000":0.784,"p2010":1.159,"p2020":2.116,"p2025":2.324,"p2030":2.523,"p2040":2.864,"p2050":3.159},"geometry":{"type":"Point","coordinates":[7.0093,4.8196]}},{"type":"Feature","properties":{"name":"Durban","iso3":"ZAF","p1975":0.55,"p1990":1.431,"p2000":2.426,"p2010":2.778,"p2020":3.104,"p2025":3.173,"p2030":3.184,"p2040":3.182,"p2050":3.159},"geometry":{"type":"Point","coordinates":[30.7029,-29.6214]}},{"type":"Feature","properties":{"name":"N'Djam\u00e9na","iso3":"TCD","capital":1,"p1975":0.211,"p1990":0.486,"p2000":0.778,"p2010":1.154,"p2020":1.62,"p2025":1.906,"p2030":2.144,"p2040":2.577,"p2050":3.023},"geometry":{"type":"Point","coordinates":[15.0646,12.1267]}},{"type":"Feature","properties":{"name":"Pointe-Noire","iso3":"COG","p1975":0.073,"p1990":0.353,"p2000":0.544,"p2010":0.879,"p2020":1.429,"p2025":1.643,"p2030":1.857,"p2040":2.325,"p2050":2.821},"geometry":{"type":"Point","coordinates":[11.8978,-4.7826]}},{"type":"Feature","properties":{"name":"Beni","iso3":"COD","p1975":0.469,"p1990":0.725,"p2000":0.993,"p2010":1.355,"p2020":1.734,"p2025":1.907,"p2030":2.098,"p2040":2.461,"p2050":2.807},"geometry":{"type":"Point","coordinates":[29.4623,0.497]}},{"type":"Feature","properties":{"name":"Kananga","iso3":"COD","p1975":0.104,"p1990":0.277,"p2000":0.458,"p2010":0.765,"p2020":1.221,"p2025":1.479,"p2030":1.742,"p2040":2.238,"p2050":2.77},"geometry":{"type":"Point","coordinates":[22.4163,-5.8989]}},{"type":"Feature","properties":{"name":"Freetown","iso3":"SLE","capital":1,"p1975":0.301,"p1990":0.574,"p2000":0.788,"p2010":1.127,"p2020":1.729,"p2025":1.919,"p2030":2.092,"p2040":2.388,"p2050":2.639},"geometry":{"type":"Point","coordinates":[-13.2057,8.444]}},{"type":"Feature","properties":{"name":"Aboh","iso3":"NGA","p1975":0.059,"p1990":0.256,"p2000":0.549,"p2010":0.84,"p2020":1.141,"p2025":1.353,"p2030":1.558,"p2040":2.044,"p2050":2.612},"geometry":{"type":"Point","coordinates":[7.2917,5.5298]}},{"type":"Feature","properties":{"name":"Nouakchott","iso3":"MRT","capital":1,"p1990":0.375,"p2000":0.497,"p2010":0.874,"p2020":1.339,"p2025":1.542,"p2030":1.753,"p2040":2.186,"p2050":2.611},"geometry":{"type":"Point","coordinates":[-15.9622,18.0871]}},{"type":"Feature","properties":{"name":"Tunis","iso3":"TUN","capital":1,"p1975":0.69,"p1990":1.319,"p2000":1.673,"p2010":1.893,"p2020":2.398,"p2025":2.468,"p2030":2.498,"p2040":2.53,"p2050":2.567},"geometry":{"type":"Point","coordinates":[10.1875,36.8164]}},{"type":"Feature","properties":{"name":"Uyo","iso3":"NGA","p1990":0.264,"p2000":0.469,"p2010":0.811,"p2020":1.321,"p2025":1.545,"p2030":1.741,"p2040":2.13,"p2050":2.52},"geometry":{"type":"Point","coordinates":[7.9039,4.992]}},{"type":"Feature","properties":{"name":"Lubango","iso3":"AGO","p1990":0.05,"p2000":0.233,"p2010":0.565,"p2020":1.006,"p2025":1.256,"p2030":1.491,"p2040":1.982,"p2050":2.497},"geometry":{"type":"Point","coordinates":[13.523,-14.9024]}},{"type":"Feature","properties":{"name":"Hargeisa","iso3":"SOM","p1975":0.248,"p1990":0.442,"p2000":0.634,"p2010":0.857,"p2020":1.369,"p2025":1.576,"p2030":1.777,"p2040":2.147,"p2050":2.488},"geometry":{"type":"Point","coordinates":[44.0612,9.5623]}},{"type":"Feature","properties":{"name":"Monrovia","iso3":"LBR","capital":1,"p1975":0.042,"p1990":0.992,"p2000":0.884,"p2010":1.25,"p2020":1.74,"p2025":1.868,"p2030":2.003,"p2040":2.256,"p2050":2.477},"geometry":{"type":"Point","coordinates":[-10.7226,6.3158]}},{"type":"Feature","properties":{"name":"Rabat","iso3":"MAR","capital":1,"p1975":0.587,"p1990":1.088,"p2000":1.461,"p2010":1.729,"p2020":1.954,"p2025":2.059,"p2030":2.166,"p2040":2.329,"p2050":2.438},"geometry":{"type":"Point","coordinates":[-6.8265,33.9987]}},{"type":"Feature","properties":{"name":"Abuja","iso3":"NGA","capital":1,"p2000":0.297,"p2010":0.641,"p2020":1.122,"p2025":1.351,"p2030":1.563,"p2040":2.005,"p2050":2.407},"geometry":{"type":"Point","coordinates":[7.4342,9.0652]}},{"type":"Feature","properties":{"name":"Warri","iso3":"NGA","p1975":0.158,"p1990":0.364,"p2000":0.554,"p2010":0.856,"p2020":1.371,"p2025":1.587,"p2030":1.79,"p2040":2.122,"p2050":2.407},"geometry":{"type":"Point","coordinates":[5.771,5.54]}},{"type":"Feature","properties":{"name":"Cabinda","iso3":"AGO","p1990":0.054,"p2000":0.111,"p2010":0.345,"p2020":0.931,"p2025":1.138,"p2030":1.36,"p2040":1.84,"p2050":2.358},"geometry":{"type":"Point","coordinates":[12.2128,-5.5782]}},{"type":"Feature","properties":{"name":"Kaduna","iso3":"NGA","p1975":0.363,"p1990":0.808,"p2000":1.097,"p2010":1.492,"p2020":1.79,"p2025":1.882,"p2030":1.993,"p2040":2.163,"p2050":2.326},"geometry":{"type":"Point","coordinates":[7.4365,10.5013]}},{"type":"Feature","properties":{"name":"Pretoria","iso3":"ZAF","capital":1,"p1975":0.375,"p1990":0.666,"p2000":0.7,"p2010":1.217,"p2020":1.685,"p2025":1.824,"p2030":1.953,"p2040":2.148,"p2050":2.321},"geometry":{"type":"Point","coordinates":[28.252,-25.745]}},{"type":"Feature","properties":{"name":"Benin City","iso3":"NGA","p1975":0.198,"p1990":0.784,"p2000":1.1,"p2010":1.402,"p2020":1.724,"p2025":1.835,"p2030":1.946,"p2040":2.151,"p2050":2.308},"geometry":{"type":"Point","coordinates":[5.6093,6.3372]}},{"type":"Feature","properties":{"name":"Kigali","iso3":"RWA","capital":1,"p1990":0.166,"p2000":0.419,"p2010":0.789,"p2020":1.287,"p2025":1.467,"p2030":1.646,"p2040":1.96,"p2050":2.286},"geometry":{"type":"Point","coordinates":[30.0999,-1.9514]}},{"type":"Feature","properties":{"name":"Al Zaqaziq","iso3":"EGY","p1975":0.329,"p1990":0.528,"p2000":0.716,"p2010":0.858,"p2020":1.136,"p2025":1.391,"p2030":1.572,"p2040":2.014,"p2050":2.278},"geometry":{"type":"Point","coordinates":[31.4865,30.5945]}},{"type":"Feature","properties":{"name":"El Mansura","iso3":"EGY","p1975":0.398,"p1990":0.736,"p2000":0.905,"p2010":1.238,"p2020":1.608,"p2025":1.704,"p2030":1.818,"p2040":2.029,"p2050":2.192},"geometry":{"type":"Point","coordinates":[31.4068,31.0433]}},{"type":"Feature","properties":{"name":"Aba","iso3":"NGA","p1975":0.345,"p1990":0.595,"p2000":0.764,"p2010":0.989,"p2020":1.31,"p2025":1.418,"p2030":1.548,"p2040":1.834,"p2050":2.105},"geometry":{"type":"Point","coordinates":[7.3491,5.0949]}},{"type":"Feature","properties":{"name":"Zanzibar City","iso3":"TZA","p1975":0.089,"p1990":0.151,"p2000":0.28,"p2010":0.514,"p2020":0.798,"p2025":0.951,"p2030":1.134,"p2040":1.595,"p2050":2.084},"geometry":{"type":"Point","coordinates":[39.2332,-6.1493]}},{"type":"Feature","properties":{"name":"Asyut","iso3":"EGY","p1975":0.328,"p1990":0.506,"p2000":0.712,"p2010":0.954,"p2020":1.234,"p2025":1.391,"p2030":1.493,"p2040":1.821,"p2050":2.019},"geometry":{"type":"Point","coordinates":[31.1685,27.2025]}},{"type":"Feature","properties":{"name":"Malanje","iso3":"AGO","p1990":0.158,"p2000":0.309,"p2010":0.487,"p2020":0.784,"p2025":0.957,"p2030":1.132,"p2040":1.54,"p2050":1.948},"geometry":{"type":"Point","coordinates":[16.3521,-9.5431]}},{"type":"Feature","properties":{"name":"Bujumbura","iso3":"BDI","capital":1,"p1975":0.072,"p1990":0.246,"p2000":0.348,"p2010":0.687,"p2020":1.119,"p2025":1.236,"p2030":1.362,"p2040":1.674,"p2050":1.918},"geometry":{"type":"Point","coordinates":[29.3835,-3.3844]}},{"type":"Feature","properties":{"name":"Lilongwe","iso3":"MWI","capital":1,"p1990":0.121,"p2000":0.28,"p2010":0.546,"p2020":0.824,"p2025":0.949,"p2030":1.156,"p2040":1.528,"p2050":1.831,"p2100":41.4},"geometry":{"type":"Point","coordinates":[33.7833,-13.9638]}},{"type":"Feature","properties":{"name":"Niamey","iso3":"NER","capital":1,"p1975":0.159,"p1990":0.373,"p2000":0.64,"p2010":0.99,"p2020":1.31,"p2025":1.394,"p2030":1.511,"p2040":1.665,"p2050":1.815,"p2100":56.1},"geometry":{"type":"Point","coordinates":[2.1174,13.5272]}},{"type":"Feature","properties":{"name":"Mombasa","iso3":"KEN","p1975":0.194,"p1990":0.465,"p2000":0.697,"p2010":0.983,"p2020":1.355,"p2025":1.448,"p2030":1.533,"p2040":1.687,"p2050":1.804},"geometry":{"type":"Point","coordinates":[39.6604,-4.0342]}},{"type":"Feature","properties":{"name":"Tshikapa","iso3":"COD","p1975":0.178,"p1990":0.283,"p2000":0.422,"p2010":0.631,"p2020":0.925,"p2025":1.043,"p2030":1.176,"p2040":1.431,"p2050":1.689},"geometry":{"type":"Point","coordinates":[20.7855,-6.4226]}},{"type":"Feature","properties":{"name":"Klipgat","iso3":"ZAF","p1990":0.206,"p2000":0.573,"p2010":0.895,"p2020":1.176,"p2025":1.29,"p2030":1.376,"p2040":1.547,"p2050":1.685},"geometry":{"type":"Point","coordinates":[28.1119,-25.4784]}},{"type":"Feature","properties":{"name":"Bukavu","iso3":"COD","p1975":0.334,"p1990":0.431,"p2000":0.576,"p2010":0.712,"p2020":0.84,"p2025":0.939,"p2030":1.07,"p2040":1.327,"p2050":1.658},"geometry":{"type":"Point","coordinates":[28.8404,-2.5047]}},{"type":"Feature","properties":{"name":"Tembisa","iso3":"ZAF","p1975":0.308,"p1990":0.391,"p2000":0.7,"p2010":0.917,"p2020":1.206,"p2025":1.291,"p2030":1.383,"p2040":1.524,"p2050":1.647},"geometry":{"type":"Point","coordinates":[28.2043,-26.0185]}},{"type":"Feature","properties":{"name":"El Mahalla El Kubra","iso3":"EGY","p1975":0.374,"p1990":0.625,"p2000":0.742,"p2010":0.888,"p2020":1.059,"p2025":1.148,"p2030":1.258,"p2040":1.502,"p2050":1.644},"geometry":{"type":"Point","coordinates":[31.1781,30.9662]}},{"type":"Feature","properties":{"name":"Mwanza","iso3":"TZA","p1990":0.171,"p2000":0.343,"p2010":0.548,"p2020":0.822,"p2025":0.942,"p2030":1.101,"p2040":1.374,"p2050":1.619},"geometry":{"type":"Point","coordinates":[32.9329,-2.5361]}},{"type":"Feature","properties":{"name":"Bangui","iso3":"CAF","capital":1,"p1975":0.37,"p1990":0.555,"p2000":0.711,"p2010":0.852,"p2020":1.007,"p2025":1.053,"p2030":1.18,"p2040":1.433,"p2050":1.618},"geometry":{"type":"Point","coordinates":[18.5411,4.3841]}},{"type":"Feature","properties":{"name":"Sekondi-Takoradi","iso3":"GHA","p1975":0.188,"p1990":0.247,"p2000":0.298,"p2010":0.549,"p2020":1.01,"p2025":1.118,"p2030":1.197,"p2040":1.415,"p2050":1.618},"geometry":{"type":"Point","coordinates":[-1.7441,4.9418]}},{"type":"Feature","properties":{"name":"Ilorin","iso3":"NGA","p1975":0.339,"p1990":0.545,"p2000":0.708,"p2010":0.956,"p2020":1.213,"p2025":1.276,"p2030":1.346,"p2040":1.462,"p2050":1.571},"geometry":{"type":"Point","coordinates":[4.5769,8.4818]}},{"type":"Feature","properties":{"name":"Touba","iso3":"SEN","p1975":0.296,"p1990":0.469,"p2000":0.609,"p2010":0.786,"p2020":1.048,"p2025":1.143,"p2030":1.24,"p2040":1.422,"p2050":1.562},"geometry":{"type":"Point","coordinates":[-15.8899,14.8554]}},{"type":"Feature","properties":{"name":"Serrekunda","iso3":"GMB","p1975":0.09,"p1990":0.267,"p2000":0.425,"p2010":0.697,"p2020":1.047,"p2025":1.148,"p2030":1.245,"p2040":1.398,"p2050":1.529},"geometry":{"type":"Point","coordinates":[-16.6867,13.4046]}},{"type":"Feature","properties":{"name":"Suhaj","iso3":"EGY","p1975":0.216,"p1990":0.424,"p2000":0.563,"p2010":0.835,"p2020":1.065,"p2025":1.118,"p2030":1.161,"p2040":1.41,"p2050":1.515},"geometry":{"type":"Point","coordinates":[31.7031,26.5741]}},{"type":"Feature","properties":{"name":"Maiduguri","iso3":"NGA","p1975":0.23,"p1990":0.472,"p2000":0.667,"p2010":0.941,"p2020":1.164,"p2025":1.221,"p2030":1.284,"p2040":1.393,"p2050":1.492},"geometry":{"type":"Point","coordinates":[13.1652,11.8286]}},{"type":"Feature","properties":{"name":"Bobo-Dioulasso","iso3":"BFA","p1975":0.107,"p1990":0.259,"p2000":0.388,"p2010":0.599,"p2020":1.02,"p2025":1.117,"p2030":1.202,"p2040":1.348,"p2050":1.46},"geometry":{"type":"Point","coordinates":[-4.2905,11.1849]}},{"type":"Feature","properties":{"name":"\u0162ar\u0101bulus (Tripoli)","iso3":"LBY","capital":1,"p1975":0.505,"p1990":0.614,"p2000":0.798,"p2010":1.038,"p2020":1.171,"p2025":1.233,"p2030":1.289,"p2040":1.387,"p2050":1.457},"geometry":{"type":"Point","coordinates":[13.2176,32.8425]}},{"type":"Feature","properties":{"name":"Luena","iso3":"AGO","p2000":0.054,"p2010":0.228,"p2020":0.555,"p2025":0.7,"p2030":0.844,"p2040":1.149,"p2050":1.45},"geometry":{"type":"Point","coordinates":[19.9054,-11.7767]}},{"type":"Feature","properties":{"name":"Oran","iso3":"DZA","p1975":0.447,"p1990":0.633,"p2000":0.82,"p2010":0.963,"p2020":1.127,"p2025":1.187,"p2030":1.271,"p2040":1.379,"p2050":1.449},"geometry":{"type":"Point","coordinates":[-0.6085,35.6881]}},{"type":"Feature","properties":{"name":"Enugu","iso3":"NGA","p1975":0.259,"p1990":0.444,"p2000":0.563,"p2010":0.825,"p2020":1.044,"p2025":1.109,"p2030":1.174,"p2040":1.327,"p2050":1.449},"geometry":{"type":"Point","coordinates":[7.5042,6.4462]}},{"type":"Feature","properties":{"name":"Umuahia","iso3":"NGA","p1990":0.075,"p2000":0.226,"p2010":0.4,"p2020":0.714,"p2025":0.832,"p2030":0.954,"p2040":1.232,"p2050":1.446},"geometry":{"type":"Point","coordinates":[7.4907,5.4996]}},{"type":"Feature","properties":{"name":"Mit Ghamr","iso3":"EGY","p1975":0.127,"p1990":0.225,"p2000":0.291,"p2010":0.571,"p2020":0.678,"p2025":0.8,"p2030":0.875,"p2040":1.109,"p2050":1.42},"geometry":{"type":"Point","coordinates":[31.2687,30.7079]}},{"type":"Feature","properties":{"name":"Ikorodu","iso3":"NGA","p1975":0.079,"p1990":0.249,"p2000":0.392,"p2010":0.591,"p2020":0.799,"p2025":0.905,"p2030":1.014,"p2040":1.247,"p2050":1.415},"geometry":{"type":"Point","coordinates":[3.5305,6.638]}},{"type":"Feature","properties":{"name":"Fez","iso3":"MAR","p1975":0.431,"p1990":0.695,"p2000":0.897,"p2010":1.092,"p2020":1.315,"p2025":1.357,"p2030":1.379,"p2040":1.404,"p2050":1.413},"geometry":{"type":"Point","coordinates":[-5.0007,34.0298]}},{"type":"Feature","properties":{"name":"Likasi","iso3":"COD","p2000":0.12,"p2010":0.274,"p2020":0.538,"p2025":0.661,"p2030":0.805,"p2040":1.095,"p2050":1.41},"geometry":{"type":"Point","coordinates":[26.7408,-10.9879]}},{"type":"Feature","properties":{"name":"Nsukka","iso3":"NGA","p1975":0.101,"p1990":0.234,"p2000":0.366,"p2010":0.587,"p2020":0.746,"p2025":0.822,"p2030":1.003,"p2040":1.233,"p2050":1.403},"geometry":{"type":"Point","coordinates":[7.4337,6.8679]}},{"type":"Feature","properties":{"name":"Tangier","iso3":"MAR","p1975":0.248,"p1990":0.457,"p2000":0.618,"p2010":0.825,"p2020":1.129,"p2025":1.211,"p2030":1.262,"p2040":1.34,"p2050":1.393},"geometry":{"type":"Point","coordinates":[-5.8149,35.7515]}},{"type":"Feature","properties":{"name":"Tanta","iso3":"EGY","p1975":0.381,"p1990":0.511,"p2000":0.619,"p2010":0.752,"p2020":0.897,"p2025":1.007,"p2030":1.068,"p2040":1.277,"p2050":1.389},"geometry":{"type":"Point","coordinates":[31.0064,30.7831]}},{"type":"Feature","properties":{"name":"Faiyum","iso3":"EGY","p1975":0.191,"p1990":0.28,"p2000":0.361,"p2010":0.561,"p2020":0.768,"p2025":0.84,"p2030":1.009,"p2040":1.194,"p2050":1.386},"geometry":{"type":"Point","coordinates":[30.8395,29.3192]}},{"type":"Feature","properties":{"name":"Otite","iso3":"NGA","p1975":0.208,"p1990":0.391,"p2000":0.769,"p2010":0.766,"p2020":0.95,"p2025":1.014,"p2030":1.093,"p2040":1.227,"p2050":1.355},"geometry":{"type":"Point","coordinates":[6.2086,7.5577]}},{"type":"Feature","properties":{"name":"Bata","iso3":"GNQ","p2000":0.137,"p2010":0.294,"p2020":0.735,"p2025":0.854,"p2030":0.957,"p2040":1.161,"p2050":1.352},"geometry":{"type":"Point","coordinates":[9.7885,1.8457]}},{"type":"Feature","properties":{"name":"Arusha","iso3":"TZA","p1990":0.127,"p2000":0.292,"p2010":0.506,"p2020":0.682,"p2025":0.785,"p2030":0.909,"p2040":1.119,"p2050":1.307},"geometry":{"type":"Point","coordinates":[36.7006,-3.3734]}},{"type":"Feature","properties":{"name":"Nyala","iso3":"SDN","p1975":0.069,"p1990":0.293,"p2000":0.439,"p2010":0.638,"p2020":0.9,"p2025":0.947,"p2030":1.022,"p2040":1.155,"p2050":1.306},"geometry":{"type":"Point","coordinates":[24.8825,12.0558]}},{"type":"Feature","properties":{"name":"Blantyre","iso3":"MWI","p1990":0.301,"p2000":0.515,"p2010":0.674,"p2020":0.833,"p2025":0.902,"p2030":0.99,"p2040":1.149,"p2050":1.304,"p2100":40.9},"geometry":{"type":"Point","coordinates":[35.0361,-15.7944]}},{"type":"Feature","properties":{"name":"Kamina","iso3":"COD","p1990":0.072,"p2000":0.148,"p2010":0.326,"p2020":0.599,"p2025":0.714,"p2030":0.834,"p2040":1.069,"p2050":1.296},"geometry":{"type":"Point","coordinates":[24.9982,-8.7376]}},{"type":"Feature","properties":{"name":"Malabo","iso3":"GNQ","capital":1,"p2000":0.114,"p2010":0.244,"p2020":0.63,"p2025":0.746,"p2030":0.851,"p2040":1.079,"p2050":1.295},"geometry":{"type":"Point","coordinates":[8.7709,3.7379]}},{"type":"Feature","properties":{"name":"Kisangani","iso3":"COD","p1975":0.247,"p1990":0.329,"p2000":0.45,"p2010":0.599,"p2020":0.811,"p2025":0.893,"p2030":0.989,"p2040":1.15,"p2050":1.294},"geometry":{"type":"Point","coordinates":[25.1918,0.5226]}},{"type":"Feature","properties":{"name":"Mbale City","iso3":"UGA","p1990":0.053,"p2000":0.07,"p2010":0.101,"p2020":0.287,"p2025":0.373,"p2030":0.483,"p2040":0.873,"p2050":1.257},"geometry":{"type":"Point","coordinates":[34.1827,1.063]}},{"type":"Feature","properties":{"name":"Timerein","iso3":"SDN","p1975":0.055,"p1990":0.153,"p2000":0.189,"p2010":0.237,"p2020":0.358,"p2025":0.475,"p2030":0.61,"p2040":0.932,"p2050":1.239},"geometry":{"type":"Point","coordinates":[36.4581,17.0238]}},{"type":"Feature","properties":{"name":"Nampula","iso3":"MOZ","p1975":0.113,"p1990":0.195,"p2000":0.329,"p2010":0.515,"p2020":0.793,"p2025":0.878,"p2030":0.961,"p2040":1.114,"p2050":1.229},"geometry":{"type":"Point","coordinates":[39.2627,-15.12]}},{"type":"Feature","properties":{"name":"Shibin Al-Kom","iso3":"EGY","p1975":0.079,"p1990":0.19,"p2000":0.318,"p2010":0.395,"p2020":0.51,"p2025":0.597,"p2030":0.689,"p2040":1.034,"p2050":1.22},"geometry":{"type":"Point","coordinates":[31.0062,30.5853]}},{"type":"Feature","properties":{"name":"Jos","iso3":"NGA","p1975":0.164,"p1990":0.37,"p2000":0.484,"p2010":0.686,"p2020":0.872,"p2025":0.919,"p2030":0.97,"p2040":1.108,"p2050":1.213},"geometry":{"type":"Point","coordinates":[8.8713,9.8483]}},{"type":"Feature","properties":{"name":"Porto-Novo","iso3":"BEN","capital":1,"p1975":0.179,"p1990":0.279,"p2000":0.371,"p2010":0.559,"p2020":0.74,"p2025":0.812,"p2030":0.891,"p2040":1.062,"p2050":1.194},"geometry":{"type":"Point","coordinates":[2.6228,6.5131]}},{"type":"Feature","properties":{"name":"Oyo","iso3":"NGA","p1975":0.103,"p1990":0.228,"p2000":0.332,"p2010":0.495,"p2020":0.711,"p2025":0.786,"p2030":0.873,"p2040":1.026,"p2050":1.178},"geometry":{"type":"Point","coordinates":[3.9347,7.8445]}},{"type":"Feature","properties":{"name":"Libreville","iso3":"GAB","capital":1,"p1975":0.078,"p1990":0.268,"p2000":0.42,"p2010":0.544,"p2020":0.844,"p2025":0.916,"p2030":0.97,"p2040":1.066,"p2050":1.166},"geometry":{"type":"Point","coordinates":[9.4805,0.3979]}},{"type":"Feature","properties":{"name":"Goma","iso3":"COD","p1975":0.167,"p1990":0.278,"p2000":0.383,"p2010":0.52,"p2020":0.727,"p2025":0.802,"p2030":0.892,"p2040":1.039,"p2050":1.162},"geometry":{"type":"Point","coordinates":[29.2119,-1.642]}},{"type":"Feature","properties":{"name":"Sokoto","iso3":"NGA","p1975":0.215,"p1990":0.357,"p2000":0.477,"p2010":0.637,"p2020":0.849,"p2025":0.899,"p2030":0.962,"p2040":1.073,"p2050":1.149},"geometry":{"type":"Point","coordinates":[5.2505,13.0371]}},{"type":"Feature","properties":{"name":"Marrakesh","iso3":"MAR","p1975":0.304,"p1990":0.488,"p2000":0.648,"p2010":0.828,"p2020":0.986,"p2025":1.019,"p2030":1.056,"p2040":1.107,"p2050":1.136},"geometry":{"type":"Point","coordinates":[-7.9871,31.6246]}},{"type":"Feature","properties":{"name":"Kalemie","iso3":"COD","p1990":0.072,"p2000":0.169,"p2010":0.354,"p2020":0.667,"p2025":0.751,"p2030":0.839,"p2040":0.989,"p2050":1.127},"geometry":{"type":"Point","coordinates":[29.1947,-5.92]}},{"type":"Feature","properties":{"name":"Zinder","iso3":"NER","p1975":0.124,"p1990":0.256,"p2000":0.318,"p2010":0.486,"p2020":0.653,"p2025":0.732,"p2030":0.83,"p2040":0.99,"p2050":1.126},"geometry":{"type":"Point","coordinates":[8.9849,13.8101]}},{"type":"Feature","properties":{"name":"Abeokuta","iso3":"NGA","p1975":0.228,"p1990":0.36,"p2000":0.491,"p2010":0.626,"p2020":0.731,"p2025":0.795,"p2030":0.87,"p2040":1.001,"p2050":1.105},"geometry":{"type":"Point","coordinates":[3.3468,7.1661]}},{"type":"Feature","properties":{"name":"Maradi","iso3":"NER","p1975":0.058,"p1990":0.132,"p2000":0.206,"p2010":0.437,"p2020":0.576,"p2025":0.658,"p2030":0.75,"p2040":0.926,"p2050":1.096},"geometry":{"type":"Point","coordinates":[7.1065,13.5088]}},{"type":"Feature","properties":{"name":"Lokoja","iso3":"NGA","p1990":0.079,"p2000":0.128,"p2010":0.227,"p2020":0.533,"p2025":0.622,"p2030":0.699,"p2040":0.88,"p2050":1.054},"geometry":{"type":"Point","coordinates":[6.7168,7.7988]}},{"type":"Feature","properties":{"name":"Kolwezi","iso3":"COD","p2000":0.065,"p2010":0.159,"p2020":0.342,"p2025":0.437,"p2030":0.54,"p2040":0.782,"p2050":1.053},"geometry":{"type":"Point","coordinates":[25.4948,-10.7198]}},{"type":"Feature","properties":{"name":"Saurimo","iso3":"AGO","p1975":0.056,"p1990":0.165,"p2000":0.291,"p2010":0.427,"p2020":0.43,"p2025":0.506,"p2030":0.6,"p2040":0.8,"p2050":1.044},"geometry":{"type":"Point","coordinates":[20.3975,-9.6692]}},{"type":"Feature","properties":{"name":"Morogoro","iso3":"TZA","p1990":0.1,"p2000":0.163,"p2010":0.234,"p2020":0.331,"p2025":0.449,"p2030":0.55,"p2040":0.79,"p2050":1.037},"geometry":{"type":"Point","coordinates":[37.6567,-6.8041]}},{"type":"Feature","properties":{"name":"Kebkabiya","iso3":"SDN","p1975":0.112,"p1990":0.221,"p2000":0.32,"p2010":0.467,"p2020":0.64,"p2025":0.69,"p2030":0.756,"p2040":0.883,"p2050":1.009},"geometry":{"type":"Point","coordinates":[24.0914,13.6508]}},{"type":"Feature","properties":{"name":"Kitwe","iso3":"ZMB","p1975":0.053,"p1990":0.257,"p2000":0.332,"p2010":0.465,"p2020":0.622,"p2025":0.674,"p2030":0.732,"p2040":0.898,"p2050":1.006},"geometry":{"type":"Point","coordinates":[28.2226,-12.8112]}},{"type":"Feature","properties":{"name":"Evaton","iso3":"ZAF","p1975":0.286,"p1990":0.442,"p2000":0.511,"p2010":0.59,"p2020":0.703,"p2025":0.767,"p2030":0.816,"p2040":0.912,"p2050":1.004},"geometry":{"type":"Point","coordinates":[27.8509,-26.5266]}},{"type":"Feature","properties":{"name":"Al Ismailiya","iso3":"EGY","p1975":0.207,"p1990":0.334,"p2000":0.411,"p2010":0.49,"p2020":0.554,"p2025":0.607,"p2030":0.67,"p2040":0.839,"p2050":1.002},"geometry":{"type":"Point","coordinates":[32.2685,30.5846]}}]}