{"type":"FeatureCollection","features":[{"type":"Feature","properties":{"name":"Mombasa\u2013Nairobi SGR","kind":"rail","status":"built","backer":"China Exim Bank, 2017","china":1},"geometry":{"type":"LineString","coordinates":[[39.66,-4.04],[36.82,-1.29],[36.43,-0.72]]}},{"type":"Feature","properties":{"name":"Addis Ababa\u2013Djibouti Railway","kind":"rail","status":"built","backer":"China Exim Bank, 2016","china":1},"geometry":{"type":"LineString","coordinates":[[43.15,11.59],[38.75,9.02]]}},{"type":"Feature","properties":{"name":"TAZARA Railway","kind":"rail","status":"built","backer":"China, 1975 (rehab deal 2024)","china":1},"geometry":{"type":"LineString","coordinates":[[39.28,-6.82],[33.45,-8.9],[28.67,-13.97]]}},{"type":"Feature","properties":{"name":"Lagos\u2013Ibadan SGR","kind":"rail","status":"built","backer":"China CCECC, 2021","china":1},"geometry":{"type":"LineString","coordinates":[[3.38,6.52],[3.9,7.38]]}},{"type":"Feature","properties":{"name":"Abuja\u2013Kaduna SGR","kind":"rail","status":"built","backer":"China CCECC, 2016","china":1},"geometry":{"type":"LineString","coordinates":[[7.49,9.06],[7.44,10.52]]}},{"type":"Feature","properties":{"name":"Lagos\u2013Kano SGR (remaining)","kind":"rail","status":"building","backer":"Nigeria / China CCECC","china":1},"geometry":{"type":"LineString","coordinates":[[3.9,7.38],[7.49,9.06]]}},{"type":"Feature","properties":{"name":"Lagos\u2013Calabar Coastal Railway","kind":"rail","status":"building","backer":"Nigeria / CCECC, begun 2024","china":0},"geometry":{"type":"LineString","coordinates":[[3.38,6.52],[5.62,6.34],[7.01,4.82],[8.32,4.96]]}},{"type":"Feature","properties":{"name":"Egypt High-Speed Rail","kind":"rail","status":"building","backer":"Siemens consortium","china":0},"geometry":{"type":"LineString","coordinates":[[32.3,29.6],[31.24,30.05],[29.92,31.2],[27.24,31.35]]}},{"type":"Feature","properties":{"name":"Lobito Corridor","kind":"rail","status":"building","backer":"US/EU-backed rehab, 2023","china":0},"geometry":{"type":"LineString","coordinates":[[13.55,-12.36],[25.47,-10.72],[27.48,-11.66]]}},{"type":"Feature","properties":{"name":"LAPSSET Corridor","kind":"mixed","status":"planned","backer":"Kenya / AU","china":0},"geometry":{"type":"LineString","coordinates":[[40.9,-2.27],[37.58,0.35],[31.6,4.85]]}},{"type":"Feature","properties":{"name":"TAH 1 Cairo\u2013Dakar","kind":"road","status":"planned","backer":"AU / UNECA Trans-African Highway","china":0},"geometry":{"type":"LineString","coordinates":[[31.24,30.05],[13.19,32.9],[10.18,36.8],[3.06,36.75],[-6.85,34.02],[-15.98,18.09],[-17.45,14.7]]}},{"type":"Feature","properties":{"name":"TAH 2 Algiers\u2013Lagos","kind":"road","status":"planned","backer":"AU / UNECA Trans-African Highway","china":0},"geometry":{"type":"LineString","coordinates":[[3.06,36.75],[5.52,22.79],[7.98,16.97],[8.52,12.0],[3.38,6.52]]}},{"type":"Feature","properties":{"name":"TAH 4 Cairo\u2013Cape Town","kind":"road","status":"planned","backer":"AU / UNECA Trans-African Highway","china":0},"geometry":{"type":"LineString","coordinates":[[31.24,30.05],[32.53,15.6],[38.75,9.02],[36.82,-1.29],[35.74,-6.17],[28.28,-15.41],[25.92,-24.65],[18.42,-33.93]]}},{"type":"Feature","properties":{"name":"TAH 5 Dakar\u2013N'Djamena","kind":"road","status":"planned","backer":"AU / UNECA Trans-African Highway","china":0},"geometry":{"type":"LineString","coordinates":[[-17.45,14.7],[-8.0,12.65],[-1.52,12.37],[2.11,13.51],[8.52,12.0],[15.05,12.11]]}},{"type":"Feature","properties":{"name":"TAH 6 N'Djamena\u2013Djibouti","kind":"road","status":"planned","backer":"AU / UNECA Trans-African Highway","china":0},"geometry":{"type":"LineString","coordinates":[[15.05,12.11],[32.53,15.6],[43.15,11.59]]}},{"type":"Feature","properties":{"name":"TAH 7 Dakar\u2013Lagos","kind":"road","status":"planned","backer":"AU / UNECA Trans-African Highway","china":0},"geometry":{"type":"LineString","coordinates":[[-17.45,14.7],[-13.68,9.54],[-4.02,5.33],[-0.19,5.56],[1.22,6.13],[2.43,6.36],[3.38,6.52]]}},{"type":"Feature","properties":{"name":"TAH 8 Lagos\u2013Mombasa","kind":"road","status":"planned","backer":"AU / UNECA Trans-African Highway","china":0},"geometry":{"type":"LineString","coordinates":[[3.38,6.52],[9.7,4.05],[18.56,4.36],[32.58,0.32],[36.82,-1.29],[39.66,-4.04]]}},{"type":"Feature","properties":{"name":"TAH 3 Tripoli\u2013Cape Town","kind":"road","status":"planned","backer":"AU / UNECA Trans-African Highway","china":0},"geometry":{"type":"LineString","coordinates":[[13.19,32.9],[15.05,12.11],[15.31,-4.32],[17.08,-22.56],[18.42,-33.93]]}},{"type":"Feature","properties":{"name":"TAH 9 Beira\u2013Lobito","kind":"road","status":"planned","backer":"AU / UNECA Trans-African Highway","china":0},"geometry":{"type":"LineString","coordinates":[[34.87,-19.84],[31.05,-17.83],[28.28,-15.41],[27.48,-11.66],[13.55,-12.36]]}}]}