{"type":"FeatureCollection","features":[{"type":"Feature","properties":{"a":"Al-Qahirah (Cairo)","b":"Alexandria","km":175,"score":9434.8,"served":90,"routeKm":175,"detour":1.0},"geometry":{"type":"LineString","coordinates":[[31.253,30.071],[31.2,30.118],[31.147,30.164],[31.093,30.211],[31.04,30.258],[30.987,30.305],[30.933,30.352],[30.879,30.398],[30.826,30.445],[30.772,30.492],[30.719,30.538],[30.665,30.585],[30.611,30.632],[30.557,30.678],[30.503,30.725],[30.449,30.772],[30.395,30.818],[30.341,30.865],[30.287,30.911],[30.233,30.958],[30.179,31.004],[30.125,31.05],[30.07,31.097],[30.016,31.143],[29.961,31.19]]}},{"type":"Feature","properties":{"a":"Yaound\u00e9","b":"Douala","km":198,"score":1397.3,"served":100,"routeKm":198,"detour":1.0},"geometry":{"type":"LineString","coordinates":[[11.518,3.842],[11.444,3.851],[11.37,3.859],[11.296,3.868],[11.222,3.877],[11.148,3.886],[11.074,3.895],[11.0,3.903],[10.926,3.912],[10.853,3.921],[10.779,3.93],[10.705,3.939],[10.631,3.947],[10.557,3.956],[10.483,3.965],[10.409,3.974],[10.335,3.982],[10.26,3.991],[10.186,4.0],[10.112,4.009],[10.038,4.017],[9.964,4.026],[9.89,4.035],[9.816,4.043],[9.742,4.052]]}},{"type":"Feature","properties":{"a":"Accra","b":"Kumasi","km":196,"score":1023.5,"served":100,"routeKm":196,"detour":1.0},"geometry":{"type":"LineString","coordinates":[[-0.213,5.613],[-0.271,5.658],[-0.329,5.703],[-0.387,5.748],[-0.445,5.793],[-0.504,5.837],[-0.562,5.882],[-0.62,5.927],[-0.678,5.972],[-0.737,6.017],[-0.795,6.062],[-0.853,6.106],[-0.912,6.151],[-0.97,6.196],[-1.028,6.241],[-1.087,6.286],[-1.145,6.331],[-1.203,6.375],[-1.262,6.42],[-1.32,6.465],[-1.378,6.51],[-1.437,6.554],[-1.495,6.599],[-1.554,6.644],[-1.612,6.689]]}},{"type":"Feature","properties":{"a":"Al-Qahirah (Cairo)","b":"Luxor","km":506,"score":945.3,"served":68,"routeKm":506,"detour":1.0},"geometry":{"type":"LineString","coordinates":[[31.253,30.071],[31.313,29.888],[31.373,29.706],[31.432,29.524],[31.492,29.341],[31.551,29.159],[31.609,28.976],[31.668,28.794],[31.726,28.611],[31.785,28.428],[31.843,28.246],[31.901,28.063],[31.958,27.881],[32.016,27.698],[32.073,27.515],[32.13,27.332],[32.187,27.15],[32.243,26.967],[32.3,26.784],[32.356,26.601],[32.412,26.419],[32.468,26.236],[32.524,26.053],[32.58,25.87],[32.635,25.687]]}},{"type":"Feature","properties":{"a":"Luanda","b":"Kinshasa","km":549,"score":879.1,"served":48,"routeKm":549,"detour":1.0},"geometry":{"type":"LineString","coordinates":[[13.308,-8.898],[13.393,-8.71],[13.478,-8.522],[13.563,-8.335],[13.648,-8.147],[13.732,-7.959],[13.817,-7.771],[13.901,-7.583],[13.986,-7.395],[14.07,-7.207],[14.154,-7.019],[14.238,-6.831],[14.323,-6.643],[14.407,-6.455],[14.491,-6.267],[14.575,-6.079],[14.658,-5.891],[14.742,-5.703],[14.826,-5.515],[14.91,-5.327],[14.993,-5.139],[15.077,-4.951],[15.161,-4.763],[15.244,-4.575],[15.328,-4.387]]}},{"type":"Feature","properties":{"a":"Lagos","b":"Onitsha","km":404,"score":851.8,"served":100,"routeKm":425,"detour":1.05},"geometry":{"type":"LineString","coordinates":[[3.307,6.572],[6.3,6.6],[6.928,6.062]]}},{"type":"Feature","properties":{"a":"Lagos","b":"Accra","km":404,"score":713.5,"served":98,"routeKm":444,"detour":1.1},"geometry":{"type":"LineString","coordinates":[[3.307,6.572],[0.7,6.6],[-0.3,5.6],[-0.213,5.613]]}},{"type":"Feature","properties":{"a":"Lagos","b":"Owerri","km":424,"score":605.1,"served":100,"routeKm":466,"detour":1.1},"geometry":{"type":"LineString","coordinates":[[3.307,6.572],[6.1,6.6],[7.1,5.6],[7.04,5.695]]}},{"type":"Feature","properties":{"a":"Abidjan","b":"Kumasi","km":304,"score":569.1,"served":75,"routeKm":304,"detour":1.0},"geometry":{"type":"LineString","coordinates":[[-4.017,5.356],[-3.917,5.412],[-3.817,5.468],[-3.717,5.523],[-3.617,5.579],[-3.517,5.635],[-3.417,5.69],[-3.317,5.746],[-3.216,5.801],[-3.116,5.857],[-3.016,5.913],[-2.916,5.968],[-2.816,6.024],[-2.716,6.079],[-2.615,6.135],[-2.515,6.19],[-2.415,6.246],[-2.315,6.301],[-2.214,6.357],[-2.114,6.412],[-2.014,6.467],[-1.913,6.523],[-1.813,6.578],[-1.712,6.633],[-1.612,6.689]]}},{"type":"Feature","properties":{"a":"Abidjan","b":"Accra","km":422,"score":392.9,"served":85,"routeKm":422,"detour":1.0},"geometry":{"type":"LineString","coordinates":[[-4.017,5.356],[-3.858,5.367],[-3.7,5.379],[-3.541,5.39],[-3.383,5.401],[-3.224,5.412],[-3.066,5.423],[-2.908,5.434],[-2.749,5.444],[-2.591,5.455],[-2.432,5.466],[-2.274,5.477],[-2.115,5.488],[-1.957,5.498],[-1.798,5.509],[-1.64,5.52],[-1.481,5.53],[-1.322,5.541],[-1.164,5.551],[-1.005,5.562],[-0.847,5.572],[-0.688,5.582],[-0.53,5.593],[-0.371,5.603],[-0.213,5.613]]}},{"type":"Feature","properties":{"a":"Onitsha","b":"Douala","km":384,"score":375.6,"served":95,"routeKm":384,"detour":1.0},"geometry":{"type":"LineString","coordinates":[[6.928,6.062],[7.046,5.979],[7.163,5.895],[7.281,5.812],[7.399,5.728],[7.516,5.644],[7.633,5.561],[7.751,5.477],[7.868,5.393],[7.986,5.31],[8.103,5.226],[8.22,5.142],[8.337,5.059],[8.455,4.975],[8.572,4.891],[8.689,4.807],[8.806,4.723],[8.923,4.64],[9.04,4.556],[9.157,4.472],[9.275,4.388],[9.392,4.304],[9.509,4.22],[9.625,4.136],[9.742,4.052]]}},{"type":"Feature","properties":{"a":"Luanda","b":"Brazzaville","km":561,"score":363.8,"served":68,"routeKm":602,"detour":1.07},"geometry":{"type":"LineString","coordinates":[[13.308,-8.898],[15.3,-6.8],[15.255,-4.24]]}},{"type":"Feature","properties":{"a":"Owerri","b":"Douala","km":351,"score":351.1,"served":95,"routeKm":362,"detour":1.03},"geometry":{"type":"LineString","coordinates":[[7.04,5.695],[7.1,5.6],[8.1,5.6],[9.742,4.052]]}},{"type":"Feature","properties":{"a":"Lagos","b":"Kumasi","km":544,"score":296.4,"served":95,"routeKm":543,"detour":1.0},"geometry":{"type":"LineString","coordinates":[[3.307,6.572],[3.102,6.578],[2.898,6.584],[2.693,6.59],[2.488,6.595],[2.283,6.601],[2.078,6.606],[1.873,6.611],[1.668,6.617],[1.463,6.622],[1.258,6.627],[1.053,6.632],[0.848,6.637],[0.643,6.641],[0.438,6.646],[0.233,6.651],[0.028,6.655],[-0.177,6.66],[-0.382,6.664],[-0.587,6.668],[-0.792,6.673],[-0.997,6.677],[-1.202,6.681],[-1.407,6.685],[-1.612,6.689]]}},{"type":"Feature","properties":{"a":"Nairobi","b":"Kampala","km":507,"score":258.7,"served":82,"routeKm":507,"detour":1.0},"geometry":{"type":"LineString","coordinates":[[36.845,-1.259],[36.667,-1.193],[36.489,-1.128],[36.311,-1.062],[36.132,-0.996],[35.954,-0.93],[35.776,-0.864],[35.598,-0.799],[35.42,-0.733],[35.242,-0.667],[35.064,-0.601],[34.886,-0.535],[34.707,-0.47],[34.529,-0.404],[34.351,-0.338],[34.173,-0.272],[33.995,-0.206],[33.817,-0.14],[33.639,-0.074],[33.461,-0.009],[33.283,0.057],[33.105,0.123],[32.926,0.189],[32.748,0.255],[32.57,0.321]]}},{"type":"Feature","properties":{"a":"Dar es Salaam","b":"Nairobi","km":673,"score":244.0,"served":62,"routeKm":723,"detour":1.07},"geometry":{"type":"LineString","coordinates":[[39.209,-6.834],[36.9,-4.6],[36.9,-1.2],[36.845,-1.259]]}},{"type":"Feature","properties":{"a":"Lagos","b":"Abidjan","km":821,"score":232.2,"served":95,"routeKm":821,"detour":1.0},"geometry":{"type":"LineString","coordinates":[[3.307,6.572],[3.002,6.524],[2.696,6.475],[2.39,6.426],[2.084,6.377],[1.779,6.327],[1.473,6.278],[1.168,6.228],[0.862,6.178],[0.557,6.128],[0.252,6.078],[-0.054,6.027],[-0.359,5.976],[-0.664,5.926],[-0.969,5.875],[-1.274,5.824],[-1.579,5.772],[-1.884,5.721],[-2.189,5.669],[-2.493,5.617],[-2.798,5.565],[-3.103,5.513],[-3.408,5.461],[-3.712,5.409],[-4.017,5.356]]}},{"type":"Feature","properties":{"a":"Onitsha","b":"Yaound\u00e9","km":565,"score":232.0,"served":98,"routeKm":565,"detour":1.0},"geometry":{"type":"LineString","coordinates":[[6.928,6.062],[7.12,5.97],[7.312,5.878],[7.504,5.786],[7.695,5.694],[7.887,5.602],[8.079,5.51],[8.27,5.418],[8.462,5.326],[8.653,5.233],[8.845,5.141],[9.036,5.048],[9.227,4.956],[9.418,4.863],[9.61,4.771],[9.801,4.678],[9.992,4.585],[10.183,4.492],[10.374,4.4],[10.565,4.307],[10.755,4.214],[10.946,4.121],[11.137,4.028],[11.328,3.935],[11.518,3.842]]}},{"type":"Feature","properties":{"a":"Yaound\u00e9","b":"Owerri","km":537,"score":200.7,"served":95,"routeKm":537,"detour":1.0},"geometry":{"type":"LineString","coordinates":[[11.518,3.842],[11.332,3.919],[11.146,3.997],[10.96,4.075],[10.774,4.153],[10.587,4.23],[10.401,4.308],[10.215,4.385],[10.028,4.463],[9.842,4.54],[9.655,4.618],[9.469,4.695],[9.282,4.772],[9.096,4.849],[8.909,4.927],[8.722,5.004],[8.535,5.081],[8.349,5.158],[8.162,5.235],[7.975,5.312],[7.788,5.389],[7.601,5.465],[7.414,5.542],[7.227,5.619],[7.04,5.695]]}},{"type":"Feature","properties":{"a":"Lusaka","b":"Lubumbashi","km":425,"score":187.1,"served":65,"routeKm":425,"detour":1.0},"geometry":{"type":"LineString","coordinates":[[28.291,-15.396],[28.256,-15.241],[28.222,-15.085],[28.188,-14.929],[28.154,-14.773],[28.12,-14.617],[28.086,-14.461],[28.052,-14.306],[28.018,-14.15],[27.984,-13.994],[27.95,-13.838],[27.916,-13.682],[27.883,-13.526],[27.849,-13.37],[27.815,-13.215],[27.782,-13.059],[27.748,-12.903],[27.715,-12.747],[27.681,-12.591],[27.648,-12.435],[27.614,-12.279],[27.581,-12.123],[27.548,-11.967],[27.514,-11.812],[27.481,-11.656]]}},{"type":"Feature","properties":{"a":"Lagos","b":"Douala","km":766,"score":176.2,"served":100,"routeKm":828,"detour":1.08},"geometry":{"type":"LineString","coordinates":[[3.307,6.572],[7.1,6.6],[9.742,4.052]]}},{"type":"Feature","properties":{"a":"Alexandria","b":"Luxor","km":665,"score":152.4,"served":85,"routeKm":665,"detour":1.0},"geometry":{"type":"LineString","coordinates":[[29.961,31.19],[30.079,30.961],[30.195,30.733],[30.311,30.505],[30.427,30.276],[30.542,30.048],[30.657,29.819],[30.771,29.59],[30.884,29.361],[30.997,29.132],[31.11,28.903],[31.222,28.674],[31.333,28.445],[31.444,28.215],[31.555,27.986],[31.665,27.757],[31.774,27.527],[31.883,27.297],[31.992,27.067],[32.1,26.838],[32.208,26.608],[32.316,26.378],[32.422,26.147],[32.529,25.917],[32.635,25.687]]}},{"type":"Feature","properties":{"a":"Lagos","b":"Yaound\u00e9","km":959,"score":150.7,"served":90,"routeKm":1036,"detour":1.08},"geometry":{"type":"LineString","coordinates":[[3.307,6.572],[8.7,6.6],[11.518,3.842]]}},{"type":"Feature","properties":{"a":"Lagos","b":"Kano","km":829,"score":148.8,"served":90,"routeKm":829,"detour":1.0},"geometry":{"type":"LineString","coordinates":[[3.307,6.572],[3.521,6.799],[3.735,7.026],[3.949,7.252],[4.164,7.479],[4.378,7.705],[4.593,7.931],[4.808,8.158],[5.023,8.384],[5.239,8.609],[5.455,8.835],[5.671,9.061],[5.887,9.286],[6.104,9.512],[6.32,9.737],[6.538,9.962],[6.755,10.187],[6.973,10.412],[7.191,10.637],[7.409,10.861],[7.628,11.085],[7.847,11.31],[8.067,11.534],[8.287,11.758],[8.507,11.981]]}},{"type":"Feature","properties":{"a":"Onitsha","b":"Kano","km":681,"score":118.1,"served":98,"routeKm":681,"detour":1.0},"geometry":{"type":"LineString","coordinates":[[6.928,6.062],[6.993,6.309],[7.058,6.556],[7.123,6.802],[7.188,7.049],[7.253,7.296],[7.318,7.543],[7.383,7.789],[7.449,8.036],[7.514,8.283],[7.58,8.529],[7.645,8.776],[7.711,9.023],[7.777,9.269],[7.843,9.516],[7.909,9.762],[7.975,10.009],[8.041,10.256],[8.107,10.502],[8.173,10.749],[8.24,10.995],[8.306,11.242],[8.373,11.488],[8.44,11.735],[8.507,11.981]]}},{"type":"Feature","properties":{"a":"Al-Qahirah (Cairo)","b":"Al-Khar\u1e6d\u016bm (Khartoum)","km":1613,"score":116.5,"served":48,"routeKm":1613,"detour":1.0},"geometry":{"type":"LineString","coordinates":[[31.253,30.071],[31.312,29.468],[31.369,28.866],[31.427,28.263],[31.483,27.661],[31.539,27.058],[31.594,26.456],[31.649,25.853],[31.703,25.251],[31.757,24.648],[31.81,24.046],[31.862,23.443],[31.914,22.84],[31.966,22.238],[32.017,21.635],[32.068,21.032],[32.118,20.43],[32.168,19.827],[32.218,19.224],[32.267,18.621],[32.316,18.019],[32.365,17.416],[32.413,16.813],[32.461,16.21],[32.508,15.608]]}},{"type":"Feature","properties":{"a":"Kinshasa","b":"Yaound\u00e9","km":1008,"score":111.3,"served":52,"routeKm":1008,"detour":1.0},"geometry":{"type":"LineString","coordinates":[[15.328,-4.387],[15.168,-4.044],[15.009,-3.701],[14.85,-3.359],[14.691,-3.016],[14.532,-2.673],[14.374,-2.33],[14.215,-1.987],[14.056,-1.644],[13.898,-1.301],[13.739,-0.959],[13.581,-0.616],[13.422,-0.273],[13.264,0.07],[13.105,0.413],[12.947,0.756],[12.789,1.099],[12.63,1.442],[12.471,1.785],[12.313,2.128],[12.154,2.47],[11.995,2.813],[11.836,3.156],[11.677,3.499],[11.518,3.842]]}},{"type":"Feature","properties":{"a":"\u0100d\u012bs \u1fb9beba (Addis Ababa)","b":"Al-Khar\u1e6d\u016bm (Khartoum)","km":999,"score":100.7,"served":52,"routeKm":999,"detour":1.0},"geometry":{"type":"LineString","coordinates":[[38.751,9.002],[38.497,9.28],[38.242,9.558],[37.987,9.835],[37.731,10.112],[37.475,10.389],[37.219,10.666],[36.962,10.943],[36.704,11.219],[36.446,11.495],[36.188,11.771],[35.929,12.047],[35.669,12.323],[35.409,12.598],[35.149,12.873],[34.887,13.148],[34.625,13.422],[34.363,13.696],[34.1,13.97],[33.836,14.244],[33.572,14.517],[33.307,14.79],[33.042,15.063],[32.775,15.335],[32.508,15.608]]}},{"type":"Feature","properties":{"a":"Onitsha","b":"Accra","km":791,"score":99.3,"served":98,"routeKm":869,"detour":1.1},"geometry":{"type":"LineString","coordinates":[[6.928,6.062],[6.3,6.6],[0.7,6.6],[-0.3,5.6],[-0.213,5.613]]}},{"type":"Feature","properties":{"a":"Abidjan","b":"Bamako","km":917,"score":87.4,"served":65,"routeKm":918,"detour":1.0},"geometry":{"type":"LineString","coordinates":[[-4.017,5.356],[-4.179,5.66],[-4.341,5.963],[-4.504,6.267],[-4.667,6.57],[-4.83,6.873],[-4.993,7.176],[-5.156,7.48],[-5.32,7.783],[-5.484,8.086],[-5.648,8.389],[-5.812,8.692],[-5.977,8.995],[-6.142,9.297],[-6.307,9.6],[-6.473,9.903],[-6.639,10.205],[-6.805,10.508],[-6.971,10.81],[-7.138,11.113],[-7.305,11.415],[-7.473,11.717],[-7.641,12.019],[-7.809,12.321],[-7.977,12.623]]}},{"type":"Feature","properties":{"a":"Dar es Salaam","b":"Kampala","km":1084,"score":87.0,"served":42,"routeKm":1084,"detour":1.0},"geometry":{"type":"LineString","coordinates":[[39.209,-6.834],[38.93,-6.537],[38.651,-6.24],[38.373,-5.943],[38.095,-5.645],[37.817,-5.348],[37.539,-5.05],[37.262,-4.752],[36.985,-4.454],[36.708,-4.157],[36.431,-3.858],[36.154,-3.56],[35.878,-3.262],[35.602,-2.964],[35.326,-2.665],[35.05,-2.367],[34.774,-2.068],[34.498,-1.77],[34.223,-1.471],[33.947,-1.173],[33.672,-0.874],[33.396,-0.575],[33.121,-0.277],[32.846,0.022],[32.57,0.321]]}},{"type":"Feature","properties":{"a":"Luanda","b":"Yaound\u00e9","km":1430,"score":84.4,"served":88,"routeKm":1501,"detour":1.05},"geometry":{"type":"LineString","coordinates":[[13.308,-8.898],[13.5,-8.4],[13.1,-7.8],[13.1,-7.4],[12.9,-7.2],[12.7,-6.6],[12.5,-6.4],[12.5,-6.0],[12.3,-5.8],[12.3,-5.2],[11.5,-4.2],[11.518,3.842]]}},{"type":"Feature","properties":{"a":"Owerri","b":"Kano","km":717,"score":83.1,"served":95,"routeKm":717,"detour":1.0},"geometry":{"type":"LineString","coordinates":[[7.04,5.695],[7.1,5.957],[7.16,6.219],[7.221,6.481],[7.281,6.743],[7.342,7.005],[7.402,7.267],[7.463,7.529],[7.523,7.791],[7.584,8.053],[7.645,8.315],[7.706,8.577],[7.767,8.839],[7.828,9.101],[7.889,9.363],[7.951,9.625],[8.012,9.887],[8.073,10.149],[8.135,10.41],[8.197,10.672],[8.258,10.934],[8.32,11.196],[8.382,11.458],[8.444,11.72],[8.507,11.981]]}},{"type":"Feature","properties":{"a":"Luanda","b":"Lagos","km":2046,"score":77.4,"served":88,"routeKm":2421,"detour":1.18},"geometry":{"type":"LineString","coordinates":[[13.308,-8.898],[13.5,-8.4],[13.1,-7.8],[13.1,-7.4],[12.9,-7.2],[12.7,-6.6],[12.5,-6.4],[12.5,-6.0],[12.3,-5.8],[12.3,-5.2],[11.9,-4.8],[11.9,-4.6],[10.7,-3.4],[10.7,-3.2],[10.5,-3.0],[10.5,3.0],[6.9,6.6],[3.307,6.572]]}},{"type":"Feature","properties":{"a":"Kinshasa","b":"Kasa\u00ef-Oriental","km":936,"score":76.5,"served":78,"routeKm":936,"detour":1.0},"geometry":{"type":"LineString","coordinates":[[15.328,-4.387],[15.671,-4.461],[16.015,-4.536],[16.359,-4.61],[16.703,-4.684],[17.047,-4.758],[17.391,-4.831],[17.736,-4.905],[18.08,-4.978],[18.424,-5.051],[18.769,-5.124],[19.113,-5.197],[19.458,-5.269],[19.802,-5.342],[20.147,-5.414],[20.492,-5.486],[20.837,-5.558],[21.182,-5.629],[21.527,-5.7],[21.872,-5.772],[22.218,-5.843],[22.563,-5.913],[22.908,-5.984],[23.254,-6.054],[23.599,-6.124]]}},{"type":"Feature","properties":{"a":"Accra","b":"Owerri","km":803,"score":75.5,"served":100,"routeKm":910,"detour":1.13},"geometry":{"type":"LineString","coordinates":[[-0.213,5.613],[-0.3,5.6],[0.7,6.6],[6.1,6.6],[7.1,5.6],[7.04,5.695]]}}]}