{"type":"FeatureCollection","features":[{"type":"Feature","properties":{"kind":"rail"},"geometry":{"type":"MultiLineString","coordinates":[[[9.675,37.043],[9.76,37.154],[9.751,37.236],[9.865,37.294]],[[9.675,37.043],[9.645,37.043]],[[9.645,37.043],[9.551,37.077],[9.479,37.039],[9.324,37.027],[9.164,37.08],[9.001,36.959],[8.784,36.944],[8.747,36.967]],[[7.754,36.886],[7.761,36.904]],[[9.936,36.853],[9.935,36.938],[9.856,37.023],[9.736,37.012],[9.675,37.043]],[[10.174,36.804],[9.936,36.853]],[[10.214,36.775],[10.174,36.804]],[[10.174,36.804],[10.203,36.847],[10.326,36.881],[10.27,36.77]],[[10.27,36.77],[10.214,36.775]],[[6.892,36.756],[6.942,36.818],[6.912,36.885]],[[3.492,36.721],[3.797,36.741],[4.044,36.709]],[[7.754,36.886],[7.65,36.826],[7.507,36.837],[7.337,36.803],[7.282,36.724],[7.127,36.739],[6.972,36.7],[6.892,36.756]],[[9.645,37.043],[9.607,36.984],[9.486,36.953],[9.336,36.799],[9.199,36.761],[9.176,36.733],[9.205,36.716],[9.197,36.637]],[[9.936,36.853],[9.782,36.832],[9.582,36.66],[9.411,36.672],[9.355,36.64],[9.197,36.637]],[[7.725,36.477],[7.7,36.545],[7.789,36.629],[7.739,36.691],[7.754,36.886]],[[2.736,36.457],[2.79,36.466],[3.123,36.707],[3.159,36.692],[3.433,36.749],[3.492,36.721]],[[4.361,36.331],[4.568,36.45],[4.725,36.608],[5.038,36.701],[5.082,36.755]],[[3.492,36.721],[3.578,36.692],[3.583,36.564],[3.807,36.477],[3.888,36.335],[4.071,36.307],[4.361,36.331]],[[7.949,36.289],[7.841,36.36],[7.848,36.421],[7.802,36.4],[7.796,36.442],[7.725,36.477]],[[9.197,36.637],[9.132,36.598],[8.939,36.6],[8.811,36.549],[8.706,36.456],[8.513,36.479],[8.374,36.404],[8.214,36.376],[8.159,36.324],[7.949,36.289]],[[6.687,36.231],[6.601,36.397],[6.736,36.606],[6.821,36.649],[6.836,36.726],[6.892,36.756]],[[6.687,36.231],[6.851,36.215],[7.126,36.279],[7.163,36.339],[7.041,36.42],[7.147,36.468],[7.305,36.442],[7.372,36.47],[7.524,36.463],[7.627,36.43],[7.725,36.477]],[[6.687,36.231],[6.683,36.177]],[[6.683,36.177],[6.597,36.13]],[[8.71,36.187],[8.752,36.154],[8.884,36.159],[8.961,36.091]],[[8.961,36.091],[9.056,36.088],[9.161,36.233],[9.269,36.26],[9.429,36.369],[9.818,36.351],[9.949,36.393],[10.012,36.464],[10.021,36.529],[10.198,36.651],[10.214,36.775]],[[6.597,36.13],[6.06,36.078],[5.672,36.142],[5.575,36.102],[5.419,36.179],[5.264,36.071],[4.931,36.023],[4.415,36.079],[4.384,36.121],[4.361,36.331]],[[10.555,35.826],[10.507,35.915],[10.395,35.981],[10.364,36.043],[10.412,36.245],[10.463,36.363],[10.547,36.432],[10.546,36.508],[10.42,36.684],[10.27,36.77]],[[2.736,36.457],[2.586,36.46],[2.423,36.328],[2.154,36.267],[1.992,36.271],[1.506,36.174],[1.451,36.195],[0.699,35.884],[0.677,35.826],[0.558,35.747]],[[0.069,35.924],[0.07,35.851],[-0.024,35.775],[-0.036,35.692]],[[-0.036,35.692],[-0.336,35.844]],[[-0.613,35.651],[-0.647,35.712]],[[0.558,35.747],[0.336,35.716],[0.046,35.591]],[[-0.036,35.692],[0.046,35.591]],[[8.961,36.091],[8.804,35.939],[8.721,35.905],[8.582,35.663],[8.441,35.555]],[[-0.463,35.546],[-0.575,35.574],[-0.613,35.651]],[[0.046,35.591],[-0.183,35.539],[-0.463,35.546]],[[7.127,35.432],[7.098,35.517],[7.279,35.629],[7.365,35.808],[6.843,35.926],[6.866,36.054],[6.812,36.124],[6.683,36.177]],[[8.441,35.555],[8.342,35.538],[8.265,35.435],[8.123,35.398]],[[8.123,35.398],[8.048,35.487],[8.02,35.621],[7.872,35.819],[7.902,35.936],[7.828,35.967],[7.815,36.075],[7.874,36.127],[7.949,36.289]],[[0.558,35.747],[0.665,35.71],[0.797,35.716],[0.846,35.637],[1.01,35.543],[1.043,35.397],[1.143,35.336],[1.453,35.409],[1.731,35.429]],[[0.074,35.319],[0.135,35.383]],[[0.046,35.591],[0.002,35.459],[-0.069,35.395],[-0.038,35.343],[0.074,35.319]],[[-0.613,35.651],[-1.019,35.523],[-1.151,35.299]],[[8.441,35.555],[8.494,35.451],[8.719,35.293],[8.745,35.218],[8.811,35.17]],[[8.811,35.17],[8.959,35.224],[9.382,35.268],[9.57,35.38],[9.654,35.361],[9.746,35.384],[10.555,35.826]],[[-0.463,35.546],[-0.417,35.444],[-0.702,35.155],[-0.747,35.021]],[[-1.87,35.098],[-1.816,35.028],[-1.888,35.01],[-1.938,34.91],[-1.798,34.795]],[[-0.747,35.021],[-0.936,34.922],[-1.156,34.856],[-1.426,34.859],[-1.653,34.772],[-1.731,34.832],[-1.798,34.795]],[[10.751,34.755],[10.763,34.966],[10.7,35.201],[10.729,35.365],[10.647,35.475],[10.594,35.669],[10.631,35.802],[10.596,35.835],[10.555,35.826]],[[8.123,35.398],[8.163,35.372],[8.148,35.164],[8.23,35.012],[8.173,34.944],[8.028,34.864],[8.107,34.732],[8.019,34.695]],[[3.244,34.684],[3.117,34.785],[3.051,34.9],[2.995,35.104],[3.006,35.171],[2.897,35.404],[2.899,35.639],[2.747,35.859],[2.773,35.928],[2.882,36.004],[2.893,36.145],[2.873,36.23],[2.709,36.289],[2.702,36.323],[2.785,36.379],[2.736,36.457]],[[-1.798,34.795],[-1.892,34.697],[-1.994,34.681],[-2.077,34.608]],[[10.203,34.496],[10.517,34.534],[10.751,34.755]],[[-0.747,35.021],[-0.78,34.691],[-0.868,34.543],[-0.815,34.491]],[[-2.077,34.608],[-2.08,34.539],[-2.033,34.458]],[[-2.945,35.298],[-2.914,35.221],[-2.96,35.122],[-2.888,34.946],[-2.91,34.853],[-2.977,34.8],[-2.994,34.697],[-3.039,34.669],[-3.053,34.561],[-2.96,34.404]],[[-2.077,34.608],[-2.461,34.549],[-2.59,34.598],[-2.874,34.444],[-2.888,34.401],[-2.96,34.404]],[[8.406,34.322],[8.329,34.341],[8.321,34.414],[8.254,34.473],[8.353,34.513],[8.488,34.695],[8.536,34.928],[8.811,35.17]],[[8.406,34.322],[8.486,34.309],[9.344,34.572],[9.74,34.627],[9.947,34.538],[10.203,34.496]],[[-2.033,34.458],[-2.145,34.436],[-2.314,34.346],[-2.277,34.286],[-2.2,34.298]],[[-5.744,34.256],[-5.81,34.362],[-5.922,34.449],[-6.002,34.633],[-5.93,34.933],[-5.895,34.974],[-5.96,35.118],[-5.947,35.235],[-6.023,35.468],[-5.949,35.599],[-5.827,35.646],[-5.778,35.784]],[[8.123,33.931],[8.238,34.022],[8.334,34.252],[8.406,34.322]],[[10.102,33.892],[9.997,34.003],[9.975,34.143],[9.997,34.236],[10.203,34.496]],[[-2.96,34.404],[-3.053,34.338],[-3.463,34.19],[-3.844,34.241],[-4.118,34.221],[-4.174,34.188],[-4.293,34.186],[-4.408,34.119],[-4.721,34.09],[-4.799,34.022],[-4.838,34.054],[-5.007,34.044],[-5.274,33.902],[-5.461,33.884],[-5.531,33.895],[-5.519,33.913],[-5.716,34.115],[-5.744,34.256]],[[-5.744,34.256],[-6.287,34.318],[-6.533,34.292],[-6.965,33.888],[-7.483,33.616],[-7.617,33.583],[-7.667,33.498]],[[-7.667,33.498],[-7.629,33.38]],[[-7.629,33.38],[-7.594,33.272],[-7.618,33.11]],[[6.069,33.099],[6.052,33.247],[5.966,33.35],[5.986,33.53],[5.915,33.953],[5.933,34.046],[5.847,34.217],[5.899,34.256],[5.883,34.444],[5.692,34.654],[5.735,34.732],[5.698,34.817],[5.728,34.909],[5.574,35.058],[5.632,35.163],[5.69,35.196],[5.711,35.272],[5.841,35.295],[5.828,35.321],[5.866,35.377],[6.163,35.546],[6.391,35.74],[6.567,36.017],[6.597,36.13]],[[-6.741,32.924],[-6.745,32.993],[-6.686,33.048]],[[-6.908,32.885],[-6.741,32.924]],[[-6.741,32.924],[-6.56,32.887],[-6.576,32.869]],[[-7.618,33.11],[-7.466,33.001],[-7.37,32.98],[-7.209,32.877],[-7.105,32.853],[-6.908,32.885]],[[-6.908,32.885],[-6.8,32.851],[-6.754,32.874],[-6.731,32.825]],[[-2.033,34.458],[-1.982,34.418],[-1.851,34.43],[-1.806,34.324],[-2.011,34.131],[-2.025,34.042],[-1.993,33.742],[-1.923,33.51],[-1.983,33.198],[-1.941,33.047],[-2.012,32.695],[-1.959,32.644],[-1.857,32.617],[-1.828,32.55],[-1.952,32.512]],[[-7.629,33.38],[-8.078,33.359],[-8.291,33.318],[-8.588,33.147],[-8.596,33.102],[-8.499,32.93],[-8.502,32.744],[-8.421,32.594],[-8.444,32.369],[-8.412,32.276]],[[-7.618,33.11],[-7.624,32.973],[-7.772,32.74],[-7.805,32.656],[-7.788,32.603],[-7.831,32.529],[-7.937,32.471],[-7.971,32.232]],[[-8.412,32.276],[-8.494,32.276],[-8.569,32.231],[-8.659,32.306],[-8.864,32.24],[-8.969,32.264],[-9.231,32.225],[-9.261,32.241],[-9.25,32.298]],[[-7.971,32.232],[-8.081,32.207],[-8.412,32.276]],[[0.074,35.319],[0.142,35.225],[0.109,35.136],[0.049,35.104],[0.054,35.047],[0.168,34.973],[0.134,34.782],[0.171,34.732],[0.151,34.674],[0.187,34.588],[0.257,34.546],[0.088,34.41],[0.049,34.171],[0.093,34.126],[0.087,34.043],[-0.289,33.549],[-0.329,33.261],[-0.463,33.035],[-0.612,32.876],[-0.619,32.77],[-0.415,32.727],[-0.387,32.627],[-0.516,32.527],[-0.694,32.485],[-0.767,32.438],[-0.811,32.358],[-0.964,32.237],[-1.025,32.115],[-1.365,32.026],[-1.686,32.001]],[[-7.971,32.232],[-7.949,31.881],[-8.03,31.696],[-8.042,31.647],[-8.015,31.637]],[[30.419,31.406],[30.401,31.425],[30.409,31.338]],[[27.333,31.298],[27.232,31.355]],[[30.065,31.329],[30.053,31.295]],[[30.409,31.338],[30.511,31.289]],[[30.409,31.338],[30.209,31.27],[30.053,31.295]],[[30.053,31.295],[29.98,31.25],[29.96,31.22],[29.986,31.209]],[[27.333,31.298],[27.29,31.242],[27.176,31.219],[26.923,31.305],[26.389,31.232],[26.135,31.256],[25.575,31.136],[25.275,31.239],[25.08,31.429],[25.063,31.518],[25.168,31.575]],[[30.511,31.289],[30.505,31.238],[30.646,31.135]],[[31.814,31.428],[31.71,31.391],[31.573,31.214],[31.447,31.182],[31.386,31.056]],[[32.041,31.186],[31.757,31.172],[31.624,31.088],[31.389,31.047]],[[31.389,31.047],[31.386,31.056]],[[29.828,31.046],[29.864,31.084],[29.849,31.149],[29.986,31.209]],[[30.036,31.086],[29.828,31.046]],[[30.511,31.289],[30.489,31.236],[30.529,31.156],[30.472,31.1],[30.464,31.038]],[[30.464,31.038],[30.097,31.137],[29.986,31.209]],[[30.646,31.135],[30.47,31.026]],[[30.47,31.026],[30.464,31.038]],[[-1.686,32.001],[-2.011,31.853],[-2.075,31.796],[-2.257,31.536],[-2.337,31.48],[-2.407,31.333],[-2.695,31.019]],[[31.386,31.056],[31.339,31.055],[31.242,30.965]],[[31.086,31.556],[31.149,31.526],[31.127,31.377],[31.175,31.272],[31.166,31.226],[31.234,31.171],[31.242,30.965]],[[31.242,30.965],[31.231,30.964]],[[31.231,30.964],[31.166,30.964],[31.087,30.879]],[[30.646,31.135],[30.851,31.043],[31.087,30.879]],[[30.671,30.871],[30.47,31.026]],[[30.835,30.814],[30.749,30.812],[30.671,30.871]],[[29.828,31.046],[29.303,30.804],[29.097,30.784]],[[29.097,30.784],[28.985,30.8],[28.708,30.963],[28.481,31.02],[27.985,31.042],[27.875,31.073],[27.838,31.141],[27.694,31.133],[27.442,31.207],[27.333,31.298]],[[31.087,30.879],[31.001,30.776]],[[31.001,30.776],[30.835,30.814]],[[31.001,30.775],[31.001,30.776]],[[31.244,30.723],[31.206,30.841],[31.231,30.964]],[[31.244,30.723],[31.13,30.727],[31.001,30.775]],[[31.389,31.047],[31.461,30.885],[31.589,30.834],[31.664,30.742],[31.518,30.594]],[[31.518,30.594],[31.496,30.583]],[[31.479,30.581],[31.244,30.723]],[[31.496,30.583],[31.479,30.581]],[[32.301,31.274],[32.337,30.699],[32.31,30.617],[32.238,30.578]],[[32.238,30.578],[32.087,30.554],[31.77,30.57],[31.671,30.541],[31.518,30.594]],[[31.172,30.491],[31.242,30.604],[31.244,30.723]],[[31.172,30.491],[31.001,30.775]],[[31.185,30.461],[31.172,30.491]],[[31.479,30.581],[31.315,30.487],[31.185,30.461]],[[31.496,30.583],[31.559,30.43],[31.331,30.321]],[[31.331,30.321],[31.225,30.191]],[[31.225,30.191],[31.185,30.461]],[[31.226,30.186],[31.225,30.191]],[[30.835,30.814],[30.807,30.656],[30.827,30.612],[30.887,30.597],[30.939,30.506],[30.939,30.356],[31.029,30.267],[31.226,30.186]],[[31.331,30.321],[31.368,30.208],[31.319,30.131]],[[31.277,30.08],[31.319,30.131]],[[30.671,30.871],[30.689,30.759],[30.768,30.656],[30.824,30.455],[30.815,30.331],[31.018,30.167],[31.133,30.165],[31.192,30.074]],[[31.251,30.067],[31.277,30.08]],[[31.251,30.067],[31.226,30.186]],[[31.193,30.061],[31.251,30.067]],[[31.192,30.074],[31.193,30.061]],[[32.238,30.578],[32.322,30.46],[32.285,30.343],[32.436,30.205],[32.519,30.197],[32.558,30.138],[32.545,29.982]],[[31.319,30.131],[31.64,30.184],[32.064,30.14],[32.261,30.151],[32.545,29.982]],[[32.545,29.982],[32.552,29.971]],[[31.272,29.947],[31.277,30.08]],[[31.242,30.038],[31.231,29.999],[31.272,29.947]],[[32.562,29.939],[32.552,29.971]],[[31.193,30.061],[31.261,29.919],[31.272,29.821]],[[31.272,29.821],[31.314,29.786],[31.329,29.853],[31.272,29.947]],[[32.401,29.777],[32.482,29.843],[32.451,29.901],[32.465,29.936],[32.552,29.971]],[[31.272,29.821],[31.251,29.722],[31.277,29.664],[31.252,29.529],[31.189,29.422],[31.201,29.332]],[[30.964,29.48],[30.906,29.41],[30.865,29.411],[30.838,29.314]],[[30.681,29.363],[30.761,29.362],[30.838,29.314]],[[30.844,29.311],[30.905,29.34],[31.201,29.332]],[[30.838,29.314],[30.844,29.311]],[[30.749,29.227],[30.801,29.241],[30.844,29.311]],[[30.604,29.38],[30.641,29.362],[30.672,29.246],[30.749,29.227]],[[30.695,29.145],[30.749,29.227]],[[31.201,29.332],[31.194,29.246],[31.099,29.079],[30.918,28.877],[30.788,28.419]],[[28.832,28.34],[29.084,28.49],[29.066,28.667],[29.162,28.782],[29.25,28.771],[29.439,28.87],[29.556,29.046],[29.675,29.35],[29.731,29.408],[29.855,29.472],[29.98,29.489],[30.187,29.635],[30.538,29.807],[30.925,29.929],[31.272,29.821]],[[30.788,28.419],[30.713,28.33],[30.731,28.13],[30.837,27.979],[30.803,27.828],[30.87,27.673],[30.835,27.605]],[[30.835,27.605],[30.811,27.517],[30.829,27.445],[31.117,27.191],[31.167,27.198],[31.208,27.149],[31.283,27.136],[31.342,27.008]],[[31.342,27.008],[31.693,26.528],[31.776,26.502],[31.817,26.378],[31.979,26.253],[32.015,26.171],[32.134,26.09]],[[30.555,25.453],[30.652,25.549],[30.651,25.608],[30.69,25.649],[30.991,25.739],[31.245,25.858],[31.499,25.91],[31.629,26.006],[31.784,26.07],[32.09,26.064],[32.134,26.09]],[[32.134,26.09],[32.234,26.044],[32.318,26.092],[32.552,26.129],[32.63,26.185],[32.762,26.13],[32.807,26.022],[32.766,25.881],[32.785,25.792],[32.501,25.539],[32.567,25.415],[32.585,25.281],[32.884,25.06],[32.902,24.976],[32.879,24.912],[32.954,24.74],[32.951,24.494]],[[32.951,24.494],[32.884,24.227],[32.919,24.024],[32.885,23.972]],[[-12.45,22.703],[-12.661,22.698],[-12.711,22.663],[-12.654,22.506],[-12.681,22.268],[-12.662,22.161],[-12.745,21.841],[-12.991,21.319],[-13.03,21.287],[-13.119,21.3],[-13.689,21.209],[-14.144,21.297],[-16.224,21.301],[-16.503,21.276],[-16.615,21.304],[-16.911,21.303],[-16.949,21.283],[-17.062,20.899],[-17.034,20.824]],[[32.874,20.002],[32.738,20.139],[32.623,20.32],[32.544,20.544],[32.544,20.79],[32.376,21.048],[32.366,21.155],[32.246,21.175],[32.181,21.386],[31.689,21.611],[31.465,21.769],[31.328,21.809]],[[33.147,19.697],[32.874,20.002]],[[33.147,19.697],[32.903,19.59],[32.852,19.528],[32.814,19.387],[32.675,19.277],[32.494,19.281],[32.362,19.244],[32.045,19.009],[32.016,18.905],[31.957,18.864],[31.894,18.752],[31.829,18.587],[31.848,18.536]],[[37.219,19.614],[37.186,19.599],[37.103,19.364],[37.032,19.317],[36.912,19.318],[36.894,19.219],[36.831,19.193],[36.839,18.858],[36.756,18.553],[36.559,18.34],[36.396,18.331]],[[34.001,17.708],[34.017,17.856],[33.956,18.257],[33.917,18.325],[33.807,18.356],[33.768,18.459],[33.701,18.512],[33.719,18.608],[33.697,18.711],[33.586,18.764],[33.566,18.876],[33.601,18.963],[33.59,19.165],[33.425,19.329],[33.344,19.543],[33.147,19.697]],[[34.001,17.708],[34.344,17.728],[35.238,18.086],[35.465,18.204],[36.239,18.343],[36.396,18.331]],[[-16.508,16.004],[-16.427,15.93],[-16.288,15.926],[-16.213,15.861],[-16.239,15.784],[-16.209,15.677],[-16.236,15.619]],[[39.424,15.614],[39.46,15.672]],[[39.424,15.614],[39.467,15.638]],[[34.001,17.708],[33.989,17.616],[33.887,17.421],[33.768,17.287],[33.734,17.106],[33.752,16.974],[33.675,16.839],[33.59,16.743],[33.279,16.623],[33.128,16.513],[33.026,16.486],[32.883,16.302],[32.697,16.184],[32.583,15.991],[32.576,15.821],[32.509,15.609]],[[32.509,15.609],[32.506,15.457],[32.539,15.341]],[[-15.156,15.4],[-15.35,15.338],[-15.547,15.352],[-16.063,15.517],[-16.236,15.619]],[[37.867,15.542],[38.055,15.644],[38.44,15.764],[38.619,15.673],[38.823,15.345],[39.032,15.336],[39.067,15.356],[39.071,15.423],[39.209,15.42],[39.192,15.519],[39.257,15.58],[39.424,15.614]],[[36.396,18.331],[36.254,18.032],[36.185,17.99],[36.164,17.878],[36.047,17.759],[36.087,17.691],[36.106,17.42],[36.082,17.235],[36.106,17.117],[36.057,16.899],[36.147,15.704],[36.376,15.426],[36.22,15.265]],[[36.657,15.121],[36.549,15.102],[36.22,15.265]],[[36.22,15.265],[36.015,15.063],[35.907,15.009]],[[35.559,15.493],[35.64,15.238],[35.907,15.009]],[[-16.236,15.619],[-16.688,15.044],[-16.811,14.954]],[[-16.834,15.141],[-16.859,15.088],[-16.811,14.954]],[[-16.811,14.954],[-16.894,14.882],[-16.93,14.797]],[[-15.879,14.853],[-15.921,14.8],[-16.173,14.719],[-16.228,14.67]],[[-16.93,14.797],[-17.126,14.77],[-17.233,14.706],[-17.381,14.764],[-17.443,14.728],[-17.44,14.657]],[[-16.228,14.67],[-16.273,14.656],[-16.702,14.77],[-16.93,14.797]],[[-15.951,14.271],[-16.048,14.467],[-16.228,14.67]],[[-15.951,14.271],[-16.076,14.142]],[[-13.729,13.777],[-14.156,13.872],[-14.406,13.963],[-14.815,13.981],[-15.351,14.099],[-15.715,14.121],[-15.951,14.271]],[[32.509,15.609],[32.763,15.341],[32.92,15.259],[33.004,15.162],[33.274,14.78],[33.368,14.57],[33.525,14.393],[33.572,14.0],[33.525,13.868],[33.534,13.589]],[[33.602,13.559],[33.534,13.589]],[[35.907,15.009],[35.855,14.918],[35.798,14.531],[35.85,14.418],[35.408,14.109],[35.342,14.021],[35.156,13.891],[34.704,13.484],[34.24,13.362],[33.893,13.329],[33.659,13.555],[33.602,13.559]],[[33.534,13.589],[32.739,13.18]],[[-9.519,13.096],[-9.6,13.158],[-9.714,13.378],[-9.851,13.422],[-10.01,13.543],[-10.149,13.566],[-10.223,13.626],[-10.391,13.581],[-10.452,13.631],[-10.594,13.649],[-10.704,13.733],[-10.995,13.778],[-11.07,13.856],[-11.081,13.918],[-11.122,13.947],[-11.162,13.932],[-11.215,13.987],[-11.267,14.105],[-11.271,14.213],[-11.431,14.446],[-11.789,14.581],[-12.026,14.538],[-12.33,14.413],[-12.478,14.281],[-13.41,13.922],[-13.584,13.791],[-13.729,13.777]],[[30.575,12.793],[30.207,13.185]],[[32.739,13.18],[32.726,13.139],[32.668,13.172],[32.496,13.038],[32.05,13.0],[31.822,13.021],[31.481,12.917],[31.177,12.894],[30.885,12.77],[30.839,12.719],[30.722,12.689],[30.646,12.708],[30.575,12.793]],[[-7.547,12.859],[-7.669,12.818],[-7.795,12.679],[-8.021,12.654],[-8.075,12.741],[-8.397,12.865],[-8.471,12.844],[-8.786,12.897],[-8.863,12.959],[-8.932,12.944],[-9.108,12.981],[-9.196,12.955],[-9.327,13.02],[-9.492,13.043],[-9.519,13.096]],[[32.815,12.587],[32.795,12.835],[32.826,13.014],[32.739,13.18]],[[-1.539,12.374],[-1.478,12.422],[-1.444,12.551],[-1.303,12.696],[-1.216,12.84],[-1.086,12.937],[-1.079,13.071]],[[10.475,12.885],[9.156,12.154],[8.562,12.013]],[[34.354,11.873],[34.329,11.993],[34.238,12.096],[34.031,12.724],[33.939,12.901],[33.923,13.129],[33.789,13.193],[33.586,13.364],[33.569,13.427],[33.602,13.559]],[[27.778,11.319],[27.859,11.319],[28.293,11.665],[28.513,11.779],[28.82,12.068],[29.166,12.305],[29.29,12.431],[29.569,12.501],[29.802,12.518],[30.575,12.793]],[[24.872,12.056],[26.155,11.421],[27.407,11.239],[27.778,11.319]],[[8.562,12.013],[8.427,11.856],[8.218,11.687],[8.121,11.471],[7.891,11.317],[7.722,11.128]],[[6.591,12.571],[6.568,12.482],[6.611,12.258],[6.675,12.169],[6.945,11.95],[6.992,11.86],[7.271,11.623],[7.382,11.433],[7.565,11.24],[7.722,11.128]],[[-13.791,11.093],[-14.043,11.007],[-14.156,11.059],[-14.271,11.033],[-14.368,10.908],[-14.394,10.798],[-14.464,10.767],[-14.55,10.658],[-14.625,10.653]],[[7.722,11.128],[7.67,11.077],[7.628,10.913],[7.499,10.742],[7.417,10.494]],[[-1.539,12.374],[-2.006,12.262],[-2.383,12.233],[-2.466,12.144],[-2.743,12.002],[-2.926,11.864],[-3.236,11.814],[-3.416,11.728],[-3.506,11.735],[-3.881,11.456],[-4.122,11.35],[-4.264,11.198],[-4.304,11.193],[-4.299,11.086],[-4.368,11.022],[-4.74,10.774],[-4.715,10.731],[-4.774,10.629],[-4.776,10.485],[-4.817,10.385],[-4.959,10.209],[-5.076,10.131],[-5.101,10.019],[-5.183,9.922]],[[-9.296,10.375],[-9.776,10.639],[-10.846,10.867],[-10.941,10.848],[-11.24,10.684],[-11.332,10.714],[-11.384,10.683],[-11.566,10.74],[-11.761,10.546],[-12.017,10.488],[-12.088,10.368],[-12.249,10.282],[-12.471,10.274],[-12.556,10.139],[-12.616,10.132],[-12.645,10.093],[-12.79,10.096],[-12.795,10.062],[-12.838,10.086],[-12.833,10.045],[-12.871,10.054],[-13.045,9.935],[-13.092,9.934],[-13.097,9.896],[-13.193,9.947],[-13.211,9.859],[-13.288,9.786]],[[13.139,11.835],[13.029,11.778],[12.571,11.685],[12.367,11.498],[12.118,11.387],[11.956,11.072],[11.472,10.879],[11.375,10.626],[11.37,10.41],[11.249,10.281],[11.215,10.277],[11.113,10.357],[10.985,10.277],[10.729,10.365],[10.28,10.247],[9.858,10.306],[9.793,10.181],[9.822,10.104],[9.778,9.977],[9.573,9.773],[9.36,9.754]],[[8.887,9.912],[8.828,9.659]],[[9.36,9.754],[9.132,9.75],[9.071,9.657],[8.94,9.621],[8.828,9.659]],[[7.417,10.494],[7.428,10.435],[7.634,10.213],[7.761,10.167],[7.901,10.056],[8.143,10.008],[8.196,9.883],[8.351,9.726],[8.318,9.605]],[[7.417,10.494],[7.392,10.372],[7.29,10.266],[7.218,10.242],[7.156,10.067],[6.934,9.801],[6.822,9.763],[6.782,9.709],[6.601,9.653],[6.558,9.599]],[[8.828,9.659],[8.668,9.595],[8.536,9.658],[8.318,9.605]],[[-13.288,9.786],[-13.421,9.755],[-13.654,9.554]],[[-13.561,10.39],[-13.642,10.378],[-13.613,10.294],[-13.632,10.011],[-13.596,9.886],[-13.511,9.854],[-13.483,9.787],[-13.513,9.708],[-13.654,9.554]],[[-13.654,9.554],[-13.726,9.513]],[[43.145,11.584],[42.994,11.373],[42.821,11.271],[42.627,11.071],[42.648,10.914],[42.623,10.839],[42.552,10.738],[42.26,10.482],[42.13,10.152],[41.98,9.918],[41.859,9.804],[41.853,9.599],[41.495,9.603],[41.267,9.503],[41.124,9.537],[41.014,9.488],[40.821,9.279],[40.673,9.181],[40.583,9.176],[40.554,9.121],[40.432,9.08],[40.381,9.021]],[[6.558,9.599],[6.494,9.513],[6.458,9.334],[6.349,9.378],[6.306,9.364],[6.303,9.241],[6.186,9.138],[6.115,8.983],[6.146,8.893],[6.243,8.851],[6.316,8.745],[6.414,8.676],[6.415,8.609]],[[-12.498,8.681],[-12.888,8.765],[-12.997,8.68],[-13.054,8.577]],[[38.745,9.017],[38.759,8.885],[38.883,8.828],[39.133,8.594],[39.222,8.55],[39.296,8.553],[39.478,8.685],[39.669,8.954],[39.778,8.967],[39.878,8.907],[40.013,8.909],[40.146,8.978],[40.188,9.047],[40.205,9.023],[40.381,9.021]],[[27.778,11.319],[27.739,11.0],[27.702,10.973],[27.628,9.823],[27.299,9.167],[27.386,8.753],[27.766,8.134]],[[27.766,8.134],[27.915,7.89],[27.981,7.716]],[[6.558,9.599],[6.311,9.642],[6.199,9.791],[6.141,9.816],[5.82,9.599],[5.783,9.54],[5.205,9.425],[5.042,9.284],[4.895,9.226],[4.826,9.142],[4.844,9.109],[4.799,8.852],[4.748,8.821],[4.763,8.781],[4.696,8.625],[4.598,8.589],[4.566,8.468],[4.741,8.179],[4.654,7.87],[4.562,7.784],[4.416,7.74],[4.301,7.603],[4.107,7.454],[3.947,7.437],[3.85,7.388]],[[3.85,7.388],[3.764,7.405],[3.703,7.359],[3.649,7.36],[3.514,7.414],[3.319,7.266],[3.309,7.061],[3.239,7.041],[3.219,6.978],[3.237,6.802]],[[2.919,6.833],[3.132,6.862],[3.237,6.802]],[[3.237,6.802],[3.391,6.482]],[[2.691,6.971],[2.682,6.792],[2.728,6.702],[2.672,6.612],[2.672,6.517],[2.627,6.472],[2.631,6.379]],[[2.612,9.348],[2.538,9.143],[2.61,8.997],[2.597,8.869],[2.645,8.729],[2.616,8.618],[2.646,8.579],[2.598,8.475],[2.647,8.348],[2.621,8.176],[2.549,8.139],[2.474,8.033],[2.251,7.974],[2.214,7.675],[2.083,7.488],[2.089,7.285],[2.042,7.053],[2.056,6.919],[2.105,6.846],[2.145,6.855],[2.182,6.823],[2.153,6.631],[2.213,6.371]],[[-11.109,7.335],[-11.065,7.221],[-10.898,7.149],[-10.826,6.845],[-10.879,6.608],[-10.776,6.372]],[[-10.353,6.794],[-10.548,6.541],[-10.776,6.372]],[[2.631,6.379],[2.432,6.349],[2.213,6.371]],[[2.213,6.371],[2.069,6.341],[1.979,6.392]],[[-10.776,6.372],[-10.794,6.331]],[[1.516,6.209],[1.595,6.217]],[[1.4,6.339],[1.516,6.209]],[[0.988,8.311],[0.982,8.1],[1.109,7.822],[1.203,7.739],[1.159,7.499],[1.184,7.335],[1.162,6.684],[1.211,6.427],[1.203,6.163]],[[0.646,6.898],[0.814,6.769],[0.92,6.444],[1.019,6.324],[1.037,6.249],[1.203,6.163]],[[1.203,6.163],[1.236,6.131],[1.516,6.209]],[[-5.183,9.922],[-5.154,9.683],[-5.232,9.465],[-5.224,9.387],[-5.158,9.302],[-5.171,9.071],[-5.208,9.011],[-5.16,8.894],[-5.179,8.767],[-5.128,8.694],[-5.145,8.603],[-5.106,8.426],[-5.128,8.202],[-5.092,8.084],[-5.079,7.786],[-4.973,7.631],[-4.798,7.17],[-4.678,7.03],[-4.749,6.816],[-4.725,6.664],[-4.525,6.334],[-4.399,6.227],[-4.258,6.0]],[[-2.279,6.214],[-2.174,6.108],[-1.975,6.041],[-1.905,5.961],[-1.782,5.963]],[[8.318,9.605],[8.271,9.485],[8.284,9.447],[8.255,9.446],[8.248,9.239],[8.182,9.18],[8.187,9.097],[8.241,8.918],[8.301,8.865],[8.283,8.776],[8.361,8.599],[8.467,8.565],[8.559,8.445],[8.509,8.099],[8.55,7.935],[8.521,7.775],[8.545,7.734],[8.488,7.543],[8.399,7.437],[8.359,7.324],[8.149,7.188],[8.061,7.084],[8.044,6.959],[7.964,6.805],[7.832,6.732],[7.65,6.516],[7.491,6.445],[7.538,6.373],[7.59,6.102],[7.551,6.002],[7.554,5.881]],[[-8.501,7.56],[-8.593,7.507],[-8.747,7.304],[-8.916,7.211],[-9.185,6.815],[-9.491,6.529],[-9.725,6.189],[-10.044,5.854]],[[-1.013,5.806],[-0.973,5.918],[-0.831,6.086]],[[-1.782,5.963],[-1.658,6.118],[-1.664,6.23],[-1.584,6.316],[-1.609,6.675],[-1.437,6.701],[-1.332,6.599],[-1.204,6.608],[-1.096,6.557],[-1.022,6.591],[-0.971,6.546],[-0.906,6.614],[-0.848,6.623],[-0.747,6.531],[-0.725,6.448],[-0.655,6.461],[-0.494,6.35],[-0.276,6.131],[-0.259,5.985],[-0.364,5.737]],[[-1.013,5.806],[-0.816,5.763],[-0.623,5.779],[-0.417,5.723],[-0.364,5.737]],[[-0.364,5.737],[-0.233,5.642],[-0.22,5.595]],[[0.015,5.759],[-0.002,5.622],[-0.22,5.595]],[[-0.22,5.595],[-0.211,5.529]],[[-1.922,5.456],[-1.502,5.625],[-1.375,5.617],[-1.213,5.698],[-1.112,5.787],[-1.013,5.806]],[[-1.922,5.456],[-1.926,5.62],[-1.796,5.727],[-1.766,5.793],[-1.782,5.963]],[[-2.044,5.454],[-2.097,5.425]],[[-2.135,5.436],[-2.097,5.425]],[[-1.96,5.365],[-1.922,5.456]],[[-2.019,5.367],[-1.96,5.365]],[[-1.996,5.312],[-1.955,5.337],[-1.96,5.365]],[[-2.097,5.425],[-2.027,5.308],[-1.996,5.312]],[[-4.258,6.0],[-4.085,5.687],[-4.004,5.3]],[[-3.915,5.241],[-3.962,5.251]],[[-1.996,5.312],[-1.944,5.2],[-1.727,4.993],[-1.747,4.876]],[[7.554,5.881],[7.513,5.749],[7.524,5.655],[7.554,5.632],[7.49,5.521],[7.372,5.112],[7.175,4.872],[7.059,4.841],[7.006,4.774]],[[9.926,4.958],[9.747,4.768],[9.683,4.612],[9.564,4.555],[9.541,4.515]],[[9.422,4.633],[9.475,4.599],[9.48,4.517],[9.541,4.515]],[[13.565,7.332],[13.338,7.204],[13.237,6.875],[13.312,6.586],[13.264,6.44],[13.302,6.371],[13.319,6.161],[13.366,6.086],[13.29,5.905],[13.309,5.847],[13.272,5.774],[13.362,5.567],[13.346,5.456],[13.399,5.321],[13.361,5.237],[13.397,5.082],[13.277,4.918],[13.209,4.892],[13.069,4.908],[12.944,4.974],[12.777,4.958],[12.699,4.894],[12.611,4.898],[12.43,4.711],[12.253,4.67],[12.12,4.515],[11.964,4.492],[11.706,4.361],[11.554,4.145],[11.559,4.092]],[[11.559,4.092],[11.557,3.9],[11.317,3.574]],[[11.317,3.574],[11.246,3.592]],[[11.246,3.592],[10.986,3.533],[10.807,3.603],[10.765,3.654],[10.348,3.711],[10.189,3.794],[10.13,3.794],[10.099,3.858],[10.108,3.932],[10.075,3.961],[9.853,4.048],[9.693,4.052],[9.61,4.134],[9.599,4.207],[9.633,4.28],[9.541,4.515]],[[11.507,3.515],[11.317,3.574]],[[25.516,3.281],[25.528,3.245],[25.484,3.199],[25.507,3.063]],[[23.987,2.895],[24.001,2.949],[23.888,3.273],[23.882,3.377],[23.745,3.491],[23.728,3.656],[23.703,3.754],[23.654,3.793],[23.667,3.815]],[[25.507,3.063],[25.469,3.036],[25.463,2.978],[25.401,2.985],[25.372,2.876],[25.253,2.834],[25.15,2.746],[24.883,2.841],[24.744,2.82],[24.639,2.864],[24.516,2.85],[24.242,2.891],[24.14,2.946],[23.987,2.895]],[[26.819,2.697],[26.662,2.74],[26.536,2.735],[26.441,2.858],[26.232,2.887],[26.154,2.851],[25.68,2.95],[25.556,3.057],[25.507,3.063]],[[28.499,2.633],[28.404,2.768],[28.124,2.857],[27.962,2.804],[27.763,2.827],[27.628,2.771],[27.519,2.795],[27.387,2.723],[27.298,2.763],[27.196,2.729],[27.128,2.745],[27.019,2.699],[26.943,2.719],[26.819,2.697]],[[23.987,2.895],[23.777,2.733],[23.721,2.796],[23.617,2.831],[23.387,2.806],[23.118,2.539],[23.009,2.299],[22.86,2.172],[22.77,2.161],[22.599,2.235],[22.465,2.184]],[[31.502,2.475],[31.593,2.517],[31.616,2.562],[31.781,2.574],[31.843,2.547],[31.931,2.575],[32.034,2.724],[32.132,2.784],[32.296,2.771],[32.47,2.648],[32.584,2.607],[32.881,2.356],[32.909,2.274],[33.079,2.277],[33.123,2.232],[33.232,2.213],[33.493,2.014]],[[32.954,1.022],[32.987,0.91],[33.066,0.844]],[[33.623,0.776],[33.53,0.869],[33.402,0.922],[33.152,0.895],[33.066,0.844]],[[33.493,2.014],[33.631,1.84],[33.666,1.746],[33.769,1.686],[33.926,1.495],[34.015,1.463],[34.048,1.301],[34.105,1.256],[34.155,1.135],[34.136,0.936],[34.182,0.887],[34.158,0.856],[34.191,0.769],[34.178,0.707]],[[33.623,0.776],[33.754,0.843],[33.848,0.847],[33.978,0.776],[34.109,0.782],[34.178,0.707]],[[35.189,0.584],[35.191,0.698],[35.117,0.892],[35.01,1.022]],[[35.189,0.584],[35.049,0.635],[34.992,0.616],[34.902,0.666],[34.806,0.598],[34.693,0.603],[34.488,0.539],[34.399,0.56],[34.397,0.601],[34.32,0.588],[34.178,0.707]],[[33.23,0.464],[33.307,0.486],[33.623,0.776]],[[33.066,0.844],[33.179,0.747],[33.235,0.584],[33.23,0.464]],[[33.223,0.455],[33.23,0.464]],[[33.232,0.421],[33.223,0.455]],[[32.598,0.311],[32.604,0.316]],[[32.604,0.316],[32.672,0.347],[32.811,0.311],[32.946,0.356],[33.094,0.34],[33.223,0.455]],[[32.649,0.292],[32.604,0.316]],[[10.189,0.266],[10.215,0.367]],[[9.496,0.299],[9.522,0.375],[9.828,0.366],[9.947,0.358],[10.189,0.266]],[[30.336,0.167],[30.361,0.197],[31.001,0.198],[31.302,0.238],[31.591,0.369],[31.82,0.38],[32.014,0.443],[32.162,0.397],[32.228,0.419],[32.432,0.318],[32.598,0.311]],[[30.068,0.172],[30.277,0.231],[30.336,0.167]],[[35.867,-0.17],[36.09,-0.036],[36.151,0.041]],[[35.867,-0.17],[35.808,-0.139],[35.777,-0.031],[35.712,0.014],[35.657,-0.053],[35.547,0.014],[35.536,0.237],[35.501,0.338],[35.189,0.584]],[[36.018,-0.254],[35.994,-0.194],[35.867,-0.17]],[[34.511,0.249],[34.581,-0.006],[34.657,-0.066],[35.048,-0.065],[35.248,-0.177],[35.364,-0.189],[35.374,-0.222],[35.469,-0.189],[35.548,-0.211],[35.637,-0.151],[35.769,-0.292],[35.857,-0.324],[35.961,-0.323],[36.018,-0.254]],[[25.44,-0.359],[25.331,-0.09],[25.313,0.248],[25.201,0.375],[25.174,0.498]],[[36.334,-0.499],[36.375,-0.488],[36.366,0.062]],[[36.334,-0.499],[36.232,-0.356],[36.128,-0.284],[36.018,-0.254]],[[36.836,-1.288],[36.939,-1.227],[36.928,-1.181],[37.039,-1.099],[37.044,-1.052],[37.144,-1.028],[37.183,-0.889],[37.132,-0.779],[37.205,-0.699],[37.196,-0.61],[37.129,-0.458],[37.003,-0.369],[37.023,-0.182],[36.988,-0.08],[37.083,0.031]],[[36.836,-1.288],[36.826,-1.289]],[[36.826,-1.289],[36.79,-1.309],[36.691,-1.276],[36.627,-1.081],[36.628,-0.974],[36.474,-0.871],[36.447,-0.74],[36.334,-0.499]],[[10.189,0.266],[10.3,0.072],[10.505,-0.126],[10.607,-0.155],[10.837,-0.162],[10.984,-0.118],[11.094,-0.164],[11.214,-0.116],[11.861,-0.082],[12.126,-0.114],[12.18,-0.176],[12.278,-0.193],[12.302,-0.258],[12.443,-0.343],[12.499,-0.457],[12.651,-0.542],[12.676,-0.702],[12.722,-0.785],[12.945,-0.854],[12.962,-0.947],[13.061,-0.989],[13.133,-1.106],[13.241,-1.161],[13.256,-1.297],[13.34,-1.43],[13.298,-1.479],[13.307,-1.519],[13.394,-1.579],[13.576,-1.636]],[[37.125,-1.733],[36.969,-1.544],[36.982,-1.452],[36.826,-1.289]],[[36.281,-1.888],[36.35,-1.939],[36.395,-1.836],[36.457,-1.785],[36.492,-1.804],[36.519,-1.916],[36.549,-1.874],[36.718,-1.921],[36.824,-1.822],[37.056,-1.781],[37.125,-1.733]],[[37.377,-2.019],[37.296,-2.0],[37.174,-1.91],[37.159,-1.773],[37.125,-1.733]],[[37.377,-2.019],[37.349,-2.099],[37.297,-2.137]],[[38.549,-3.376],[38.482,-3.006],[38.278,-2.76],[38.168,-2.68],[38.03,-2.442],[37.923,-2.4],[37.86,-2.299],[37.71,-2.178],[37.593,-2.155],[37.377,-2.019]],[[37.452,-3.484],[37.343,-3.35],[37.238,-3.43],[37.123,-3.383],[36.985,-3.388],[36.929,-3.419],[36.845,-3.388],[36.721,-3.401],[36.689,-3.365]],[[38.549,-3.376],[38.385,-3.514],[38.248,-3.51],[38.122,-3.405],[37.912,-3.415],[37.721,-3.368],[37.657,-3.424],[37.452,-3.484]],[[39.654,-4.037],[39.535,-3.977],[39.52,-3.913],[39.358,-3.783],[39.078,-3.735],[38.733,-3.529],[38.606,-3.384],[38.549,-3.376]],[[12.872,-2.1],[12.751,-2.352],[12.692,-2.57],[12.709,-2.841],[12.639,-3.004],[12.666,-3.389],[12.606,-3.446],[12.597,-3.507],[12.909,-4.141]],[[15.295,-4.243],[15.224,-4.269],[15.177,-4.234],[14.969,-4.205],[14.877,-4.144],[14.719,-4.268],[14.628,-4.244],[14.52,-4.287],[14.319,-4.253],[14.3,-4.224],[13.872,-4.294]],[[13.872,-4.294],[13.724,-4.186],[13.299,-4.19],[13.218,-4.161],[13.116,-4.182],[12.909,-4.141]],[[32.909,-2.56],[32.955,-2.616],[33.026,-2.634],[33.088,-2.724],[33.26,-2.721],[33.398,-2.783],[33.462,-2.864],[33.532,-3.073],[33.492,-3.303],[33.526,-3.506],[33.463,-3.574],[33.433,-3.666],[33.366,-3.717],[33.172,-3.719],[33.063,-3.844],[32.871,-3.957],[32.886,-4.365]],[[13.813,-4.394],[13.887,-4.344],[13.872,-4.294]],[[11.808,-4.756],[11.922,-4.786],[12.103,-4.522],[12.203,-4.544],[12.284,-4.404],[12.371,-4.333],[12.431,-4.329],[12.465,-4.259],[12.552,-4.197],[12.676,-4.188],[12.814,-4.114],[12.909,-4.141]],[[32.886,-4.365],[32.882,-4.592],[32.801,-4.818],[32.807,-5.016]],[[31.783,-5.054],[32.032,-5.053],[32.495,-5.122],[32.718,-5.079],[32.807,-5.016]],[[29.664,-4.909],[29.645,-4.857],[29.808,-4.982],[29.831,-4.953],[29.932,-5.006],[30.005,-4.985],[30.137,-5.037],[30.334,-5.061],[30.351,-5.092],[30.461,-5.119],[30.56,-5.082],[30.782,-5.069],[31.151,-5.144],[31.357,-5.073],[31.783,-5.054]],[[25.933,-2.948],[25.859,-3.081],[25.845,-3.281],[25.876,-3.543],[25.971,-3.793],[25.914,-3.936],[25.922,-4.103],[25.968,-4.216],[26.082,-4.294],[26.139,-4.401],[26.255,-4.484],[26.461,-4.733],[26.47,-4.788],[26.533,-4.828],[26.677,-5.177]],[[39.087,-5.069],[38.668,-5.205],[38.624,-5.243]],[[37.452,-3.484],[37.633,-3.784],[37.615,-3.862],[37.746,-4.086],[37.805,-4.334],[37.939,-4.584],[38.048,-4.65],[38.067,-4.629],[38.139,-4.691],[38.283,-4.874],[38.392,-5.129],[38.431,-5.158],[38.506,-5.14],[38.624,-5.243]],[[14.967,-5.273],[15.117,-5.059],[15.18,-4.809],[15.137,-4.716],[15.148,-4.671],[15.249,-4.495],[15.348,-4.443],[15.343,-4.323]],[[14.862,-5.246],[14.967,-5.273]],[[20.592,-4.337],[20.612,-4.309],[20.734,-4.332],[20.836,-4.396],[20.869,-4.377],[20.973,-4.404],[20.992,-4.454],[21.126,-4.509],[21.386,-4.742],[21.49,-4.745],[21.615,-4.869],[21.724,-4.851],[21.762,-4.792],[21.817,-4.776],[21.936,-4.863],[22.093,-4.892],[22.103,-4.951],[22.162,-4.982],[22.171,-5.026],[22.197,-5.239],[22.17,-5.324],[22.245,-5.433]],[[32.807,-5.016],[32.882,-5.158],[33.086,-5.312],[33.256,-5.388],[33.563,-5.437],[33.767,-5.512],[33.884,-5.51],[34.013,-5.58],[34.21,-5.584],[34.448,-5.695],[34.732,-5.758],[35.017,-5.706],[35.098,-5.729],[35.11,-5.784]],[[12.938,-4.979],[12.977,-5.05],[12.989,-5.179],[12.941,-5.318],[12.947,-5.391],[13.024,-5.466],[13.068,-5.635],[13.065,-5.85]],[[13.416,-5.854],[13.42,-5.815],[13.456,-5.803],[13.537,-5.847],[13.599,-5.839],[13.704,-5.738],[13.939,-5.663],[14.076,-5.693],[14.167,-5.675],[14.25,-5.606],[14.291,-5.613],[14.491,-5.513],[14.658,-5.519],[14.866,-5.396],[14.882,-5.356],[14.939,-5.362],[14.967,-5.273]],[[26.677,-5.177],[26.68,-5.248],[26.87,-5.332],[27.031,-5.363],[26.919,-5.832],[26.922,-6.051]],[[29.183,-5.922],[28.727,-5.861],[28.586,-5.92],[28.493,-5.919],[28.403,-5.981],[28.22,-5.931],[27.466,-6.046],[27.158,-6.07],[26.922,-6.051]],[[31.068,-6.348],[31.113,-6.341],[31.118,-6.299],[31.239,-6.291],[31.237,-6.228],[31.152,-6.056],[31.15,-5.759],[31.562,-5.438],[31.783,-5.054]],[[38.624,-5.243],[38.664,-5.892],[38.73,-5.961],[38.711,-6.236],[38.749,-6.418],[38.67,-6.712],[38.608,-6.789]],[[36.991,-6.815],[36.691,-6.64],[36.616,-6.553],[36.394,-6.439],[36.325,-6.36],[36.178,-6.375],[35.931,-6.179],[35.533,-6.171],[35.11,-5.784]],[[38.608,-6.789],[38.281,-6.813],[38.141,-6.754],[38.08,-6.775],[38.015,-6.733],[37.676,-6.814],[37.606,-6.748],[36.991,-6.815]],[[39.28,-6.813],[38.894,-6.848],[38.836,-6.813],[38.608,-6.789]],[[22.245,-5.433],[22.264,-5.489],[22.238,-5.597],[22.334,-5.708],[22.315,-5.776],[22.386,-5.888],[22.455,-5.895],[22.479,-5.971],[22.763,-6.09],[22.74,-6.195],[22.873,-6.336],[22.847,-6.563],[22.868,-6.61],[22.918,-6.621],[22.939,-6.719],[22.988,-6.728],[23.062,-6.848],[23.17,-6.912],[23.398,-6.952],[23.518,-7.102]],[[26.922,-6.051],[26.927,-6.138],[26.796,-6.323],[26.537,-6.5],[26.475,-6.576],[26.391,-6.622],[26.226,-6.645],[26.133,-6.752],[26.088,-6.747],[26.079,-6.814],[25.945,-6.888],[25.967,-6.954],[25.905,-7.002],[25.867,-7.102],[25.871,-7.218],[25.783,-7.36],[25.647,-7.389],[25.521,-7.481],[25.336,-7.512],[25.33,-7.587]],[[36.991,-6.815],[36.987,-6.857],[37.042,-6.925],[37.033,-7.045],[37.071,-7.219],[37.041,-7.334],[36.979,-7.406],[37.037,-7.503],[37.004,-7.642],[36.957,-7.696]],[[25.33,-7.587],[25.304,-7.737],[25.251,-7.809],[25.173,-8.091],[24.971,-8.315],[25.047,-8.624],[24.989,-8.723]],[[23.518,-7.102],[23.644,-7.173],[23.721,-7.168],[23.859,-7.328],[23.969,-7.297],[24.076,-7.363],[24.108,-7.45],[24.239,-7.592],[24.294,-7.77],[24.413,-7.972],[24.48,-7.984],[24.6,-8.148],[24.691,-8.449],[24.91,-8.696],[24.989,-8.723]],[[13.256,-8.827],[13.406,-8.749],[13.482,-8.657],[13.5,-8.584],[13.669,-8.57]],[[39.279,-6.821],[39.112,-6.859],[38.946,-6.951],[38.829,-6.908],[38.776,-6.934],[38.708,-6.894],[38.604,-6.978],[38.393,-7.272],[38.201,-7.365],[38.106,-7.458],[37.843,-7.523],[37.631,-7.526],[37.599,-7.548],[37.578,-7.656],[37.517,-7.671],[37.474,-7.747],[37.085,-7.795],[36.901,-7.895],[36.802,-8.062],[36.551,-8.088],[36.371,-8.179],[36.231,-8.204],[35.969,-8.466],[35.796,-8.796],[35.702,-8.844]],[[14.076,-9.226],[13.909,-9.125],[13.816,-9.136],[13.628,-9.058],[13.256,-8.827]],[[14.149,-9.255],[14.076,-9.226]],[[14.217,-9.274],[14.149,-9.255]],[[16.335,-9.548],[16.148,-9.484],[15.871,-9.463],[15.594,-9.366],[15.471,-9.358],[15.357,-9.277],[15.171,-9.263],[14.944,-9.309],[14.7,-9.242],[14.525,-9.261],[14.397,-9.193],[14.347,-9.238],[14.217,-9.274]],[[14.426,-9.672],[14.402,-9.519],[14.217,-9.274]],[[35.702,-8.844],[35.675,-8.818],[35.68,-8.728],[35.581,-8.78],[35.256,-8.739],[35.142,-8.789],[35.062,-8.784],[34.929,-8.859],[34.843,-8.825],[34.658,-8.826],[34.566,-8.759],[34.334,-8.709],[34.271,-8.722],[34.189,-8.814],[34.053,-8.856],[33.868,-8.831],[33.775,-8.764],[33.648,-8.768],[33.582,-8.869],[33.466,-8.929],[33.377,-8.918],[33.241,-8.986],[33.177,-8.928],[33.16,-8.954],[33.02,-8.946],[32.947,-9.118],[32.892,-9.129],[32.87,-9.299],[32.621,-9.36],[32.398,-9.29],[32.191,-9.416],[32.118,-9.421],[32.012,-9.496],[31.952,-9.646],[31.626,-9.808],[31.545,-9.882]],[[24.989,-8.723],[25.062,-8.761],[25.247,-8.759],[25.414,-8.884],[25.573,-8.868],[25.651,-8.89],[25.717,-8.963],[25.69,-9.011],[25.705,-9.08],[25.907,-9.148],[25.912,-9.185],[25.859,-9.194],[25.866,-9.278],[25.764,-9.491],[25.84,-9.652],[25.921,-9.709],[25.938,-9.913],[25.98,-9.986],[25.915,-10.058],[26.046,-10.216],[26.049,-10.271]],[[26.299,-10.595],[26.215,-10.563],[26.153,-10.59]],[[26.153,-10.59],[26.116,-10.601]],[[26.049,-10.271],[26.041,-10.335],[26.081,-10.385],[26.028,-10.519],[26.116,-10.601]],[[26.299,-10.595],[26.273,-10.606]],[[26.273,-10.606],[26.153,-10.59]],[[26.32,-10.616],[26.299,-10.595]],[[26.32,-10.616],[26.273,-10.606]],[[23.003,-10.593],[23.139,-10.426],[23.218,-10.379],[23.393,-10.365],[23.599,-10.431],[23.751,-10.419],[23.857,-10.473],[24.093,-10.4],[24.267,-10.469],[24.369,-10.608],[24.488,-10.667]],[[26.471,-10.679],[26.32,-10.616]],[[26.474,-10.684],[26.471,-10.679]],[[26.474,-10.684],[26.366,-10.662],[26.32,-10.616]],[[23.172,-10.697],[23.184,-10.679],[23.097,-10.614],[23.003,-10.593]],[[26.63,-10.768],[26.471,-10.679]],[[26.63,-10.768],[26.474,-10.684]],[[24.488,-10.667],[24.562,-10.658],[24.598,-10.603],[24.657,-10.584],[24.759,-10.573],[24.778,-10.616],[24.911,-10.63],[25.143,-10.595],[25.203,-10.545],[25.229,-10.617],[25.326,-10.701],[25.432,-10.674],[25.552,-10.785],[25.65,-10.788],[25.875,-10.753],[26.009,-10.628],[26.116,-10.601]],[[14.375,-10.842],[14.319,-10.87],[14.277,-10.847],[14.29,-10.802],[14.235,-10.72],[14.142,-10.681],[14.115,-10.702],[13.913,-10.672],[13.836,-10.72],[13.75,-10.723]],[[26.747,-10.887],[26.729,-10.792],[26.63,-10.768]],[[26.747,-10.887],[26.736,-10.935]],[[26.561,-10.805],[26.521,-10.848],[26.539,-10.871],[26.661,-10.874],[26.736,-10.935]],[[26.771,-10.956],[26.747,-10.887]],[[26.736,-10.935],[26.771,-10.956]],[[26.734,-10.969],[26.771,-10.956]],[[26.736,-10.935],[26.734,-10.969]],[[26.532,-11.049],[26.591,-11.031],[26.583,-10.984],[26.626,-10.961],[26.734,-10.969]],[[26.771,-10.956],[26.849,-10.965],[26.959,-11.04],[27.01,-11.1],[27.015,-11.176],[27.109,-11.269],[27.295,-11.318],[27.339,-11.392],[27.332,-11.442],[27.45,-11.524],[27.495,-11.611],[27.495,-11.778]],[[27.227,-11.564],[27.26,-11.787],[27.337,-11.821],[27.495,-11.778]],[[23.003,-10.593],[22.182,-10.718],[22.117,-10.786],[22.111,-10.881],[22.058,-10.954],[21.759,-11.128],[21.66,-11.214],[21.635,-11.293],[21.573,-11.321],[20.422,-11.672],[20.063,-11.715],[19.819,-11.823],[19.6,-11.966],[19.48,-11.993],[19.412,-11.981],[19.354,-11.925],[19.23,-11.958],[19.181,-11.943],[19.088,-12.053],[19.032,-12.064]],[[13.528,-12.436],[13.576,-12.341]],[[27.495,-11.778],[27.464,-11.899],[27.54,-12.152],[27.583,-12.207],[27.683,-12.279],[27.796,-12.285],[27.82,-12.231],[27.883,-12.243],[27.944,-12.265],[27.994,-12.354],[28.117,-12.37],[28.144,-12.405],[28.21,-12.39],[28.249,-12.421],[28.302,-12.392],[28.349,-12.437]],[[13.51,-12.451],[13.528,-12.436]],[[27.797,-12.312],[27.873,-12.407],[27.893,-12.506]],[[13.457,-12.535],[13.51,-12.451]],[[27.893,-12.506],[27.925,-12.567]],[[27.893,-12.506],[27.834,-12.553],[27.925,-12.567]],[[19.032,-12.064],[18.924,-12.124],[18.809,-12.128],[18.675,-12.225],[18.476,-12.133],[18.422,-12.166],[18.367,-12.151],[18.154,-12.203],[18.089,-12.157],[17.733,-12.053],[17.659,-11.988],[17.505,-12.001],[17.276,-12.138],[17.191,-12.229],[16.93,-12.33],[16.822,-12.313],[16.788,-12.237],[16.716,-12.225],[16.538,-12.455],[16.477,-12.427],[16.469,-12.389],[16.421,-12.386],[16.411,-12.496],[16.321,-12.573]],[[28.349,-12.437],[28.288,-12.462],[28.261,-12.537],[28.285,-12.558],[28.223,-12.608],[28.075,-12.649]],[[27.925,-12.567],[28.075,-12.649]],[[16.321,-12.573],[16.137,-12.58],[16.036,-12.631],[16.016,-12.693],[15.949,-12.716],[15.917,-12.686],[15.82,-12.684],[15.549,-12.827]],[[28.349,-12.437],[28.459,-12.526],[28.544,-12.649],[28.555,-12.738],[28.664,-12.964]],[[28.075,-12.649],[28.166,-12.711],[28.195,-12.807],[28.242,-12.836],[28.359,-12.859],[28.4,-12.818],[28.506,-12.814],[28.664,-12.964]],[[28.664,-12.964],[28.666,-12.987]],[[13.528,-12.436],[13.563,-12.689],[13.673,-12.826],[13.689,-12.93],[13.714,-12.948],[13.745,-12.908],[13.908,-12.883],[13.987,-13.018]],[[15.549,-12.827],[15.445,-12.822],[15.433,-12.859],[15.395,-12.856],[15.356,-12.9],[15.274,-12.902],[14.919,-12.808],[14.839,-12.839],[14.745,-12.952],[14.655,-12.979],[14.63,-13.017],[14.432,-12.949],[14.195,-13.046],[14.162,-13.018],[13.987,-13.018]],[[13.987,-13.018],[13.774,-12.957],[13.72,-13.044],[13.589,-13.019],[13.554,-12.857],[13.437,-12.691],[13.454,-12.622],[13.406,-12.579],[13.457,-12.535]],[[28.666,-12.987],[28.613,-12.985],[28.403,-13.136]],[[15.703,-13.233],[15.67,-13.254],[15.655,-13.214],[15.675,-12.977],[15.549,-12.827]],[[29.688,-13.524],[30.038,-13.281],[30.282,-13.224],[30.463,-13.032],[30.653,-13.063],[30.684,-12.948],[30.854,-12.866],[31.03,-12.69],[31.034,-12.601],[31.188,-12.152],[31.398,-11.855],[31.272,-11.581],[31.228,-11.293],[31.088,-11.058],[31.06,-10.958],[31.119,-10.748],[31.175,-10.662],[31.231,-10.292],[31.214,-10.228],[31.285,-10.132],[31.259,-9.983],[31.545,-9.882]],[[28.671,-13.978],[28.746,-13.92],[28.817,-13.947],[28.981,-13.816],[29.134,-13.741],[29.247,-13.729],[29.309,-13.655],[29.688,-13.524]],[[28.671,-13.978],[28.65,-13.733],[28.706,-13.66],[28.765,-13.342],[28.734,-13.082],[28.666,-12.987]],[[17.669,-14.665],[17.414,-14.711],[16.92,-14.64],[16.795,-14.66],[16.387,-14.463],[16.186,-14.523],[15.909,-14.524],[15.806,-14.571]],[[15.926,-14.72],[15.806,-14.571]],[[16.009,-14.696],[15.926,-14.72]],[[36.517,-14.798],[36.486,-14.727],[36.365,-14.616],[36.33,-14.519],[36.228,-14.437],[36.212,-14.218],[35.873,-14.087],[35.769,-13.918],[35.686,-13.931],[35.629,-13.786],[35.539,-13.764],[35.526,-13.613],[35.43,-13.453],[35.343,-13.397],[35.357,-13.345],[35.252,-13.304]],[[13.674,-14.848],[13.494,-14.742]],[[13.894,-14.859],[13.73,-14.831],[13.674,-14.848]],[[15.806,-14.571],[15.578,-14.622],[15.543,-14.601],[15.403,-14.621],[15.114,-14.747],[14.102,-14.884]],[[14.102,-14.884],[14.045,-14.857],[13.894,-14.859]],[[13.736,-14.905],[13.674,-14.848]],[[40.26,-14.926],[40.651,-14.684],[40.663,-14.541]],[[13.924,-14.93],[13.894,-14.859]],[[13.924,-14.93],[13.836,-14.939],[13.736,-14.905]],[[14.102,-14.884],[13.982,-14.966],[13.924,-14.93]],[[13.736,-14.905],[13.551,-14.97]],[[13.551,-14.97],[13.474,-14.92],[13.467,-14.798],[13.494,-14.742]],[[37.782,-15.0],[37.793,-15.0]],[[36.517,-14.798],[36.538,-14.821],[36.774,-14.771],[36.959,-14.795],[37.134,-14.904],[37.321,-14.94],[37.621,-14.896],[37.701,-14.972],[37.793,-15.0]],[[40.26,-14.926],[40.367,-14.912],[40.578,-15.019],[40.669,-15.017]],[[35.026,-15.114],[35.749,-14.936],[35.853,-14.934],[36.056,-14.991],[36.386,-14.826],[36.517,-14.798]],[[35.026,-15.114],[34.965,-15.019],[34.944,-14.896],[34.853,-14.806],[34.784,-14.644],[34.623,-14.459],[34.542,-14.309],[34.495,-13.993],[34.435,-13.839],[34.455,-13.759],[34.352,-13.718],[34.289,-13.765],[34.228,-13.746],[34.13,-13.796],[34.079,-13.771],[33.872,-13.885],[33.439,-13.887],[33.373,-13.912],[33.091,-13.868],[33.026,-13.791],[32.869,-13.777],[32.834,-13.735]],[[37.793,-15.0],[38.137,-15.033],[38.246,-15.109],[38.577,-14.939],[38.774,-14.898],[38.835,-14.963],[38.977,-15.005],[39.14,-15.008],[39.218,-15.079],[39.41,-15.127],[39.569,-15.086],[39.814,-14.948],[39.908,-14.953],[40.087,-14.9],[40.26,-14.926]],[[13.494,-14.742],[13.462,-14.682],[13.418,-14.749],[13.322,-14.757],[12.955,-14.942],[12.758,-14.901],[12.636,-15.017],[12.421,-14.996],[12.215,-15.019],[12.159,-15.074],[12.147,-15.183]],[[16.08,-15.187],[16.076,-15.213],[16.036,-15.195],[15.972,-15.084],[15.971,-14.87],[15.926,-14.72]],[[13.879,-15.736],[13.868,-15.443],[13.7,-15.251],[13.698,-15.139],[13.556,-15.03],[13.551,-14.97]],[[35.031,-15.798],[35.069,-15.665],[35.033,-15.579],[35.087,-15.315],[35.026,-15.114]],[[26.977,-16.818],[27.135,-16.761],[27.22,-16.782],[27.298,-16.722],[27.358,-16.512],[27.483,-16.426],[27.495,-16.262],[27.572,-16.059],[27.703,-15.87],[28.106,-15.804],[28.187,-15.76],[28.296,-15.612],[28.301,-15.402],[28.339,-15.354],[28.403,-15.039],[28.344,-14.871],[28.369,-14.765],[28.355,-14.645],[28.45,-14.462],[28.513,-14.194],[28.671,-13.978]],[[27.108,-17.266],[27.026,-17.131],[27.012,-17.061],[27.046,-17.004],[26.977,-16.818]],[[35.083,-17.418],[35.159,-17.284],[35.213,-16.991],[35.286,-16.816],[35.248,-16.721],[35.141,-16.629],[35.126,-16.551],[35.239,-16.453],[35.316,-16.094],[35.27,-15.951],[35.031,-15.798]],[[35.083,-17.418],[34.893,-17.02],[34.85,-16.864],[34.724,-16.683],[34.396,-16.4],[34.254,-16.183],[34.191,-16.0],[33.773,-16.155],[33.654,-16.134]],[[30.486,-17.639],[30.529,-17.611],[30.605,-17.331]],[[30.486,-17.639],[30.397,-17.389],[30.259,-17.338],[30.149,-17.385],[30.089,-17.373],[30.025,-17.288],[30.047,-17.201]],[[30.929,-17.757],[30.884,-17.59],[30.966,-17.372],[31.235,-17.308],[31.44,-17.34],[31.566,-17.31]],[[30.929,-17.757],[30.842,-17.691],[30.721,-17.667],[30.536,-17.711],[30.486,-17.639]],[[35.354,-17.814],[35.116,-17.635],[35.027,-17.463],[35.083,-17.418]],[[25.865,-17.862],[25.877,-17.696],[25.964,-17.596],[26.008,-17.491],[26.068,-17.469],[26.231,-17.302],[26.286,-17.11],[26.336,-17.044],[26.64,-17.033],[26.758,-16.97],[26.85,-16.813],[26.977,-16.818]],[[25.183,-16.796],[25.348,-17.139],[25.386,-17.381],[25.659,-17.555],[25.716,-17.685],[25.684,-17.791],[25.865,-17.862]],[[30.972,-17.872],[30.929,-17.757]],[[36.987,-16.845],[37.025,-17.075],[36.97,-17.176],[37.04,-17.246],[37.047,-17.318],[37.02,-17.496],[36.947,-17.499],[36.838,-17.589],[36.906,-17.75],[36.876,-17.877]],[[48.529,-17.604],[48.439,-17.793],[48.339,-17.821],[48.263,-17.894]],[[48.16,-17.78],[48.263,-17.894]],[[35.159,-18.221],[35.293,-18.024],[35.354,-17.814]],[[35.892,-18.288],[35.782,-18.224],[35.751,-18.146],[35.651,-18.074],[35.497,-18.007],[35.354,-17.814]],[[35.892,-18.288],[35.692,-18.25],[35.159,-18.221]],[[36.011,-18.333],[35.892,-18.288]],[[26.437,-18.352],[26.254,-18.352],[26.195,-18.297],[25.931,-18.265],[25.745,-18.056],[25.874,-17.933],[25.865,-17.862]],[[26.443,-18.463],[26.393,-18.421],[26.437,-18.352]],[[48.263,-17.894],[48.279,-18.579],[48.23,-18.943]],[[47.538,-18.898],[47.555,-18.954]],[[47.555,-18.954],[47.667,-18.957],[47.771,-18.905],[47.884,-18.929],[48.047,-18.866],[48.23,-18.943]],[[48.23,-18.943],[48.469,-18.942],[48.559,-18.902],[48.582,-18.806],[48.734,-18.807],[48.768,-18.776],[48.811,-18.812],[48.966,-18.746],[49.066,-18.83],[49.108,-18.814],[49.171,-18.844],[49.354,-18.408],[49.343,-18.231],[49.384,-18.174],[49.442,-18.156]],[[30.972,-17.872],[31.073,-17.833],[31.253,-17.904],[31.332,-18.074],[31.445,-18.15],[31.608,-18.181],[31.85,-18.127],[31.975,-18.164],[32.016,-18.266],[32.139,-18.353],[32.121,-18.535],[32.211,-18.83],[32.32,-18.948],[32.653,-18.972],[32.708,-19.001]],[[29.813,-19.453],[29.731,-19.272],[29.828,-19.073],[29.839,-18.846],[29.779,-18.679],[29.828,-18.584],[29.837,-18.386],[30.16,-18.122],[30.173,-18.03],[30.371,-18.018],[30.455,-17.896],[30.723,-17.901],[30.835,-17.84],[30.911,-17.882],[30.972,-17.872]],[[29.842,-19.453],[29.813,-19.453]],[[34.75,-19.636],[34.695,-19.262],[34.822,-19.101],[34.803,-18.883],[34.845,-18.824],[34.86,-18.673],[34.973,-18.558],[35.004,-18.456],[35.159,-18.221]],[[32.708,-19.001],[32.818,-18.922],[33.092,-18.977],[33.128,-19.011],[33.209,-18.946],[33.425,-19.016],[33.49,-19.122],[33.608,-19.068],[33.675,-19.093],[33.728,-19.062],[33.827,-19.084],[33.859,-19.172],[33.929,-19.222],[34.224,-19.275],[34.75,-19.636]],[[17.331,-19.639],[17.612,-19.264],[17.709,-19.242]],[[30.002,-19.663],[29.922,-19.513],[29.842,-19.453]],[[17.331,-19.639],[17.835,-19.691],[18.099,-19.559]],[[29.65,-19.701],[29.689,-19.683],[29.813,-19.453]],[[34.75,-19.636],[34.844,-19.776],[34.844,-19.854]],[[47.028,-19.878],[47.141,-19.756],[47.169,-19.685],[47.153,-19.638],[47.25,-19.631],[47.291,-19.667],[47.313,-19.625],[47.355,-19.636],[47.369,-19.574],[47.423,-19.548],[47.446,-19.335],[47.485,-19.295],[47.502,-19.147],[47.551,-19.097],[47.531,-19.043],[47.555,-18.954]],[[30.834,-20.055],[30.849,-19.768],[30.807,-19.541],[30.639,-19.391],[30.554,-19.381],[30.51,-19.319],[30.528,-19.288],[30.472,-19.275],[30.338,-19.326],[30.162,-19.34],[30.04,-19.412],[29.842,-19.453]],[[28.794,-20.088],[28.96,-19.979],[29.059,-19.853],[29.153,-19.788],[29.236,-19.765],[29.355,-19.787],[29.471,-19.756],[29.528,-19.706],[29.65,-19.701]],[[28.57,-20.129],[28.794,-20.088]],[[28.57,-20.129],[28.411,-20.029],[28.031,-19.581],[27.763,-19.363],[27.656,-19.235],[26.782,-18.554],[26.549,-18.544],[26.509,-18.486],[26.551,-18.365],[26.437,-18.352]],[[29.65,-19.701],[29.881,-20.044],[29.867,-20.285]],[[29.867,-20.285],[30.046,-20.324]],[[16.649,-20.456],[16.735,-20.381],[16.871,-20.172],[17.008,-20.083],[17.331,-19.639]],[[16.155,-20.106],[16.229,-20.083],[16.267,-20.165],[16.421,-20.308],[16.649,-20.456]],[[28.794,-20.088],[28.794,-20.128],[28.89,-20.193],[28.945,-20.315],[29.038,-20.414],[29.056,-20.501],[29.005,-20.629],[29.027,-20.843],[29.003,-20.936],[29.086,-21.018],[29.262,-20.994],[29.315,-21.049],[29.364,-21.052]],[[29.867,-20.285],[29.907,-20.344],[30.053,-20.413],[30.08,-20.493],[30.155,-20.453],[30.256,-20.486],[30.286,-20.559],[30.362,-20.558],[30.412,-20.593],[30.464,-20.886],[30.526,-20.975],[30.647,-21.058],[30.721,-21.234],[30.772,-21.275]],[[31.009,-21.391],[31.242,-21.218],[31.306,-21.128],[31.421,-21.087],[31.447,-21.031],[31.547,-21.014],[31.661,-21.063],[31.756,-21.019],[31.771,-20.974]],[[30.772,-21.275],[31.009,-21.391]],[[27.317,-21.921],[27.354,-21.652],[27.503,-21.168],[27.594,-20.968],[27.62,-20.829],[27.579,-20.717],[27.669,-20.522],[27.84,-20.474],[27.985,-20.496],[28.089,-20.47],[28.136,-20.424],[28.286,-20.412],[28.535,-20.218],[28.57,-20.129]],[[16.649,-20.456],[16.354,-20.677],[16.078,-21.042],[15.946,-21.404],[15.923,-21.638],[15.68,-21.926]],[[27.85,-21.941],[27.753,-21.971],[27.317,-21.921]],[[47.073,-21.451],[47.212,-21.419],[47.309,-21.481],[47.382,-21.471],[47.439,-21.529],[47.492,-21.534],[47.589,-21.699],[47.853,-21.813],[48.033,-22.152]],[[17.085,-22.576],[17.098,-22.356],[17.032,-22.186],[16.826,-21.918],[16.642,-21.878],[16.114,-21.912],[16.005,-21.959],[15.68,-21.926]],[[19.106,-22.387],[18.948,-22.443],[18.861,-22.404],[18.479,-22.397],[18.317,-22.356],[18.133,-22.234],[18.006,-22.278],[17.742,-22.281],[17.606,-22.441],[17.271,-22.557],[17.085,-22.576]],[[15.68,-21.926],[15.465,-22.094],[15.353,-22.109],[15.267,-22.072],[15.102,-22.322],[14.982,-22.447],[14.796,-22.568],[14.677,-22.573],[14.532,-22.678],[14.576,-22.686],[14.536,-22.706],[14.544,-22.887],[14.506,-22.951]],[[29.839,-23.072],[29.66,-23.043],[29.615,-23.001],[29.613,-22.91],[29.864,-22.618],[29.898,-22.509],[30.031,-22.351],[29.985,-22.196],[30.134,-22.093],[30.53,-21.707],[30.769,-21.344],[30.772,-21.275]],[[29.923,-23.494],[29.934,-23.465],[29.826,-23.379],[29.791,-23.313],[29.797,-23.236],[29.911,-23.038],[29.839,-23.072]],[[29.845,-23.686],[29.892,-23.667],[29.928,-23.591],[29.904,-23.512],[29.923,-23.494]],[[31.146,-23.947],[31.082,-24.001],[30.954,-24.346]],[[29.923,-23.494],[29.96,-23.51],[29.952,-23.537],[30.005,-23.519],[30.085,-23.552],[30.118,-23.644],[30.164,-23.656],[30.091,-23.765],[30.163,-23.828],[30.328,-23.896],[30.454,-23.87],[30.699,-24.026],[30.761,-24.035],[30.82,-24.196],[30.954,-24.346]],[[35.377,-23.855],[35.41,-23.915],[35.332,-24.059],[35.331,-24.215],[35.279,-24.245],[35.19,-24.388],[35.011,-24.482]],[[33.978,-24.488],[34.119,-24.359]],[[33.916,-24.274],[33.964,-24.361],[33.978,-24.488]],[[28.726,-24.502],[28.977,-24.27],[29.093,-24.048],[29.332,-24.0]],[[27.662,-23.651],[27.447,-23.729],[27.374,-23.816],[27.358,-23.968],[27.427,-24.293],[27.426,-24.514],[27.392,-24.572]],[[28.726,-24.502],[28.836,-24.624],[29.04,-24.616],[29.233,-24.445],[29.31,-24.324]],[[28.422,-24.697],[28.642,-24.633],[28.726,-24.502]],[[28.119,-24.286],[28.133,-24.363],[28.071,-24.475],[28.115,-24.546],[28.307,-24.605],[28.422,-24.697]],[[33.884,-24.706],[34.19,-24.52]],[[33.884,-24.706],[33.978,-24.488]],[[17.916,-24.883],[17.974,-24.383],[17.583,-24.06],[17.355,-23.524],[17.204,-23.334],[17.149,-23.1],[17.136,-22.73],[17.075,-22.637],[17.085,-22.576]],[[27.392,-24.572],[27.31,-24.677],[27.315,-24.757],[27.252,-24.946]],[[26.969,-24.821],[27.252,-24.946]],[[25.753,-24.997],[25.919,-24.609],[26.08,-24.42],[26.43,-23.797],[26.62,-23.524],[26.878,-22.993],[27.111,-22.611],[27.094,-22.57],[27.155,-22.552],[27.248,-22.321],[27.317,-21.921]],[[33.644,-25.045],[33.804,-24.993],[33.884,-24.706]],[[31.009,-21.391],[31.473,-21.532],[31.484,-21.621],[31.755,-22.261],[32.249,-23.045],[32.503,-23.22],[32.652,-23.965],[32.776,-24.092],[32.903,-24.31],[32.854,-24.441],[33.063,-24.582],[32.665,-24.97],[32.64,-25.022],[32.66,-25.1]],[[29.308,-24.961],[28.924,-24.875],[28.517,-24.958],[28.474,-24.987],[28.426,-25.155],[28.289,-25.208]],[[28.289,-25.208],[28.289,-24.886],[28.398,-24.788],[28.422,-24.697]],[[30.842,-24.932],[30.769,-25.071],[30.807,-25.104],[30.798,-25.154],[30.755,-25.217],[30.734,-25.202],[30.738,-25.245],[30.881,-25.389],[30.947,-25.408],[30.98,-25.469]],[[31.33,-25.539],[31.304,-25.354],[31.341,-25.244],[31.266,-24.97],[31.304,-24.778],[31.157,-24.629],[31.049,-24.591],[31.02,-24.439],[30.954,-24.346]],[[30.98,-25.469],[31.33,-25.539]],[[28.223,-25.595],[28.289,-25.208]],[[32.66,-25.1],[32.591,-25.126],[32.521,-25.221],[32.502,-25.315],[32.254,-25.619]],[[31.33,-25.539],[31.696,-25.432],[31.853,-25.421],[32.017,-25.444],[32.133,-25.575],[32.254,-25.619]],[[28.223,-25.595],[28.047,-25.623]],[[27.783,-25.645],[28.047,-25.623]],[[27.592,-25.371],[27.689,-25.482],[27.782,-25.519],[27.783,-25.645]],[[28.183,-25.656],[28.223,-25.595]],[[28.047,-25.623],[28.183,-25.656]],[[30.25,-25.676],[30.262,-25.645],[30.382,-25.647],[30.453,-25.606],[30.519,-25.62],[30.652,-25.579],[30.756,-25.446],[30.98,-25.469]],[[27.252,-24.946],[27.23,-25.054],[27.264,-25.196],[27.208,-25.338],[27.093,-25.49],[27.254,-25.657],[27.51,-25.682],[27.783,-25.645]],[[28.169,-25.717],[28.183,-25.656]],[[30.062,-25.719],[30.055,-25.586],[30.103,-25.417],[30.235,-25.329],[30.294,-25.239],[30.442,-25.206],[30.534,-24.891],[30.572,-24.856],[30.551,-24.746],[30.504,-24.714],[30.492,-24.652],[30.335,-24.652],[30.295,-24.761],[30.213,-24.733]],[[28.411,-25.729],[28.346,-25.596],[28.223,-25.595]],[[28.169,-25.717],[28.411,-25.729]],[[29.839,-25.42],[29.857,-25.608],[29.71,-25.644],[29.564,-25.757]],[[30.062,-25.719],[30.184,-25.756],[30.25,-25.676]],[[31.33,-25.539],[31.311,-25.604],[31.224,-25.664],[31.1,-25.668],[31.045,-25.723],[31.046,-25.778]],[[29.564,-25.757],[29.728,-25.762],[29.882,-25.806],[30.062,-25.719]],[[25.64,-25.867],[25.572,-25.618],[25.645,-25.263],[25.753,-24.997]],[[29.193,-25.888],[29.256,-25.818],[29.414,-25.826],[29.442,-25.783],[29.564,-25.757]],[[28.411,-25.729],[28.503,-25.723],[28.582,-25.774],[29.099,-25.897],[29.193,-25.888]],[[32.254,-25.619],[32.45,-25.804],[32.491,-25.919]],[[32.66,-25.1],[32.709,-25.261],[32.805,-25.401],[32.743,-25.449],[32.734,-25.517],[32.669,-25.609],[32.672,-25.758],[32.619,-25.916],[32.546,-25.945],[32.491,-25.919]],[[27.531,-25.994],[27.526,-25.935],[27.777,-25.801],[28.02,-25.72],[28.169,-25.717]],[[25.64,-25.867],[25.968,-25.747],[26.074,-25.541],[26.171,-25.517],[26.261,-25.577],[26.433,-25.596],[26.576,-25.659],[26.693,-25.651],[26.782,-25.808],[26.937,-25.902],[27.089,-25.922],[27.316,-26.004],[27.531,-25.994]],[[32.491,-25.919],[32.409,-25.907],[32.311,-26.052]],[[27.716,-26.129],[27.531,-25.994]],[[27.716,-26.129],[27.779,-26.111],[27.983,-26.197]],[[28.459,-26.198],[28.518,-25.974],[28.476,-25.912],[28.481,-25.835],[28.411,-25.729]],[[28.429,-26.201],[28.459,-26.198]],[[28.459,-26.198],[28.749,-26.136],[28.815,-26.062],[29.054,-26.047],[29.193,-25.888]],[[28.327,-26.211],[28.429,-26.201]],[[28.185,-26.214],[28.252,-26.032],[28.169,-25.717]],[[27.983,-26.197],[28.185,-26.214]],[[28.188,-26.217],[28.327,-26.211]],[[28.188,-26.217],[28.185,-26.214]],[[28.459,-26.198],[28.46,-26.222]],[[28.429,-26.201],[28.37,-26.251]],[[28.327,-26.211],[28.37,-26.251]],[[28.44,-26.266],[28.46,-26.222]],[[28.37,-26.251],[28.44,-26.266]],[[28.156,-26.275],[28.188,-26.217]],[[27.822,-26.299],[27.983,-26.197]],[[27.518,-26.312],[27.656,-26.22],[27.716,-26.129]],[[27.518,-26.312],[27.822,-26.299]],[[26.177,-26.146],[26.324,-26.322]],[[29.963,-26.326],[30.061,-26.138],[30.115,-26.091],[30.12,-25.996],[30.246,-25.766],[30.25,-25.676]],[[27.271,-26.378],[27.518,-26.312]],[[26.324,-26.322],[26.695,-26.353],[26.839,-26.314],[26.909,-26.352],[27.094,-26.339],[27.271,-26.378]],[[28.37,-26.251],[28.311,-26.391]],[[28.156,-26.275],[28.311,-26.391]],[[29.482,-26.426],[29.652,-26.447],[29.68,-26.391],[29.75,-26.355],[29.963,-26.326]],[[28.401,-26.462],[28.442,-26.421],[28.439,-26.336],[28.469,-26.307],[28.44,-26.266]],[[28.311,-26.391],[28.401,-26.462]],[[32.311,-26.052],[32.327,-26.096],[32.464,-26.162],[32.622,-26.311],[32.644,-26.469]],[[30.024,-26.47],[29.963,-26.326]],[[30.024,-26.47],[30.129,-26.479],[30.169,-26.446],[30.29,-26.442],[30.354,-26.382],[30.442,-26.386]],[[28.46,-26.222],[28.837,-26.374],[29.046,-26.361],[29.081,-26.413],[29.267,-26.506],[29.369,-26.512],[29.482,-26.426]],[[25.983,-26.524],[26.324,-26.322]],[[27.849,-26.6],[27.889,-26.516],[27.822,-26.299]],[[27.968,-26.62],[28.156,-26.275]],[[28.401,-26.462],[28.365,-26.511],[28.389,-26.546],[28.557,-26.616],[28.585,-26.657]],[[27.937,-26.66],[27.968,-26.62]],[[27.849,-26.6],[27.937,-26.66]],[[32.311,-26.052],[32.196,-26.219],[32.059,-26.174],[32.027,-26.241],[31.804,-26.393],[31.78,-26.646],[31.743,-26.677]],[[31.743,-26.677],[31.588,-26.686],[31.397,-26.619],[31.27,-26.482],[31.132,-26.447],[31.062,-26.389],[31.035,-26.296],[30.997,-26.283],[31.004,-26.2]],[[27.084,-26.688],[27.444,-26.591],[27.486,-26.538],[27.849,-26.6]],[[27.084,-26.688],[27.169,-26.439],[27.271,-26.378]],[[28.513,-26.778],[28.507,-26.715],[28.585,-26.657]],[[28.513,-26.778],[28.341,-26.742],[28.206,-26.654],[28.137,-26.667],[27.968,-26.62]],[[25.997,-26.805],[25.944,-26.628],[25.983,-26.524]],[[17.79,-26.82],[17.804,-26.825]],[[17.804,-26.825],[17.966,-26.775],[18.113,-26.622],[18.18,-26.413],[18.107,-26.201],[18.114,-25.899],[18.071,-25.756],[17.964,-25.481],[17.862,-25.353],[17.817,-25.231],[17.837,-25.129],[17.909,-25.012],[17.916,-24.883]],[[17.79,-26.82],[17.671,-26.81],[17.577,-26.863],[17.473,-26.87]],[[17.473,-26.87],[17.267,-26.787],[17.17,-26.702],[17.104,-26.713],[17.025,-26.672],[16.863,-26.694],[16.657,-26.612],[16.453,-26.624],[16.299,-26.69],[16.229,-26.655],[16.144,-26.683],[16.106,-26.622],[15.989,-26.597],[15.608,-26.594],[15.299,-26.737],[15.181,-26.713],[15.15,-26.639]],[[26.663,-26.889],[27.044,-26.743],[27.084,-26.688]],[[25.997,-26.805],[26.265,-26.75],[26.436,-26.773],[26.622,-26.896],[26.663,-26.889]],[[27.817,-26.912],[27.901,-26.802],[27.937,-26.66]],[[26.644,-26.966],[26.663,-26.889]],[[28.585,-26.657],[28.804,-26.768],[29.066,-26.825],[29.279,-26.988]],[[27.817,-26.912],[27.719,-27.048]],[[27.719,-27.048],[27.663,-26.99],[27.461,-26.914],[27.38,-26.998]],[[26.754,-27.09],[26.644,-26.966]],[[25.985,-27.323],[26.281,-27.221],[26.644,-26.966]],[[25.985,-27.323],[25.952,-27.271],[25.974,-27.174],[25.948,-26.959],[25.997,-26.805]],[[29.879,-27.378],[29.9,-27.352],[30.142,-27.342],[30.09,-27.255],[29.891,-27.088],[29.764,-26.863],[29.592,-26.705],[29.482,-26.426]],[[29.279,-26.988],[29.489,-27.143],[29.724,-27.211],[29.879,-27.378]],[[24.713,-27.404],[24.765,-26.905],[25.424,-26.164],[25.64,-25.867]],[[24.713,-27.404],[25.064,-27.237],[25.324,-27.17],[25.448,-26.858],[25.458,-26.684],[25.493,-26.653],[25.682,-26.545],[25.983,-26.524]],[[29.279,-26.988],[29.191,-27.069],[29.114,-27.084],[29.083,-27.187],[29.111,-27.394],[29.17,-27.429]],[[31.743,-26.677],[31.821,-26.847],[31.941,-26.883],[31.933,-27.23],[31.911,-27.317],[31.85,-27.345],[31.863,-27.381],[31.919,-27.387],[31.95,-27.486]],[[27.294,-27.583],[27.719,-27.048]],[[26.754,-27.09],[27.171,-27.433],[27.252,-27.462],[27.294,-27.583]],[[26.541,-27.67],[26.649,-27.547],[26.592,-27.396],[26.638,-27.376],[26.754,-27.09]],[[27.218,-27.686],[27.294,-27.583]],[[30.882,-27.726],[30.815,-27.634],[30.78,-27.5],[30.828,-27.408],[30.87,-27.388],[30.884,-27.302],[30.961,-27.252],[30.821,-27.134],[30.759,-26.923],[30.445,-26.811],[30.305,-26.722],[30.193,-26.713],[30.177,-26.656],[29.996,-26.536],[30.024,-26.47]],[[31.013,-27.707],[30.882,-27.726]],[[30.825,-27.766],[30.882,-27.726]],[[29.879,-27.378],[29.864,-27.497],[29.956,-27.646],[29.962,-27.714],[29.935,-27.744],[29.967,-27.807]],[[30.29,-27.676],[30.092,-27.801],[29.967,-27.807]],[[22.994,-27.831],[22.95,-27.521],[23.006,-27.372],[22.961,-27.194]],[[26.991,-28.001],[27.108,-27.875],[27.218,-27.686]],[[26.991,-28.001],[26.732,-27.951],[26.644,-27.744],[26.541,-27.67]],[[27.866,-28.035],[27.864,-27.981],[27.974,-27.787],[28.124,-27.639],[27.963,-27.338],[27.934,-27.174],[27.849,-27.069],[27.817,-26.912]],[[27.866,-28.035],[27.838,-28.038]],[[27.838,-28.038],[27.762,-28.035],[27.426,-27.872],[27.218,-27.686]],[[24.874,-28.069],[25.173,-27.892],[25.253,-27.79],[25.418,-27.688],[25.604,-27.638],[25.776,-27.469],[25.985,-27.323]],[[24.874,-28.069],[24.713,-27.404]],[[19.438,-28.144],[19.198,-28.081],[19.077,-28.001],[18.744,-28.019],[18.599,-27.839],[18.178,-27.664],[18.111,-27.594],[17.966,-27.526],[17.804,-26.825]],[[29.967,-27.807],[29.971,-27.884],[30.069,-28.05],[30.14,-28.09],[30.155,-28.157]],[[30.155,-28.157],[30.296,-28.146],[30.444,-27.98],[30.674,-27.861],[30.736,-27.786],[30.825,-27.766]],[[28.305,-28.212],[28.476,-27.758],[28.482,-27.626],[28.542,-27.488],[28.509,-27.263],[28.62,-27.069],[28.513,-26.778]],[[28.287,-28.228],[28.305,-28.212]],[[28.287,-28.228],[28.08,-28.131],[27.993,-28.128],[27.866,-28.035]],[[28.982,-27.849],[28.984,-27.988],[29.117,-28.256]],[[29.117,-28.256],[29.057,-28.276],[28.826,-28.207],[28.674,-28.201],[28.492,-28.124],[28.305,-28.212]],[[26.541,-27.67],[26.361,-27.852],[26.269,-28.1],[26.155,-28.282]],[[21.214,-28.447],[21.128,-28.409],[20.87,-28.427],[20.657,-28.391],[20.459,-28.256],[20.062,-28.11],[19.788,-28.127],[19.586,-28.09],[19.438,-28.144]],[[30.155,-28.157],[30.067,-28.366],[29.935,-28.412],[29.791,-28.54]],[[29.791,-28.54],[29.752,-28.541],[29.687,-28.445],[29.577,-28.398],[29.156,-28.337],[29.117,-28.256]],[[27.838,-28.038],[27.539,-28.457],[27.525,-28.536],[27.436,-28.656]],[[30.825,-27.766],[30.839,-27.835],[30.969,-27.94],[31.032,-28.104],[31.08,-28.144],[31.211,-28.21],[31.291,-28.214],[31.372,-28.281],[31.573,-28.293],[31.638,-28.366],[31.703,-28.385],[31.726,-28.452],[31.907,-28.558],[32.014,-28.692]],[[32.015,-28.693],[32.157,-28.439],[32.289,-28.301],[32.306,-28.151],[32.276,-27.975],[31.95,-27.486]],[[32.014,-28.692],[32.015,-28.693]],[[24.773,-28.694],[24.757,-28.573],[24.874,-28.069]],[[24.773,-28.694],[24.611,-28.534],[24.469,-28.512],[24.215,-28.301],[24.129,-28.301],[24.033,-28.243],[23.814,-28.266],[23.52,-28.365],[23.421,-28.349],[23.285,-28.255],[23.021,-28.297],[23.005,-28.26],[23.06,-27.986],[22.994,-27.831]],[[32.014,-28.692],[31.966,-28.755]],[[31.912,-28.758],[31.966,-28.689],[32.014,-28.692]],[[31.966,-28.755],[31.912,-28.758]],[[20.606,-28.764],[20.638,-28.708],[20.788,-28.749],[20.899,-28.683],[20.971,-28.692],[21.108,-28.587],[21.164,-28.476],[21.214,-28.447]],[[24.772,-28.774],[24.773,-28.694]],[[31.966,-28.755],[32.086,-28.777]],[[21.676,-28.939],[21.754,-28.935],[21.834,-28.812],[21.937,-28.785],[22.19,-28.626],[22.71,-28.051],[22.839,-28.048],[22.841,-27.981],[22.994,-27.831]],[[21.214,-28.447],[21.311,-28.513],[21.353,-28.6],[21.549,-28.736],[21.676,-28.939]],[[29.791,-28.54],[29.856,-28.619],[29.819,-28.685],[29.817,-28.815],[29.766,-28.879],[29.786,-28.974]],[[29.357,-28.724],[29.475,-28.736],[29.476,-28.777],[29.572,-28.82],[29.619,-28.933],[29.677,-28.972],[29.786,-28.974]],[[31.57,-29.023],[31.682,-29.016],[31.823,-28.922],[31.885,-28.86],[31.912,-28.758]],[[31.57,-29.023],[31.452,-28.874]],[[27.439,-29.093],[27.603,-28.894],[27.713,-28.858],[27.812,-28.895],[27.912,-28.816],[27.995,-28.817],[28.075,-28.73],[28.071,-28.668],[28.133,-28.577],[28.124,-28.527],[28.236,-28.371],[28.287,-28.228]],[[26.228,-29.113],[26.336,-28.989],[26.368,-28.84],[26.456,-28.696],[26.699,-28.462],[26.839,-28.164],[26.991,-28.001]],[[26.228,-29.113],[26.207,-29.13]],[[26.545,-29.154],[26.369,-29.157],[26.228,-29.113]],[[26.207,-29.13],[25.963,-29.17],[25.643,-29.109],[25.411,-29.101],[25.083,-28.981],[24.772,-28.774]],[[27.289,-29.178],[27.439,-29.093]],[[26.545,-29.154],[27.289,-29.178]],[[27.439,-29.093],[27.446,-29.168],[27.474,-29.184]],[[27.289,-29.178],[27.474,-29.304]],[[24.772,-28.774],[24.706,-28.818],[24.503,-29.265],[24.356,-29.421]],[[23.781,-29.051],[23.904,-29.026],[24.018,-29.271],[24.225,-29.291],[24.356,-29.421]],[[30.869,-28.962],[30.793,-28.985],[30.75,-29.082],[30.679,-29.051],[30.632,-29.086],[30.581,-29.065],[30.623,-29.144],[30.59,-29.214],[30.624,-29.341],[30.576,-29.38],[30.494,-29.357],[30.417,-29.411],[30.364,-29.603]],[[29.786,-28.974],[29.837,-28.966],[29.896,-29.019],[29.876,-29.113],[29.974,-29.179],[29.985,-29.356],[30.111,-29.465],[30.19,-29.473],[30.364,-29.603]],[[30.364,-29.603],[30.502,-29.717]],[[30.502,-29.717],[30.598,-29.738]],[[30.376,-29.63],[30.393,-29.739]],[[30.393,-29.739],[30.502,-29.717]],[[21.676,-28.939],[21.821,-29.117],[21.942,-29.37],[22.166,-29.403],[22.425,-29.625],[22.672,-29.777]],[[30.285,-29.866],[30.393,-29.739]],[[30.376,-29.63],[30.289,-29.667],[30.246,-29.616],[30.231,-29.658],[30.176,-29.663],[30.105,-29.729],[30.079,-29.71],[29.995,-29.801],[29.949,-29.77],[29.889,-29.834],[29.911,-29.858],[29.884,-29.885]],[[30.598,-29.738],[30.849,-29.784],[30.912,-29.889]],[[30.598,-29.738],[30.632,-29.805],[30.684,-29.795],[30.718,-29.835],[30.912,-29.889]],[[29.508,-29.785],[29.615,-29.776],[29.675,-29.794],[29.717,-29.866],[29.884,-29.885]],[[31.57,-29.023],[31.405,-29.12],[31.351,-29.292],[31.011,-29.686],[31.028,-29.836],[30.979,-29.91]],[[30.912,-29.889],[30.979,-29.91]],[[29.884,-29.885],[29.867,-29.922],[29.894,-29.944]],[[22.328,-29.955],[22.529,-29.933],[22.584,-29.837],[22.672,-29.777]],[[26.207,-29.13],[26.055,-29.531],[25.726,-30.098],[25.705,-30.271]],[[25.705,-30.271],[25.571,-30.268],[25.434,-30.19],[25.429,-29.796],[25.242,-29.71],[25.014,-29.406]],[[29.894,-29.944],[29.834,-30.02],[29.684,-30.079],[29.574,-30.242],[29.489,-30.255],[29.45,-30.297]],[[30.979,-29.91],[30.7,-30.352]],[[29.894,-29.944],[29.932,-30.05],[30.194,-30.255],[30.298,-30.281],[30.375,-30.254],[30.449,-30.287],[30.506,-30.27],[30.576,-30.333],[30.7,-30.352]],[[29.45,-30.297],[29.344,-30.228],[29.253,-30.279],[29.13,-30.276],[29.031,-30.386],[28.812,-30.328]],[[19.675,-30.411],[19.782,-30.374],[19.829,-30.255],[20.038,-30.125],[20.071,-30.066],[20.209,-29.999],[20.305,-29.849],[20.647,-29.638],[20.718,-29.623],[20.842,-29.489],[20.955,-29.457],[21.041,-29.315],[21.164,-29.346],[21.444,-29.051],[21.676,-28.939]],[[29.45,-30.297],[29.428,-30.4],[29.489,-30.464],[29.41,-30.534]],[[24.356,-29.421],[24.216,-29.574],[24.15,-30.059],[24.095,-30.183],[24.096,-30.335],[24.006,-30.642]],[[22.672,-29.777],[22.742,-29.674],[22.853,-29.735],[23.109,-30.146],[23.209,-30.226],[23.277,-30.363],[23.463,-30.573],[24.006,-30.642]],[[24.006,-30.642],[24.015,-30.664]],[[26.697,-30.69],[26.808,-30.441],[27.105,-30.387],[27.084,-30.283],[27.13,-30.075],[27.068,-29.887],[27.078,-29.775],[26.963,-29.69],[26.706,-29.578],[26.661,-29.422],[26.563,-29.258],[26.545,-29.154]],[[29.883,-30.569],[29.89,-30.607],[30.024,-30.694],[30.016,-30.723],[30.055,-30.758],[30.184,-30.782],[30.263,-30.73],[30.404,-30.781],[30.7,-30.352]],[[26.326,-30.947],[26.331,-30.896],[26.432,-30.811],[26.472,-30.734],[26.697,-30.69]],[[25.705,-30.271],[25.824,-30.344],[26.073,-30.667],[26.126,-30.696],[26.18,-30.809],[26.326,-30.947]],[[27.605,-30.968],[27.566,-30.955],[27.557,-30.874],[27.499,-30.85],[27.454,-30.894],[27.412,-30.831],[27.306,-30.867],[27.204,-30.782],[27.214,-30.731],[27.187,-30.711],[27.114,-30.705],[26.98,-30.772],[26.888,-30.775],[26.729,-30.751],[26.697,-30.69]],[[25.705,-30.271],[25.664,-30.368],[25.521,-30.506],[25.446,-30.631],[25.141,-30.717],[24.95,-31.052],[24.942,-31.169]],[[24.015,-30.664],[24.596,-30.991],[24.79,-31.036],[24.942,-31.169]],[[20.337,-31.236],[20.346,-31.007],[20.447,-30.875]],[[26.294,-31.263],[26.29,-31.036],[26.326,-30.947]],[[20.932,-31.356],[20.827,-31.315],[20.435,-31.285],[20.337,-31.236]],[[26.816,-31.117],[26.708,-31.248],[26.621,-31.281],[26.491,-31.264],[26.366,-31.387]],[[26.294,-31.263],[26.279,-31.321],[26.366,-31.387]],[[25.506,-31.439],[25.779,-31.339],[25.803,-31.298],[25.959,-31.232],[26.235,-31.29],[26.294,-31.263]],[[24.015,-30.664],[23.933,-30.904],[23.752,-31.036],[23.608,-31.211],[23.453,-31.265],[23.177,-31.475]],[[23.177,-31.475],[23.081,-31.354],[22.844,-31.214],[22.754,-31.092],[22.674,-31.076],[22.562,-30.96],[22.501,-30.937],[22.325,-30.99],[22.141,-30.972],[22.0,-30.999],[21.633,-31.114],[21.53,-31.211],[21.416,-31.252],[21.187,-31.307],[21.079,-31.3],[20.932,-31.356]],[[20.337,-31.236],[20.264,-31.275],[20.228,-31.375],[19.931,-31.488],[19.76,-31.472]],[[25.119,-31.492],[25.271,-31.443],[25.506,-31.439]],[[24.942,-31.169],[24.958,-31.318],[25.119,-31.492]],[[26.542,-31.528],[26.869,-31.484],[27.023,-31.374],[27.164,-31.462],[27.293,-31.443],[27.35,-31.47],[27.376,-31.431],[27.789,-31.373],[27.821,-31.324],[27.974,-31.373],[28.165,-31.2],[28.318,-31.17],[28.343,-31.068]],[[26.366,-31.387],[26.465,-31.499],[26.486,-31.474],[26.542,-31.528]],[[18.456,-31.609],[18.576,-31.561],[18.641,-31.432],[18.862,-31.272],[19.029,-30.897],[19.192,-30.808],[19.275,-30.644],[19.443,-30.63],[19.675,-30.411]],[[18.253,-31.023],[18.182,-31.078],[18.101,-31.227],[18.213,-31.331],[18.285,-31.514],[18.408,-31.539],[18.456,-31.609]],[[25.506,-31.439],[25.503,-31.571],[25.565,-31.605],[25.61,-31.686],[25.786,-31.656]],[[26.542,-31.528],[26.546,-31.616],[26.712,-31.762],[26.769,-31.869]],[[26.769,-31.869],[26.388,-31.939],[26.266,-32.008]],[[27.518,-32.66],[27.594,-32.599],[27.913,-32.576],[27.941,-32.529],[27.991,-32.526],[27.958,-32.495],[28.015,-32.455],[27.98,-32.422],[28.023,-32.354],[28.206,-32.302],[28.196,-32.243],[28.284,-32.09],[28.246,-32.034],[28.313,-31.934],[28.454,-31.898],[28.557,-31.774],[28.707,-31.702],[28.734,-31.609],[28.79,-31.576]],[[26.769,-31.869],[26.802,-31.901],[26.877,-31.893],[26.957,-31.93],[27.06,-32.043],[27.081,-32.181],[27.176,-32.337],[27.382,-32.449],[27.44,-32.531],[27.424,-32.589],[27.518,-32.66]],[[25.119,-31.492],[25.244,-31.608],[25.319,-31.786],[25.48,-31.932],[25.534,-32.071],[25.662,-32.217],[25.678,-32.371],[25.742,-32.461],[25.733,-32.634],[25.836,-32.708],[25.797,-32.742]],[[25.797,-32.742],[25.797,-32.765]],[[26.778,-32.551],[26.676,-32.557],[26.667,-32.628],[26.59,-32.709],[26.579,-32.761],[26.606,-32.783]],[[25.592,-32.716],[25.639,-32.793],[25.684,-32.763],[25.797,-32.765]],[[25.797,-32.742],[25.862,-32.732],[25.898,-32.66],[25.95,-32.658],[25.988,-32.694],[26.301,-32.709],[26.49,-32.793],[26.606,-32.783]],[[27.518,-32.66],[27.548,-32.726],[27.494,-32.764],[27.498,-32.856]],[[26.606,-32.783],[26.844,-32.791],[27.048,-32.848],[27.194,-32.822],[27.378,-32.881],[27.498,-32.856]],[[18.063,-32.94],[18.291,-32.692],[18.367,-32.558],[18.377,-32.24],[18.262,-31.745],[18.342,-31.628],[18.456,-31.609]],[[17.966,-33.003],[18.063,-32.94]],[[17.927,-33.016],[17.987,-32.924],[18.063,-32.94]],[[24.331,-33.033],[24.249,-32.893],[24.316,-32.794],[24.316,-32.728],[24.494,-32.524],[24.554,-32.284],[24.533,-32.218],[24.683,-32.12],[24.804,-32.083],[24.816,-32.048],[24.756,-31.912],[24.787,-31.799],[24.924,-31.764],[25.019,-31.495],[25.119,-31.492]],[[27.498,-32.856],[27.864,-32.971],[27.869,-33.034]],[[21.364,-33.099],[21.586,-33.042],[21.721,-32.942],[21.922,-32.866],[21.984,-32.746],[22.12,-32.642],[22.507,-32.423],[22.588,-32.334],[22.841,-32.21],[22.874,-32.148],[23.005,-32.112],[23.019,-31.986],[23.192,-31.742],[23.156,-31.651],[23.177,-31.475]],[[25.797,-32.765],[25.781,-32.894],[25.808,-32.993],[25.905,-33.131],[25.909,-33.218],[26.082,-33.316]],[[18.997,-33.009],[18.875,-33.332],[18.963,-33.444]],[[18.694,-33.476],[18.724,-33.459]],[[18.456,-31.609],[18.628,-31.748],[18.589,-31.844],[18.61,-31.961],[18.574,-32.022],[18.587,-32.315],[18.707,-32.466],[18.758,-32.612],[18.854,-32.668],[18.868,-32.71],[18.828,-32.892],[18.757,-32.911],[18.754,-32.962],[18.684,-32.947],[18.649,-33.434],[18.694,-33.476]],[[25.689,-33.544],[25.729,-33.44],[26.022,-33.442],[26.082,-33.316]],[[25.689,-33.544],[25.438,-33.405]],[[18.694,-33.476],[18.645,-33.574]],[[18.063,-32.94],[18.131,-32.975],[18.252,-32.9],[18.306,-32.926],[18.352,-33.077],[18.404,-33.129],[18.355,-33.317],[18.367,-33.372],[18.485,-33.408],[18.645,-33.574]],[[25.689,-33.544],[25.689,-33.616]],[[22.204,-33.618],[22.578,-33.499],[22.909,-33.467],[22.989,-33.488],[23.085,-33.452],[23.149,-33.333],[23.369,-33.337],[23.572,-33.248],[23.785,-33.215],[23.832,-33.149],[23.989,-33.057],[24.331,-33.033]],[[26.082,-33.316],[26.122,-33.294],[26.332,-33.338],[26.356,-33.311],[26.543,-33.312],[26.74,-33.377],[26.796,-33.365],[26.882,-33.429],[26.82,-33.479],[26.9,-33.549],[26.87,-33.618]],[[21.676,-33.546],[21.784,-33.621],[22.204,-33.618]],[[21.364,-33.099],[20.648,-33.232],[20.114,-33.281],[19.975,-33.391],[19.763,-33.427],[19.567,-33.504],[19.508,-33.564],[19.501,-33.619],[19.437,-33.648]],[[19.437,-33.648],[19.301,-33.609],[19.211,-33.54],[19.179,-33.392],[19.117,-33.335],[19.035,-33.306],[18.963,-33.444]],[[26.416,-33.652],[26.287,-33.618],[26.209,-33.631],[26.154,-33.689],[25.963,-33.641],[25.817,-33.684],[25.689,-33.616]],[[18.963,-33.444],[18.99,-33.662],[18.948,-33.773]],[[18.948,-33.773],[18.823,-33.829]],[[18.823,-33.829],[18.721,-33.846]],[[18.645,-33.574],[18.708,-33.704],[18.721,-33.846]],[[25.593,-33.858],[25.653,-33.78],[25.689,-33.616]],[[24.331,-33.033],[24.437,-33.157],[24.58,-33.229],[25.277,-33.436],[25.341,-33.486],[25.462,-33.497],[25.476,-33.614],[25.451,-33.711],[25.403,-33.759],[25.593,-33.858]],[[18.721,-33.846],[18.641,-33.907]],[[18.948,-33.773],[18.958,-33.859],[19.122,-33.91]],[[18.641,-33.907],[18.465,-33.932]],[[18.465,-33.932],[18.426,-33.922]],[[22.442,-33.971],[22.475,-33.932],[22.412,-33.903],[22.426,-33.846],[22.336,-33.812],[22.204,-33.618]],[[25.593,-33.858],[25.624,-33.974]],[[18.641,-33.907],[18.72,-34.008]],[[18.823,-33.829],[18.844,-33.943],[18.72,-34.008]],[[25.624,-33.974],[25.511,-33.981],[25.381,-33.919],[25.073,-33.896],[25.016,-33.863],[24.948,-33.902],[24.89,-34.019],[24.781,-34.033],[24.643,-33.991],[24.579,-34.009],[23.447,-33.731],[23.177,-33.739]],[[22.442,-33.971],[22.529,-34.0],[22.694,-33.983],[22.999,-34.061],[23.037,-34.029]],[[22.088,-34.134],[22.142,-34.084],[22.386,-34.015],[22.442,-33.971]],[[22.088,-34.134],[22.141,-34.184]],[[18.465,-33.932],[18.49,-34.075],[18.434,-34.131],[18.438,-34.191]],[[19.437,-33.648],[19.8,-33.798],[20.059,-33.833],[20.108,-33.868],[20.112,-33.94],[20.294,-34.054],[20.437,-34.03],[20.589,-34.062],[20.686,-34.119],[20.722,-34.097],[20.794,-34.127],[20.909,-34.08],[21.168,-34.059],[21.263,-34.097],[21.271,-34.135],[21.544,-34.211],[22.088,-34.134]],[[18.72,-34.008],[18.906,-34.123],[18.936,-34.109],[18.928,-34.147],[19.007,-34.136],[19.179,-34.22],[19.317,-34.196],[19.429,-34.234],[19.578,-34.211],[19.65,-34.26],[19.861,-34.258],[19.945,-34.299],[19.915,-34.42],[20.04,-34.482],[20.03,-34.521]]]}},{"type":"Feature","properties":{"kind":"road"},"geometry":{"type":"MultiLineString","coordinates":[[[27.151,-32.298],[27.223,-32.398],[27.437,-32.484],[27.44,-32.518],[27.66,-32.649],[27.897,-32.976]],[[27.897,-32.976],[27.91,-32.994]],[[10.195,36.78],[10.24,36.743]],[[3.125,36.735],[3.08,36.747]],[[3.315,36.743],[3.125,36.735]],[[3.558,36.689],[3.546,36.718],[3.315,36.743]],[[3.08,36.747],[3.08,36.698],[3.022,36.681]],[[9.58,36.669],[9.378,36.685],[9.221,36.735]],[[10.178,36.797],[10.116,36.801],[9.84,36.698],[9.733,36.623],[9.605,36.652]],[[3.022,36.681],[2.969,36.665],[2.911,36.578]],[[3.591,36.57],[3.596,36.656],[3.558,36.689]],[[2.911,36.578],[2.857,36.491]],[[9.209,36.735],[9.126,36.636],[8.978,36.611],[8.953,36.57],[8.776,36.491]],[[3.728,36.479],[3.591,36.57]],[[2.857,36.491],[2.758,36.442]],[[2.758,36.442],[2.622,36.454]],[[7.745,36.475],[7.629,36.409],[7.514,36.434]],[[10.24,36.743],[10.38,36.673],[10.467,36.582],[10.529,36.392]],[[3.888,36.384],[3.814,36.454],[3.728,36.479]],[[4.268,36.33],[3.963,36.326],[3.913,36.335],[3.888,36.384]],[[8.776,36.491],[8.702,36.442],[8.409,36.458],[8.264,36.405],[8.062,36.38],[7.972,36.302]],[[7.959,36.302],[7.823,36.372],[7.811,36.446],[7.745,36.475]],[[2.606,36.45],[2.482,36.392],[2.424,36.318],[2.239,36.273]],[[6.611,36.368],[6.697,36.248]],[[7.448,36.438],[7.291,36.425],[7.188,36.318],[6.961,36.207],[6.833,36.198],[6.697,36.248]],[[6.697,36.248],[6.705,36.186]],[[2.239,36.273],[1.331,36.165]],[[6.611,36.368],[6.487,36.273],[6.351,36.227],[6.281,36.236],[6.194,36.165],[6.066,36.132],[5.406,36.186]],[[10.529,36.392],[10.434,36.264],[10.389,36.128]],[[5.406,36.186],[5.126,36.17],[4.763,36.075]],[[4.763,36.075],[4.552,36.062],[4.375,36.112],[4.416,36.198],[4.392,36.26],[4.346,36.326],[4.268,36.33]],[[10.389,36.128],[10.417,36.017],[10.619,35.827]],[[1.331,36.165],[1.154,36.05],[1.067,36.042],[0.746,35.885],[0.643,35.77]],[[-5.371,35.864],[-5.486,35.873],[-5.618,35.811],[-5.721,35.815],[-5.783,35.77]],[[0.643,35.77],[0.506,35.72]],[[-5.371,35.864],[-5.371,35.728],[-5.326,35.675],[-5.354,35.576]],[[0.506,35.72],[0.35,35.555],[0.362,35.534],[0.263,35.497],[0.148,35.386]],[[10.574,35.716],[10.632,35.431],[10.69,35.308]],[[-0.471,35.184],[-0.64,35.188]],[[0.148,35.386],[0.065,35.341],[0.011,35.229],[-0.187,35.2],[-0.257,35.242],[-0.471,35.184]],[[-0.64,35.188],[-0.904,35.027],[-0.937,34.92],[-1.193,34.854],[-1.325,34.883]],[[-1.733,34.854],[-1.807,34.825]],[[-1.325,34.883],[-1.614,34.817],[-1.733,34.854]],[[10.69,35.308],[10.751,35.085],[10.731,34.771]],[[-5.779,35.757],[-5.952,35.633],[-6.031,35.46],[-6.027,35.303],[-6.093,35.246],[-6.093,35.209],[-6.15,35.184],[-6.15,35.13],[-6.105,35.077],[-5.924,34.99],[-5.911,34.891],[-5.973,34.846],[-6.01,34.755]],[[-1.807,34.825],[-1.919,34.697]],[[-2.735,34.565],[-2.397,34.582],[-1.923,34.693]],[[-3.296,34.239],[-3.156,34.276],[-2.896,34.408],[-2.88,34.483],[-2.735,34.565]],[[-4.01,34.223],[-3.767,34.264],[-3.527,34.215],[-3.296,34.239]],[[-4.983,34.07],[-5.103,34.037]],[[-6.802,34.033],[-6.666,34.223],[-6.427,34.351],[-6.402,34.462],[-6.006,34.689]],[[-4.946,34.062],[-4.645,33.988],[-4.583,34.087],[-4.513,34.128],[-4.377,34.149],[-4.286,34.202],[-4.01,34.223]],[[-5.103,34.037],[-5.371,33.918],[-5.54,33.889]],[[-6.827,34.017],[-7.041,33.852]],[[-6.072,33.827],[-6.188,33.831],[-6.439,33.922],[-6.555,34.025],[-6.802,34.033]],[[-5.54,33.889],[-5.775,33.901],[-6.072,33.827]],[[-7.041,33.852],[-7.264,33.765],[-7.557,33.575]],[[-7.586,33.567],[-7.528,33.439],[-7.586,33.262]],[[-7.586,33.262],[-7.602,32.998]],[[-7.586,33.567],[-8.068,33.34],[-8.505,33.233],[-8.481,33.08],[-8.526,32.825]],[[-7.61,32.961],[-7.763,32.837],[-7.804,32.606],[-7.907,32.503],[-7.953,32.243]],[[-7.953,32.243],[-7.936,31.893],[-7.986,31.649]],[[-7.994,31.629],[-8.237,31.629]],[[-8.237,31.629],[-8.67,31.579],[-8.761,31.538]],[[31.704,31.394],[31.782,31.427]],[[31.704,31.394],[31.567,31.377]],[[29.934,31.216],[29.988,31.241]],[[29.926,31.212],[29.934,31.216]],[[31.567,31.377],[31.526,31.377],[31.501,31.278],[31.522,31.204]],[[29.843,31.15],[29.926,31.212]],[[29.934,31.216],[30.128,31.121]],[[29.777,31.113],[29.843,31.15]],[[29.724,31.08],[29.777,31.113]],[[31.514,31.2],[31.448,31.187],[31.386,31.064]],[[29.761,31.076],[29.786,31.035]],[[30.128,31.121],[30.446,31.022]],[[31.237,30.969],[31.345,31.064]],[[31.167,30.973],[31.237,30.969]],[[32.306,30.903],[32.297,31.266]],[[30.495,30.989],[30.644,30.882]],[[31.077,30.878],[31.167,30.973]],[[31.015,30.812],[31.077,30.878]],[[30.66,30.87],[30.743,30.808],[30.969,30.795]],[[29.786,31.035],[29.901,30.841],[30.017,30.729]],[[31.019,30.783],[31.097,30.639]],[[32.31,30.833],[32.33,30.663],[32.269,30.593]],[[31.097,30.639],[31.147,30.552]],[[32.194,30.577],[32.137,30.507]],[[31.147,30.552],[31.184,30.461]],[[32.112,30.49],[32.009,30.408]],[[30.017,30.729],[30.371,30.395]],[[-8.761,31.538],[-8.848,31.332],[-8.852,31.158],[-8.939,31.105],[-8.996,31.117],[-9.05,31.055],[-9.128,30.779],[-9.186,30.742],[-9.202,30.688],[-9.347,30.593],[-9.339,30.54],[-9.388,30.433],[-9.557,30.375]],[[32.009,30.408],[31.918,30.362]],[[30.371,30.395],[30.582,30.301]],[[31.918,30.362],[31.716,30.243]],[[31.716,30.243],[31.642,30.197],[31.431,30.156]],[[31.184,30.461],[31.229,30.144]],[[31.848,30.094],[31.741,30.111]],[[31.967,30.086],[31.848,30.094]],[[32.339,30.086],[32.211,30.082]],[[31.741,30.111],[31.266,30.07]],[[31.431,30.156],[31.266,30.07]],[[32.211,30.082],[32.108,30.061],[31.967,30.086]],[[32.508,29.999],[32.339,30.086]],[[30.582,30.301],[31.13,29.995]],[[31.101,29.946],[31.13,29.995]],[[31.283,29.971],[31.266,29.946]],[[31.101,29.946],[31.072,29.867]],[[31.213,30.016],[31.275,29.9],[31.279,29.797]],[[31.072,29.867],[30.891,29.513]],[[30.891,29.513],[30.85,29.488]],[[30.85,29.488],[30.87,29.426]],[[30.87,29.426],[30.85,29.311]],[[-16.251,28.457],[-16.272,28.436]],[[-16.272,28.436],[-16.371,28.478],[-16.532,28.395]],[[-15.434,28.135],[-15.418,28.098]],[[-15.418,28.098],[-15.641,28.143]],[[-16.272,28.436],[-16.346,28.387],[-16.412,28.201],[-16.536,28.053],[-16.61,28.02],[-16.701,28.036]],[[-15.418,28.098],[-15.385,27.945],[-15.426,27.838],[-15.562,27.76]],[[3.942,7.381],[3.934,7.352]],[[3.934,7.352],[3.893,7.381]],[[4.548,7.455],[4.326,7.459],[4.165,7.34],[3.942,7.381]],[[3.934,7.352],[3.864,7.29]],[[1.067,7.517],[0.911,7.451],[0.729,7.121]],[[3.864,7.29],[3.707,7.196],[3.608,6.956]],[[0.729,7.121],[0.634,6.911]],[[4.223,6.725],[3.938,6.812]],[[4.878,6.738],[4.717,6.713],[4.223,6.725]],[[0.634,6.894],[0.581,6.746],[0.519,6.696],[0.473,6.597]],[[3.398,6.581],[3.398,6.725],[3.604,6.94]],[[0.473,6.597],[0.395,6.56],[0.308,6.564]],[[3.398,6.581],[3.381,6.486]],[[5.596,6.461],[5.53,6.552],[5.348,6.676],[5.245,6.676],[5.064,6.758],[4.878,6.738]],[[3.278,6.465],[3.402,6.441]],[[5.662,6.342],[5.625,6.329]],[[5.625,6.329],[5.596,6.461]],[[7.534,6.465],[7.497,6.061]],[[0.308,6.564],[0.181,6.408],[0.185,6.35],[0.135,6.255],[0.082,6.226],[0.049,5.999],[0.011,5.979]],[[7.497,6.061],[7.349,5.88]],[[5.625,6.329],[5.678,5.896],[5.716,5.834]],[[7.349,5.88],[7.345,5.818]],[[0.011,5.979],[-0.1,5.88],[-0.162,5.702]],[[-0.162,5.702],[-0.178,5.562]],[[5.716,5.834],[5.798,5.558]],[[7.345,5.818],[7.468,5.525]],[[7.468,5.525],[7.444,5.286],[7.341,5.125]],[[7.341,5.125],[7.06,4.857]],[[7.039,4.836],[6.969,4.857],[6.912,4.968]],[[36.962,-1.128],[37.057,-1.037]],[[36.888,-1.222],[36.962,-1.128]],[[36.826,-1.276],[36.834,-1.268]],[[36.826,-1.276],[36.665,-1.222],[36.632,-1.128]],[[28.305,-24.884],[28.408,-24.699]],[[28.276,-25.482],[28.322,-25.161],[28.305,-24.884]],[[28.21,-25.717],[28.276,-25.482]],[[28.75,-25.812],[28.565,-25.812],[28.272,-25.738]],[[28.165,-25.862],[28.19,-25.738]],[[29.217,-25.878],[29.023,-25.891],[28.75,-25.812]],[[28.165,-25.862],[28.025,-25.919]],[[29.064,-26.043],[29.217,-25.878]],[[28.103,-26.047],[28.165,-25.862]],[[28.025,-25.919],[27.835,-26.051]],[[29.064,-26.043],[28.878,-26.035],[28.75,-26.093]],[[28.049,-26.126],[28.103,-26.047]],[[28.664,-26.117],[28.499,-26.159],[28.247,-26.163]],[[28.124,-26.175],[28.247,-26.163]],[[28.053,-26.183],[28.049,-26.126]],[[28.124,-26.175],[28.058,-26.183]],[[28.128,-26.229],[28.124,-26.175]],[[28.453,-26.249],[28.128,-26.229]],[[31.064,-26.245],[31.147,-26.311]],[[28.363,-26.497],[28.136,-26.245]],[[31.151,-26.328],[31.25,-26.497]],[[28.363,-26.501],[28.363,-26.497]],[[28.396,-26.559],[28.363,-26.501]],[[27.942,-26.637],[28.136,-26.245]],[[27.946,-26.753],[27.946,-26.658]],[[27.88,-26.819],[27.946,-26.753]],[[28.503,-26.856],[28.42,-26.715],[28.396,-26.559]],[[28.61,-27.025],[28.503,-26.856]],[[27.249,-27.656],[27.459,-27.45],[27.567,-27.235],[27.678,-27.153],[27.736,-27.066],[27.752,-26.971],[27.864,-26.831]],[[29.823,-28.728],[29.81,-28.666],[29.843,-28.584],[29.802,-28.547]],[[29.777,-28.877],[29.823,-28.728]],[[26.296,-28.972],[26.738,-28.778],[27.014,-28.526]],[[26.247,-29.071],[26.296,-28.972]],[[26.226,-29.12],[26.247,-29.071]],[[30.021,-29.186],[29.79,-28.918]],[[30.087,-29.314],[30.021,-29.186]],[[30.392,-29.586],[30.252,-29.541],[30.194,-29.417],[30.087,-29.314]],[[31.155,-29.59],[31.357,-29.334]],[[30.561,-29.73],[30.392,-29.586]],[[31.06,-29.755],[31.155,-29.59]],[[31.011,-29.842],[30.912,-29.825],[30.846,-29.768],[30.561,-29.73]],[[31.011,-29.842],[31.002,-29.933],[30.891,-30.044]],[[30.697,-30.324],[30.846,-30.073]],[[27.385,-32.881],[27.773,-32.927],[27.835,-32.976],[27.897,-32.976]],[[27.897,-32.976],[27.917,-32.976]],[[25.694,-33.756],[25.612,-33.855]],[[18.617,-33.884],[18.955,-33.743]],[[18.547,-33.892],[18.617,-33.884]],[[18.547,-33.892],[18.559,-33.661]],[[18.485,-33.921],[18.547,-33.892]],[[25.245,-33.921],[25.587,-33.904]],[[25.612,-33.855],[25.587,-33.908],[25.608,-33.937]],[[18.481,-33.925],[18.835,-34.078]],[[22.11,-34.115],[22.151,-34.065],[22.448,-33.958]],[[30.219,30.527],[29.513,30.573],[29.204,30.639],[29.13,30.804]],[[28.957,-27.899],[28.594,-27.008]],[[30.969,-26.196],[31.064,-26.245]],[[22.019,-34.177],[22.102,-34.177],[22.11,-34.115]]]}}]}