{"type":"FeatureCollection","features":[{"type":"Feature","properties":{"name":"Maluku","km2":8727.9,"side":"south","lon":16.0323,"lat":-4.4801},"geometry":{"type":"Polygon","coordinates":[[[15.5051,-4.1121],[15.5168,-4.0782],[15.5374,-4.0591],[15.5527,-4.0427],[15.5766,-4.0297],[15.6821,-3.9968],[15.7398,-3.9867],[15.7488,-3.9866],[15.7715,-3.9828],[15.8052,-3.9814],[15.823,-3.9765],[15.8498,-3.9654],[15.8762,-3.9589],[15.8947,-3.947],[15.9104,-3.9492],[15.9155,-3.9539],[15.919,-3.9531],[15.9205,-3.9497],[15.9238,-3.9497],[15.928,-3.9422],[15.9348,-3.9408],[15.9394,-3.9351],[15.9389,-3.9325],[15.946,-3.9276],[15.9556,-3.9331],[15.959,-3.937],[15.9643,-3.9378],[15.9725,-3.9456],[15.9786,-3.949],[15.9805,-3.9488],[15.9822,-3.9517],[15.9859,-3.9517],[15.9909,-3.9562],[15.9993,-3.9583],[16.0005,-3.9619],[16.0023,-3.963],[16.0,-3.9644],[16.0035,-3.9651],[16.0038,-3.9691],[16.001,-3.9745],[16.0024,-3.9766],[16.002,-3.9826],[15.9979,-3.9853],[15.9972,-3.9876],[15.9991,-3.9951],[15.997,-3.9975],[15.9939,-3.9971],[16.0005,-4.0004],[16.0018,-4.0018],[16.001,-4.004],[16.0073,-4.0098],[16.0106,-4.0103],[16.0104,-4.0081],[16.0145,-4.0083],[16.0218,-4.0119],[16.0336,-4.0131],[16.0374,-4.0179],[16.0458,-4.0215],[16.0489,-4.0252],[16.0633,-4.0247],[16.0741,-4.0281],[16.0873,-4.0271],[16.0901,-4.0309],[16.104,-4.0298],[16.1218,-4.0322],[16.1239,-4.0348],[16.1295,-4.0363],[16.1338,-4.041],[16.1409,-4.0436],[16.1482,-4.0511],[16.1579,-4.0571],[16.186,-4.0592],[16.196,-4.0636],[16.1984,-4.0684],[16.2032,-4.0723],[16.2079,-4.0727],[16.2111,-4.0713],[16.214,-4.0632],[16.2158,-4.0618],[16.2201,-4.0619],[16.2236,-4.0638],[16.2245,-4.0721],[16.228,-4.0754],[16.2355,-4.0742],[16.2406,-4.0672],[16.2436,-4.0669],[16.2447,-4.068],[16.2444,-4.0729],[16.247,-4.077],[16.2463,-4.0798],[16.2499,-4.0823],[16.2542,-4.0826],[16.2578,-4.0906],[16.2582,-4.0953],[16.2622,-4.096],[16.266,-4.1014],[16.2722,-4.0999],[16.2775,-4.1012],[16.2828,-4.109],[16.2984,-4.1156],[16.3009,-4.116],[16.3017,-4.1142],[16.3116,-4.113],[16.3157,-4.1139],[16.3673,-4.1427],[16.3859,-4.1492],[16.393,-4.1484],[16.3975,-4.1524],[16.4027,-4.1532],[16.4058,-4.1555],[16.4105,-4.1556],[16.4134,-4.1582],[16.413,-4.1653],[16.4166,-4.1667],[16.4179,-4.1712],[16.4187,-4.1702],[16.4219,-4.1722],[16.4237,-4.1704],[16.4261,-4.1707],[16.4306,-4.1763],[16.4362,-4.1876],[16.4424,-4.1894],[16.4486,-4.1887],[16.4508,-4.1902],[16.4479,-4.1962],[16.439,-4.2022],[16.4412,-4.2067],[16.4385,-4.2142],[16.4488,-4.2269],[16.4501,-4.2298],[16.4496,-4.2332],[16.456,-4.2382],[16.4645,-4.2412],[16.4651,-4.2438],[16.4675,-4.2453],[16.4724,-4.2452],[16.4824,-4.244],[16.4845,-4.2377],[16.4921,-4.2355],[16.4938,-4.2366],[16.4948,-4.2413],[16.4913,-4.2502],[16.491,-4.2566],[16.496,-4.2634],[16.5047,-4.2673],[16.5072,-4.2777],[16.515,-4.2924],[16.5215,-4.3014],[16.5244,-4.3209],[16.5187,-4.3292],[16.5179,-4.3326],[16.5257,-4.3456],[16.5322,-4.3514],[16.5341,-4.358],[16.5332,-4.3654],[16.5284,-4.3745],[16.5216,-4.3802],[16.5178,-4.3873],[16.5117,-4.391],[16.5113,-4.3944],[16.5167,-4.4091],[16.5148,-4.4122],[16.5069,-4.4146],[16.5051,-4.4166],[16.5041,-4.4275],[16.4995,-4.4365],[16.4999,-4.4701],[16.4984,-4.4792],[16.4968,-4.4828],[16.4841,-4.4951],[16.477,-4.4929],[16.4664,-4.4921],[16.4545,-4.497],[16.442,-4.4915],[16.4336,-4.4856],[16.4212,-4.4814],[16.4169,-4.4758],[16.4095,-4.4741],[16.4039,-4.4705],[16.3927,-4.4782],[16.3948,-4.4922],[16.3889,-4.502],[16.3749,-4.5558],[16.3561,-4.5812],[16.3402,-4.5984],[16.3399,-4.6309],[16.3148,-4.6675],[16.3114,-4.7202],[16.2956,-4.746],[16.2627,-4.7437],[16.2606,-4.7453],[16.2642,-4.7513],[16.2631,-4.7513],[16.2637,-4.7532],[16.2626,-4.7539],[16.2628,-4.7599],[16.2615,-4.7603],[16.2624,-4.7625],[16.2609,-4.7628],[16.2618,-4.7669],[16.2559,-4.7717],[16.2573,-4.7749],[16.2592,-4.7757],[16.2596,-4.7786],[16.259,-4.7805],[16.2526,-4.7854],[16.2503,-4.7916],[16.2517,-4.7978],[16.249,-4.8051],[16.2503,-4.8056],[16.2519,-4.8039],[16.2503,-4.8074],[16.2524,-4.8083],[16.2524,-4.811],[16.2489,-4.8161],[16.252,-4.8186],[16.2523,-4.8234],[16.2455,-4.8245],[16.2413,-4.829],[16.2412,-4.8309],[16.2435,-4.8335],[16.2427,-4.8343],[16.2415,-4.8334],[16.2403,-4.8349],[16.2434,-4.8406],[16.2428,-4.8448],[16.2411,-4.8462],[16.2403,-4.8532],[16.242,-4.854],[16.2455,-4.853],[16.2481,-4.8556],[16.2534,-4.8556],[16.2588,-4.8588],[16.2575,-4.8673],[16.2612,-4.8744],[16.2667,-4.8803],[16.2656,-4.881],[16.2671,-4.8843],[16.266,-4.8841],[16.265,-4.8891],[16.2676,-4.8908],[16.2661,-4.8909],[16.2662,-4.893],[16.2693,-4.8953],[16.2678,-4.8962],[16.2695,-4.8972],[16.2674,-4.8987],[16.2682,-4.8997],[16.2664,-4.9001],[16.2659,-4.9066],[16.2632,-4.9073],[16.2632,-4.914],[16.2666,-4.9157],[16.266,-4.9211],[16.2681,-4.9227],[16.2679,-4.9266],[16.2694,-4.9289],[16.2678,-4.9301],[16.2681,-4.9331],[16.2661,-4.9355],[16.2672,-4.938],[16.2655,-4.9387],[16.2669,-4.9394],[16.2643,-4.9428],[16.2655,-4.9483],[16.2639,-4.9521],[16.2662,-4.9586],[16.2654,-4.9607],[16.263,-4.9612],[16.2639,-4.9632],[16.2627,-4.965],[16.2607,-4.965],[16.2601,-4.9683],[16.2583,-4.9696],[16.2575,-4.9687],[16.2562,-4.9773],[16.2536,-4.9793],[16.2549,-4.9821],[16.2541,-4.9832],[16.2581,-4.9848],[16.2618,-4.9926],[16.0264,-4.9887],[16.016,-4.9856],[16.0151,-4.984],[16.0097,-4.984],[16.0022,-4.9721],[16.0003,-4.9631],[15.9959,-4.9631],[15.9892,-4.9661],[15.9739,-4.9535],[15.9617,-4.9517],[15.9571,-4.9549],[15.9554,-4.9632],[15.9524,-4.9658],[15.9436,-4.9606],[15.9336,-4.9649],[15.9272,-4.9659],[15.9178,-4.9591],[15.9183,-4.9444],[15.9235,-4.931],[15.9194,-4.9003],[15.9127,-4.8896],[15.8903,-4.8737],[15.8863,-4.8646],[15.8763,-4.8601],[15.8709,-4.8601],[15.8626,-4.8648],[15.8649,-4.867],[15.8658,-4.8721],[15.8669,-4.8723],[15.8655,-4.8748],[15.8613,-4.878],[15.8584,-4.8775],[15.8582,-4.8787],[15.8554,-4.8769],[15.8508,-4.8803],[15.8488,-4.8794],[15.8481,-4.8815],[15.845,-4.8827],[15.8448,-4.8874],[15.8428,-4.8888],[15.8441,-4.8893],[15.8429,-4.8915],[15.8449,-4.8938],[15.8437,-4.8996],[15.8459,-4.9016],[15.844,-4.9021],[15.8465,-4.9072],[15.8497,-4.9103],[15.8543,-4.9115],[15.8556,-4.9164],[15.8577,-4.9184],[15.8553,-4.919],[15.8563,-4.9193],[15.8558,-4.9242],[15.8541,-4.9228],[15.8547,-4.9248],[15.8529,-4.9245],[15.8545,-4.9259],[15.8527,-4.9286],[15.8552,-4.929],[15.8561,-4.9358],[15.8575,-4.9368],[15.8562,-4.9375],[15.8583,-4.941],[15.8664,-4.9475],[15.8653,-4.9534],[15.8623,-4.9569],[15.8594,-4.9577],[15.8594,-4.9621],[15.8567,-4.9641],[15.8581,-4.9648],[15.8566,-4.9658],[15.8571,-4.9674],[15.8585,-4.9673],[15.856,-4.9689],[15.8569,-4.9783],[15.8556,-4.9782],[15.8544,-4.98],[15.8552,-4.9808],[15.854,-4.9809],[15.8548,-4.982],[15.8528,-4.9825],[15.8528,-4.984],[15.8508,-4.985],[15.852,-4.9859],[15.8499,-4.9879],[15.8541,-4.9916],[15.8529,-4.9921],[15.8539,-4.9969],[15.8527,-4.9978],[15.8516,-4.9964],[15.8523,-5.0004],[15.8508,-4.9998],[15.848,-5.0061],[15.8426,-5.0092],[15.8427,-5.0123],[15.8448,-5.0117],[15.845,-5.0139],[15.8429,-5.0138],[15.8422,-5.0167],[15.8388,-5.0162],[15.8359,-5.0172],[15.8359,-5.0194],[15.8343,-5.0192],[15.8351,-5.0209],[15.8325,-5.025],[15.8335,-5.0263],[15.8323,-5.0263],[15.8333,-5.0269],[15.8327,-5.0291],[15.83,-5.03],[15.8238,-5.0275],[15.8179,-5.0283],[15.813,-5.024],[15.8083,-5.0234],[15.8051,-5.0259],[15.7984,-5.027],[15.7668,-5.0284],[15.7308,-5.0325],[15.726,-5.03],[15.7169,-5.0033],[15.7119,-4.9935],[15.704,-4.9884],[15.6837,-4.9853],[15.6714,-4.9817],[15.6538,-4.9725],[15.6503,-4.969],[15.6489,-4.9611],[15.653,-4.958],[15.6522,-4.9556],[15.6553,-4.9558],[15.6534,-4.9539],[15.6538,-4.9526],[15.6558,-4.953],[15.6547,-4.9514],[15.6525,-4.9514],[15.6544,-4.95],[15.6543,-4.9474],[15.6528,-4.9462],[15.653,-4.9426],[15.6513,-4.9427],[15.6526,-4.9406],[15.654,-4.9414],[15.6526,-4.9392],[15.6545,-4.9392],[15.6529,-4.9369],[15.6558,-4.9345],[15.6558,-4.9313],[15.652,-4.9285],[15.6512,-4.924],[15.6529,-4.9253],[15.6546,-4.9248],[15.6538,-4.9232],[15.6557,-4.923],[15.6558,-4.92],[15.6534,-4.9199],[15.6541,-4.9185],[15.6522,-4.9171],[15.6538,-4.9158],[15.6525,-4.9133],[15.6502,-4.9128],[15.6501,-4.9153],[15.6489,-4.9151],[15.6491,-4.913],[15.6477,-4.9116],[15.6498,-4.9109],[15.6487,-4.9097],[15.6502,-4.9092],[15.6484,-4.9082],[15.6502,-4.9074],[15.6444,-4.9051],[15.6433,-4.9024],[15.6441,-4.9002],[15.6418,-4.8997],[15.6413,-4.8975],[15.6445,-4.8928],[15.6433,-4.8919],[15.6447,-4.8874],[15.6426,-4.889],[15.6421,-4.8879],[15.6449,-4.8852],[15.6428,-4.8833],[15.6436,-4.8814],[15.6406,-4.8819],[15.6376,-4.8804],[15.6389,-4.8778],[15.6376,-4.877],[15.6397,-4.8765],[15.6384,-4.8758],[15.639,-4.8735],[15.6379,-4.8754],[15.6373,-4.8741],[15.6398,-4.8706],[15.6399,-4.8675],[15.6421,-4.8681],[15.64,-4.8642],[15.6381,-4.8644],[15.6387,-4.8631],[15.6428,-4.8631],[15.6401,-4.8609],[15.6407,-4.8597],[15.6389,-4.8596],[15.6403,-4.8571],[15.6383,-4.8558],[15.6406,-4.853],[15.6382,-4.8525],[15.6388,-4.8503],[15.6403,-4.8508],[15.639,-4.8494],[15.6374,-4.8509],[15.6374,-4.8494],[15.6395,-4.8483],[15.6381,-4.8462],[15.6404,-4.8468],[15.6403,-4.8452],[15.6419,-4.8455],[15.6401,-4.8414],[15.6421,-4.8398],[15.6402,-4.8381],[15.6429,-4.8385],[15.6435,-4.8369],[15.6469,-4.841],[15.649,-4.8382],[15.6483,-4.8369],[15.6499,-4.8371],[15.6481,-4.8333],[15.6527,-4.8295],[15.65,-4.8284],[15.6537,-4.825],[15.6527,-4.822],[15.6542,-4.8204],[15.6558,-4.8208],[15.6552,-4.8189],[15.6575,-4.8184],[15.6558,-4.8162],[15.6603,-4.8152],[15.6616,-4.8113],[15.664,-4.8128],[15.6636,-4.8103],[15.6661,-4.8115],[15.6673,-4.8106],[15.6662,-4.8085],[15.6691,-4.8048],[15.6666,-4.8034],[15.6695,-4.8024],[15.6677,-4.795],[15.6709,-4.7932],[15.6732,-4.7941],[15.6756,-4.7918],[15.6734,-4.789],[15.677,-4.7859],[15.6761,-4.7847],[15.6731,-4.7856],[15.6721,-4.7832],[15.6759,-4.7826],[15.6766,-4.7797],[15.6778,-4.7816],[15.6808,-4.7814],[15.6806,-4.7788],[15.6786,-4.7786],[15.677,-4.7758],[15.6776,-4.7736],[15.6815,-4.7726],[15.6838,-4.769],[15.6918,-4.7678],[15.6924,-4.7659],[15.6941,-4.7664],[15.694,-4.765],[15.6964,-4.7644],[15.6975,-4.7616],[15.696,-4.7534],[15.6975,-4.751],[15.6993,-4.7513],[15.6979,-4.7496],[15.7009,-4.7469],[15.6995,-4.746],[15.6991,-4.7388],[15.6945,-4.7358],[15.6975,-4.7346],[15.6977,-4.7319],[15.6956,-4.7304],[15.6999,-4.7307],[15.6989,-4.7284],[15.6998,-4.7259],[15.7031,-4.7232],[15.6992,-4.7198],[15.6989,-4.7174],[15.7013,-4.7168],[15.6993,-4.7119],[15.6968,-4.7126],[15.6949,-4.71],[15.6963,-4.706],[15.6952,-4.704],[15.6967,-4.7016],[15.6942,-4.7009],[15.6933,-4.6992],[15.6947,-4.6969],[15.6895,-4.6939],[15.6886,-4.6917],[15.6864,-4.6914],[15.686,-4.6896],[15.6878,-4.6887],[15.6884,-4.6856],[15.6874,-4.6833],[15.6837,-4.6801],[15.678,-4.6807],[15.6782,-4.6781],[15.6739,-4.6843],[15.6724,-4.6821],[15.6687,-4.6822],[15.6696,-4.6807],[15.6682,-4.6793],[15.6655,-4.679],[15.6646,-4.6818],[15.6627,-4.6821],[15.6615,-4.6789],[15.6584,-4.6792],[15.6587,-4.6768],[15.6575,-4.6775],[15.6571,-4.6757],[15.6542,-4.6771],[15.6499,-4.6691],[15.6468,-4.6689],[15.6482,-4.6667],[15.6474,-4.6639],[15.6494,-4.6626],[15.6465,-4.6626],[15.6447,-4.661],[15.6421,-4.6614],[15.6416,-4.6629],[15.6393,-4.6605],[15.6375,-4.6621],[15.6384,-4.6584],[15.637,-4.6538],[15.6396,-4.6525],[15.6414,-4.6486],[15.647,-4.6428],[15.6459,-4.6377],[15.6476,-4.6363],[15.65,-4.6374],[15.65,-4.6348],[15.6518,-4.6332],[15.6489,-4.63],[15.6531,-4.628],[15.6514,-4.624],[15.6523,-4.6206],[15.6507,-4.6123],[15.6477,-4.6122],[15.6472,-4.6081],[15.6455,-4.6065],[15.6435,-4.6068],[15.6448,-4.6044],[15.6449,-4.5975],[15.6479,-4.5959],[15.6455,-4.5946],[15.6483,-4.5938],[15.6497,-4.5899],[15.6478,-4.5889],[15.649,-4.5855],[15.6539,-4.5874],[15.6524,-4.5824],[15.6545,-4.5804],[15.6543,-4.5777],[15.6563,-4.5739],[15.6589,-4.574],[15.6615,-4.5764],[15.6668,-4.5689],[15.6683,-4.5693],[15.6684,-4.5732],[15.6717,-4.5709],[15.6701,-4.5685],[15.6738,-4.5661],[15.6731,-4.5645],[15.671,-4.5642],[15.6751,-4.5637],[15.6774,-4.5605],[15.6761,-4.5557],[15.6783,-4.5536],[15.6769,-4.551],[15.6794,-4.5484],[15.6787,-4.546],[15.6761,-4.5451],[15.6756,-4.5435],[15.6718,-4.5431],[15.6729,-4.5415],[15.6765,-4.543],[15.6754,-4.539],[15.6791,-4.5382],[15.6792,-4.5371],[15.677,-4.5343],[15.6794,-4.5324],[15.6815,-4.5325],[15.6781,-4.5291],[15.681,-4.5264],[15.6774,-4.5251],[15.679,-4.5233],[15.678,-4.521],[15.6802,-4.5226],[15.6817,-4.5218],[15.6805,-4.5176],[15.6834,-4.5163],[15.6781,-4.5097],[15.6789,-4.5062],[15.6768,-4.4981],[15.6812,-4.4961],[15.6796,-4.4936],[15.6811,-4.4915],[15.6764,-4.4879],[15.6733,-4.4878],[15.674,-4.4865],[15.6772,-4.4871],[15.6771,-4.4858],[15.6741,-4.4826],[15.6717,-4.4821],[15.6705,-4.4792],[15.6688,-4.4802],[15.6722,-4.4779],[15.6713,-4.4725],[15.669,-4.4687],[15.6713,-4.4662],[15.6695,-4.4623],[15.6724,-4.4607],[15.6699,-4.4573],[15.6749,-4.4547],[15.6763,-4.4518],[15.6791,-4.4534],[15.6799,-4.4486],[15.6849,-4.4434],[15.6834,-4.4401],[15.6855,-4.4405],[15.6907,-4.437],[15.6927,-4.4346],[15.6927,-4.432],[15.6962,-4.4311],[15.6967,-4.4283],[15.6952,-4.4272],[15.6985,-4.4293],[15.7021,-4.4241],[15.7015,-4.4216],[15.7001,-4.4214],[15.7012,-4.4176],[15.7042,-4.4153],[15.7036,-4.4127],[15.7058,-4.413],[15.7073,-4.4112],[15.7049,-4.4048],[15.707,-4.4039],[15.7068,-4.4005],[15.7092,-4.3996],[15.7097,-4.3964],[15.7117,-4.3944],[15.7067,-4.3887],[15.7052,-4.3899],[15.7053,-4.3874],[15.7085,-4.3826],[15.7099,-4.3845],[15.7133,-4.3825],[15.7124,-4.3788],[15.7152,-4.3763],[15.7146,-4.3721],[15.7128,-4.3726],[15.7115,-4.371],[15.7124,-4.3662],[15.711,-4.3623],[15.7155,-4.3602],[15.7152,-4.3575],[15.7128,-4.3559],[15.7152,-4.3527],[15.7134,-4.3528],[15.7108,-4.3499],[15.7117,-4.345],[15.7084,-4.3415],[15.7105,-4.3358],[15.7083,-4.334],[15.7082,-4.332],[15.7052,-4.3334],[15.7061,-4.3232],[15.704,-4.3222],[15.7053,-4.3195],[15.7006,-4.3179],[15.6981,-4.3149],[15.6947,-4.3174],[15.694,-4.3116],[15.6919,-4.3118],[15.6918,-4.3136],[15.6908,-4.3117],[15.688,-4.311],[15.6869,-4.3075],[15.6881,-4.3023],[15.6817,-4.2951],[15.6803,-4.2895],[15.6753,-4.2881],[15.6763,-4.2838],[15.6734,-4.2833],[15.6682,-4.2857],[15.6644,-4.2811],[15.6599,-4.2847],[15.6584,-4.2834],[15.6599,-4.2775],[15.6582,-4.2777],[15.6564,-4.2807],[15.6522,-4.2814],[15.65,-4.2804],[15.6516,-4.277],[15.6506,-4.2755],[15.6479,-4.2757],[15.6468,-4.2794],[15.6398,-4.2779],[15.6376,-4.2718],[15.6347,-4.2706],[15.6354,-4.2684],[15.6305,-4.268],[15.6292,-4.2637],[15.6311,-4.2623],[15.6305,-4.2607],[15.6261,-4.2618],[15.6234,-4.2657],[15.6225,-4.2622],[15.6186,-4.262],[15.6221,-4.2578],[15.6206,-4.2565],[15.6179,-4.2588],[15.6159,-4.2574],[15.6158,-4.2549],[15.6216,-4.2539],[15.6224,-4.251],[15.6249,-4.2489],[15.6246,-4.2459],[15.6274,-4.2446],[15.6261,-4.2367],[15.6318,-4.2221],[15.6272,-4.2084],[15.6089,-4.1905],[15.5815,-4.1471],[15.5834,-4.1456],[15.5827,-4.1436],[15.581,-4.1468],[15.58,-4.1452],[15.5736,-4.1473],[15.5685,-4.1465],[15.5621,-4.1499],[15.56,-4.1557],[15.5575,-4.1579],[15.558,-4.1626],[15.5557,-4.1658],[15.559,-4.1702],[15.5573,-4.173],[15.557,-4.1774],[15.552,-4.1792],[15.5514,-4.1871],[15.5475,-4.1902],[15.5453,-4.1886],[15.5381,-4.19],[15.5338,-4.1844],[15.531,-4.1756],[15.5354,-4.153],[15.5348,-4.1432],[15.533,-4.1384],[15.5214,-4.1231],[15.5051,-4.1121]]]}},{"type":"Feature","properties":{"name":"Nsele","km2":1223.8,"side":"south","lon":15.5663,"lat":-4.3506},"geometry":{"type":"Polygon","coordinates":[[[15.3514,-4.4795],[15.3492,-4.4747],[15.3531,-4.467],[15.3678,-4.4708],[15.372,-4.4694],[15.3759,-4.4733],[15.3852,-4.4769],[15.3879,-4.4761],[15.4138,-4.4871],[15.418,-4.4864],[15.4229,-4.4827],[15.4278,-4.4823],[15.4341,-4.4782],[15.4465,-4.4853],[15.4534,-4.486],[15.458,-4.4843],[15.4623,-4.475],[15.4594,-4.468],[15.4618,-4.4667],[15.4633,-4.4624],[15.463,-4.4583],[15.4613,-4.4557],[15.4474,-4.4497],[15.446,-4.4477],[15.4465,-4.4417],[15.4412,-4.4388],[15.4345,-4.4308],[15.4344,-4.423],[15.4384,-4.415],[15.4362,-4.4102],[15.4325,-4.408],[15.4319,-4.4056],[15.4244,-4.401],[15.4193,-4.395],[15.4133,-4.3636],[15.4169,-4.3608],[15.4171,-4.3575],[15.4217,-4.3548],[15.4213,-4.351],[15.4185,-4.3463],[15.419,-4.336],[15.3934,-4.2849],[15.407,-4.2846],[15.4151,-4.2798],[15.4186,-4.2822],[15.4265,-4.2801],[15.4354,-4.2672],[15.4382,-4.2651],[15.4417,-4.2645],[15.444,-4.2657],[15.4486,-4.2635],[15.4503,-4.2578],[15.4555,-4.2494],[15.4643,-4.2457],[15.4669,-4.2335],[15.4747,-4.2266],[15.4772,-4.1998],[15.4838,-4.1792],[15.488,-4.1371],[15.5051,-4.1121],[15.5214,-4.1231],[15.533,-4.1384],[15.5348,-4.1432],[15.5354,-4.153],[15.531,-4.1756],[15.5338,-4.1844],[15.5381,-4.19],[15.5453,-4.1886],[15.5475,-4.1902],[15.5514,-4.1871],[15.552,-4.1792],[15.557,-4.1774],[15.5573,-4.173],[15.559,-4.1702],[15.5557,-4.1658],[15.558,-4.1626],[15.5575,-4.1579],[15.56,-4.1557],[15.5621,-4.1499],[15.5685,-4.1465],[15.5736,-4.1473],[15.58,-4.1452],[15.581,-4.1468],[15.5827,-4.1436],[15.5834,-4.1456],[15.5815,-4.1471],[15.6089,-4.1905],[15.6272,-4.2084],[15.6318,-4.2221],[15.6261,-4.2367],[15.6274,-4.2446],[15.6246,-4.2459],[15.6249,-4.2489],[15.6224,-4.251],[15.6216,-4.2539],[15.6158,-4.2549],[15.6159,-4.2574],[15.6179,-4.2588],[15.6206,-4.2565],[15.6221,-4.2578],[15.6186,-4.262],[15.6225,-4.2622],[15.6234,-4.2657],[15.6261,-4.2618],[15.6305,-4.2607],[15.6311,-4.2623],[15.6292,-4.2637],[15.6305,-4.268],[15.6354,-4.2684],[15.6347,-4.2706],[15.6376,-4.2718],[15.6398,-4.2779],[15.6468,-4.2794],[15.6479,-4.2757],[15.6506,-4.2755],[15.6516,-4.277],[15.65,-4.2804],[15.6522,-4.2814],[15.6564,-4.2807],[15.6582,-4.2777],[15.6599,-4.2775],[15.6584,-4.2834],[15.6599,-4.2847],[15.6644,-4.2811],[15.6682,-4.2857],[15.6734,-4.2833],[15.6763,-4.2838],[15.6753,-4.2881],[15.6803,-4.2895],[15.6817,-4.2951],[15.6881,-4.3023],[15.6869,-4.3075],[15.688,-4.311],[15.6908,-4.3117],[15.6918,-4.3136],[15.6919,-4.3118],[15.694,-4.3116],[15.6947,-4.3174],[15.6981,-4.3149],[15.7006,-4.3179],[15.7053,-4.3195],[15.704,-4.3222],[15.7061,-4.3232],[15.7052,-4.3334],[15.7082,-4.332],[15.7083,-4.334],[15.7105,-4.3358],[15.7084,-4.3415],[15.7117,-4.345],[15.7108,-4.3499],[15.7134,-4.3528],[15.7152,-4.3527],[15.7128,-4.3559],[15.7152,-4.3575],[15.7155,-4.3602],[15.711,-4.3623],[15.7124,-4.3662],[15.7115,-4.371],[15.7128,-4.3726],[15.7146,-4.3721],[15.7152,-4.3763],[15.7124,-4.3788],[15.7133,-4.3825],[15.7099,-4.3845],[15.7085,-4.3826],[15.7053,-4.3874],[15.7052,-4.3899],[15.7067,-4.3887],[15.7117,-4.3944],[15.7097,-4.3964],[15.7092,-4.3996],[15.7068,-4.4005],[15.707,-4.4039],[15.7049,-4.4048],[15.7073,-4.4112],[15.7058,-4.413],[15.7036,-4.4127],[15.7042,-4.4153],[15.7012,-4.4176],[15.7001,-4.4214],[15.7015,-4.4216],[15.7021,-4.4241],[15.6985,-4.4293],[15.6959,-4.4267],[15.6952,-4.4272],[15.6967,-4.4283],[15.6962,-4.4311],[15.6927,-4.432],[15.6927,-4.4346],[15.6907,-4.437],[15.6855,-4.4405],[15.6834,-4.4401],[15.6849,-4.4434],[15.6799,-4.4486],[15.6791,-4.4534],[15.6763,-4.4518],[15.6749,-4.4547],[15.6699,-4.4573],[15.6724,-4.4607],[15.6695,-4.4623],[15.6713,-4.4662],[15.669,-4.4687],[15.6713,-4.4725],[15.6722,-4.4779],[15.6688,-4.4802],[15.6705,-4.4792],[15.6717,-4.4821],[15.6741,-4.4826],[15.6771,-4.4858],[15.6772,-4.4871],[15.674,-4.4865],[15.6733,-4.4878],[15.6764,-4.4879],[15.6811,-4.4915],[15.6796,-4.4936],[15.6812,-4.4961],[15.6768,-4.4981],[15.6769,-4.5007],[15.6789,-4.5062],[15.6781,-4.5097],[15.6834,-4.5163],[15.6805,-4.5176],[15.6817,-4.5218],[15.6802,-4.5226],[15.6779,-4.5212],[15.679,-4.5233],[15.6776,-4.526],[15.681,-4.5264],[15.6781,-4.5291],[15.6815,-4.5316],[15.677,-4.5343],[15.6791,-4.5382],[15.6754,-4.539],[15.6765,-4.543],[15.6729,-4.5415],[15.6718,-4.5431],[15.6756,-4.5435],[15.6761,-4.5451],[15.6787,-4.546],[15.6794,-4.5484],[15.6769,-4.551],[15.6783,-4.5536],[15.6761,-4.5557],[15.6774,-4.5605],[15.6751,-4.5637],[15.671,-4.5642],[15.6731,-4.5645],[15.6738,-4.5661],[15.6701,-4.5685],[15.6717,-4.5709],[15.6684,-4.5732],[15.6683,-4.5693],[15.6668,-4.5689],[15.6615,-4.5764],[15.6589,-4.574],[15.6563,-4.5739],[15.6543,-4.5777],[15.6545,-4.5804],[15.6524,-4.5824],[15.6539,-4.5874],[15.6528,-4.5878],[15.6516,-4.5861],[15.6457,-4.5843],[15.6401,-4.5886],[15.6325,-4.5882],[15.6217,-4.584],[15.6136,-4.5882],[15.6045,-4.5866],[15.6008,-4.5891],[15.5956,-4.5887],[15.5922,-4.5826],[15.5867,-4.5822],[15.5862,-4.581],[15.5721,-4.5778],[15.5657,-4.5778],[15.5625,-4.5747],[15.5594,-4.5742],[15.5508,-4.565],[15.5418,-4.5622],[15.5396,-4.5598],[15.5342,-4.5598],[15.5294,-4.563],[15.5218,-4.5624],[15.5174,-4.5637],[15.5138,-4.5625],[15.5112,-4.5562],[15.5066,-4.5573],[15.5025,-4.5554],[15.5022,-4.5534],[15.4986,-4.5515],[15.4984,-4.55],[15.4943,-4.5486],[15.4928,-4.5462],[15.48,-4.5455],[15.4769,-4.5408],[15.4708,-4.5385],[15.4656,-4.5301],[15.4633,-4.5308],[15.4576,-4.5272],[15.4536,-4.5274],[15.4512,-4.525],[15.4442,-4.527],[15.441,-4.5326],[15.4397,-4.5321],[15.4369,-4.5338],[15.4362,-4.5371],[15.4316,-4.5423],[15.4307,-4.5454],[15.4223,-4.5445],[15.4197,-4.5467],[15.4123,-4.5483],[15.4092,-4.5514],[15.4001,-4.5547],[15.3984,-4.5516],[15.395,-4.551],[15.3947,-4.5476],[15.391,-4.5479],[15.391,-4.5444],[15.3891,-4.5451],[15.3896,-4.5405],[15.3823,-4.5398],[15.3819,-4.5328],[15.3753,-4.5284],[15.3746,-4.5171],[15.3672,-4.5137],[15.3667,-4.5115],[15.3694,-4.5051],[15.3595,-4.5017],[15.3604,-4.4915],[15.3572,-4.4882],[15.3548,-4.4884],[15.3565,-4.4852],[15.3546,-4.4845],[15.3536,-4.4808],[15.3514,-4.4795]]]}},{"type":"Feature","properties":{"name":"Mont Ngafula","km2":482.6,"side":"south","lon":15.2677,"lat":-4.495},"geometry":{"type":"Polygon","coordinates":[[[15.1298,-4.4445],[15.131,-4.4405],[15.135,-4.4396],[15.1344,-4.4365],[15.1388,-4.4348],[15.1404,-4.4269],[15.1436,-4.4256],[15.1443,-4.4217],[15.1474,-4.4168],[15.1513,-4.4154],[15.152,-4.4134],[15.1569,-4.4126],[15.157,-4.4098],[15.1601,-4.4082],[15.1625,-4.4105],[15.1612,-4.4065],[15.1645,-4.4023],[15.1701,-4.3978],[15.1754,-4.3971],[15.175,-4.3939],[15.1791,-4.3902],[15.1824,-4.3903],[15.1827,-4.388],[15.1807,-4.3883],[15.1784,-4.3837],[15.1772,-4.3715],[15.1784,-4.3679],[15.1847,-4.3666],[15.1855,-4.3608],[15.184,-4.3594],[15.1879,-4.3519],[15.1874,-4.3434],[15.1904,-4.3398],[15.2056,-4.3458],[15.2111,-4.3505],[15.2093,-4.3561],[15.2137,-4.3621],[15.2137,-4.3693],[15.2222,-4.384],[15.2233,-4.4031],[15.2279,-4.4179],[15.2337,-4.4214],[15.2346,-4.4272],[15.2394,-4.4316],[15.2494,-4.4337],[15.258,-4.4338],[15.2567,-4.4402],[15.2586,-4.4419],[15.2657,-4.4412],[15.2761,-4.4374],[15.29,-4.4082],[15.2982,-4.4006],[15.3048,-4.3982],[15.3077,-4.3954],[15.308,-4.3972],[15.3017,-4.4083],[15.3021,-4.4122],[15.3076,-4.4207],[15.3086,-4.4262],[15.3067,-4.4301],[15.3074,-4.4341],[15.3116,-4.4338],[15.3125,-4.4306],[15.3167,-4.4288],[15.3245,-4.4294],[15.3304,-4.4257],[15.335,-4.4284],[15.3382,-4.4337],[15.3416,-4.4356],[15.351,-4.4376],[15.3535,-4.4401],[15.3596,-4.4381],[15.3608,-4.4415],[15.3563,-4.4468],[15.3593,-4.4463],[15.3598,-4.4487],[15.3525,-4.4512],[15.3544,-4.4546],[15.3524,-4.458],[15.3558,-4.4633],[15.3492,-4.4747],[15.3505,-4.4789],[15.3532,-4.4802],[15.3546,-4.4845],[15.3565,-4.4852],[15.3548,-4.4884],[15.3572,-4.4882],[15.3604,-4.4915],[15.3595,-4.5017],[15.3694,-4.5051],[15.3667,-4.5115],[15.3672,-4.5137],[15.3746,-4.5171],[15.3753,-4.5284],[15.3819,-4.5328],[15.3823,-4.5398],[15.3896,-4.5405],[15.3891,-4.5451],[15.391,-4.5444],[15.391,-4.5479],[15.3947,-4.5476],[15.395,-4.551],[15.3984,-4.5516],[15.4001,-4.5547],[15.4054,-4.5529],[15.4073,-4.5541],[15.4032,-4.5602],[15.4067,-4.5642],[15.4044,-4.5666],[15.4066,-4.573],[15.405,-4.578],[15.4078,-4.582],[15.4059,-4.5835],[15.4084,-4.588],[15.4044,-4.5895],[15.4057,-4.5926],[15.4037,-4.6009],[15.3976,-4.6049],[15.3969,-4.6103],[15.3926,-4.6132],[15.3911,-4.6171],[15.3923,-4.6192],[15.3897,-4.623],[15.3904,-4.6247],[15.3868,-4.6258],[15.3852,-4.6287],[15.3829,-4.6289],[15.3814,-4.6317],[15.3776,-4.6337],[15.3783,-4.6374],[15.3758,-4.6366],[15.3738,-4.6386],[15.3688,-4.6374],[15.368,-4.6398],[15.362,-4.644],[15.3591,-4.6444],[15.36,-4.6427],[15.3585,-4.6427],[15.3579,-4.6465],[15.354,-4.6463],[15.3527,-4.6485],[15.3506,-4.6489],[15.3453,-4.6478],[15.3414,-4.6452],[15.3386,-4.6466],[15.3316,-4.6459],[15.3293,-4.6424],[15.3308,-4.6392],[15.3276,-4.6363],[15.3273,-4.6321],[15.3219,-4.6327],[15.3201,-4.6287],[15.3173,-4.6277],[15.3152,-4.6243],[15.3055,-4.6244],[15.302,-4.6227],[15.3014,-4.6207],[15.2969,-4.6223],[15.2919,-4.6208],[15.2865,-4.6216],[15.2777,-4.6131],[15.2729,-4.6107],[15.2678,-4.6043],[15.2668,-4.5924],[15.2622,-4.5891],[15.2646,-4.5829],[15.2649,-4.5742],[15.2635,-4.5727],[15.2609,-4.5726],[15.2548,-4.5668],[15.246,-4.5648],[15.2388,-4.5579],[15.2334,-4.5551],[15.2286,-4.5503],[15.2273,-4.5464],[15.2205,-4.5399],[15.2172,-4.5395],[15.2133,-4.5364],[15.2106,-4.5353],[15.2072,-4.5364],[15.1772,-4.5342],[15.1723,-4.532],[15.1737,-4.5205],[15.1768,-4.5162],[15.1776,-4.5112],[15.1736,-4.5032],[15.1757,-4.498],[15.1767,-4.4896],[15.1741,-4.4844],[15.174,-4.4783],[15.1711,-4.4705],[15.1623,-4.4557],[15.154,-4.4518],[15.1519,-4.4529],[15.147,-4.4524],[15.1407,-4.4449],[15.138,-4.4458],[15.1298,-4.4445]]]}},{"type":"Feature","properties":{"name":"Kimbanseke","km2":78.4,"side":"south","lon":15.4035,"lat":-4.4417},"geometry":{"type":"Polygon","coordinates":[[[15.3531,-4.467],[15.3559,-4.4622],[15.3535,-4.4609],[15.3524,-4.458],[15.3544,-4.4546],[15.3525,-4.4512],[15.3596,-4.449],[15.3594,-4.4464],[15.3563,-4.4467],[15.3609,-4.4412],[15.3592,-4.4392],[15.3605,-4.433],[15.3581,-4.4318],[15.362,-4.4276],[15.3578,-4.4268],[15.3573,-4.4253],[15.362,-4.4221],[15.3627,-4.4236],[15.3751,-4.4265],[15.3771,-4.4259],[15.3771,-4.4212],[15.3821,-4.4138],[15.3848,-4.4129],[15.3876,-4.409],[15.389,-4.4026],[15.3875,-4.4017],[15.39,-4.3963],[15.4138,-4.4054],[15.4204,-4.4059],[15.4276,-4.4036],[15.4323,-4.4059],[15.4325,-4.408],[15.4361,-4.41],[15.4384,-4.415],[15.4344,-4.423],[15.4345,-4.4308],[15.4412,-4.4388],[15.4465,-4.4417],[15.446,-4.4477],[15.4474,-4.4497],[15.4613,-4.4557],[15.4633,-4.4624],[15.4618,-4.4667],[15.4594,-4.468],[15.4623,-4.475],[15.458,-4.4843],[15.4534,-4.486],[15.4465,-4.4853],[15.4341,-4.4782],[15.4278,-4.4823],[15.4229,-4.4827],[15.418,-4.4864],[15.4138,-4.4871],[15.3879,-4.4761],[15.3852,-4.4769],[15.3759,-4.4733],[15.372,-4.4694],[15.3678,-4.4708],[15.3531,-4.467]]]}},{"type":"Feature","properties":{"name":"Ngaliema","km2":67.8,"side":"south","lon":15.2474,"lat":-4.3755},"geometry":{"type":"MultiPolygon","coordinates":[[[[15.2064,-4.346],[15.2095,-4.3413],[15.2131,-4.339],[15.2138,-4.3323],[15.217,-4.3306],[15.2296,-4.3332],[15.2365,-4.3262],[15.2398,-4.3264],[15.2466,-4.3238],[15.2574,-4.3297],[15.257,-4.3278],[15.2599,-4.3261],[15.26,-4.3238],[15.2638,-4.3216],[15.2652,-4.317],[15.2782,-4.3231],[15.2815,-4.3301],[15.279,-4.3348],[15.2709,-4.3325],[15.2682,-4.3279],[15.2679,-4.3318],[15.26,-4.3345],[15.2592,-4.3369],[15.2647,-4.3492],[15.2629,-4.3581],[15.2755,-4.3584],[15.2768,-4.357],[15.2803,-4.3617],[15.2782,-4.3656],[15.2796,-4.3723],[15.2774,-4.3783],[15.2782,-4.3855],[15.2765,-4.386],[15.2763,-4.3907],[15.2725,-4.3939],[15.2725,-4.4027],[15.2565,-4.4072],[15.2601,-4.4181],[15.2578,-4.4239],[15.258,-4.4338],[15.2494,-4.4337],[15.2394,-4.4316],[15.2346,-4.4272],[15.2337,-4.4214],[15.2279,-4.4179],[15.2233,-4.4031],[15.2222,-4.384],[15.2137,-4.3693],[15.2137,-4.3621],[15.2093,-4.3561],[15.2111,-4.3505],[15.2064,-4.346]]],[[[15.225,-4.33],[15.2252,-4.3282],[15.2274,-4.327],[15.2332,-4.3268],[15.2269,-4.3317],[15.225,-4.33]]],[[[15.2094,-4.3231],[15.21,-4.3213],[15.2139,-4.3202],[15.217,-4.3202],[15.2195,-4.323],[15.2157,-4.3253],[15.213,-4.3233],[15.2094,-4.3231]]],[[[15.1914,-4.3361],[15.193,-4.332],[15.1988,-4.3254],[15.2017,-4.3265],[15.2071,-4.3258],[15.2099,-4.3286],[15.2069,-4.3399],[15.2051,-4.3416],[15.1932,-4.3382],[15.1914,-4.3361]]]]}},{"type":"Feature","properties":{"name":"Masina","km2":39.2,"side":"south","lon":15.391,"lat":-4.3662},"geometry":{"type":"Polygon","coordinates":[[[15.3617,-4.3668],[15.3619,-4.3611],[15.3695,-4.3572],[15.3686,-4.3541],[15.3654,-4.3507],[15.3621,-4.3513],[15.3663,-4.3469],[15.3645,-4.3417],[15.3677,-4.3443],[15.3699,-4.3411],[15.373,-4.3411],[15.3748,-4.3366],[15.3794,-4.3319],[15.3812,-4.3263],[15.3875,-4.3318],[15.3935,-4.3341],[15.3923,-4.3349],[15.3939,-4.3342],[15.4084,-4.3418],[15.4184,-4.3434],[15.4217,-4.3548],[15.4171,-4.3575],[15.4169,-4.3608],[15.414,-4.3623],[15.4135,-4.3654],[15.4193,-4.395],[15.4276,-4.4036],[15.4204,-4.4059],[15.4138,-4.4054],[15.3665,-4.3874],[15.3675,-4.3854],[15.3633,-4.3798],[15.3672,-4.3764],[15.3664,-4.3699],[15.3683,-4.3708],[15.3697,-4.3688],[15.3682,-4.3661],[15.3669,-4.3666],[15.3658,-4.3651],[15.3617,-4.3668]]]}},{"type":"Feature","properties":{"name":"Limete","km2":29.1,"side":"south","lon":15.3467,"lat":-4.3543},"geometry":{"type":"MultiPolygon","coordinates":[[[[15.32,-4.3694],[15.3247,-4.3537],[15.3251,-4.3414],[15.3271,-4.337],[15.3254,-4.3316],[15.3297,-4.3306],[15.3448,-4.3211],[15.3458,-4.3216],[15.3444,-4.3238],[15.3483,-4.3254],[15.3497,-4.3276],[15.3517,-4.3249],[15.3608,-4.3262],[15.3602,-4.3268],[15.3616,-4.3307],[15.3612,-4.3263],[15.3639,-4.329],[15.3623,-4.3266],[15.3654,-4.3275],[15.3645,-4.3263],[15.3669,-4.327],[15.3676,-4.3255],[15.3665,-4.3255],[15.3686,-4.3246],[15.3755,-4.3244],[15.3812,-4.3263],[15.3794,-4.3319],[15.3748,-4.3366],[15.373,-4.3411],[15.3699,-4.3411],[15.3677,-4.3443],[15.3645,-4.3417],[15.3663,-4.3469],[15.3621,-4.3503],[15.3626,-4.3516],[15.3656,-4.3509],[15.3695,-4.3567],[15.3686,-4.3586],[15.3619,-4.3611],[15.3611,-4.3631],[15.3617,-4.3668],[15.3658,-4.3651],[15.3669,-4.3666],[15.3682,-4.3661],[15.3697,-4.3688],[15.3683,-4.3708],[15.3664,-4.3699],[15.3672,-4.3764],[15.3633,-4.3798],[15.3675,-4.3854],[15.3665,-4.3874],[15.352,-4.3818],[15.3435,-4.3745],[15.3313,-4.3729],[15.32,-4.3694]]],[[[15.349,-4.3225],[15.3511,-4.3208],[15.3529,-4.3227],[15.3507,-4.3239],[15.349,-4.3225]]],[[[15.3476,-4.3227],[15.3466,-4.323],[15.3465,-4.3222],[15.3476,-4.3227]]]]}},{"type":"Feature","properties":{"name":"Selembao","km2":19.7,"side":"south","lon":15.2852,"lat":-4.401},"geometry":{"type":"Polygon","coordinates":[[[15.2565,-4.4072],[15.2725,-4.4027],[15.2725,-4.3939],[15.2764,-4.3905],[15.2765,-4.386],[15.2782,-4.3855],[15.2786,-4.3831],[15.2774,-4.3783],[15.2796,-4.3726],[15.2782,-4.3656],[15.2803,-4.362],[15.2795,-4.3603],[15.2875,-4.361],[15.2879,-4.3599],[15.2827,-4.3788],[15.2918,-4.3807],[15.2913,-4.382],[15.301,-4.3851],[15.3009,-4.3879],[15.2986,-4.4004],[15.29,-4.4082],[15.2757,-4.4377],[15.2596,-4.442],[15.2567,-4.4402],[15.2581,-4.4362],[15.2578,-4.4239],[15.2602,-4.4189],[15.2565,-4.4072]]]}},{"type":"Feature","properties":{"name":"Kisenso","km2":16.0,"side":"south","lon":15.3417,"lat":-4.4177},"geometry":{"type":"Polygon","coordinates":[[[15.3139,-4.4303],[15.3144,-4.4274],[15.32,-4.4213],[15.3185,-4.4202],[15.3311,-4.4133],[15.3308,-4.4044],[15.3352,-4.3958],[15.3471,-4.3981],[15.3568,-4.3971],[15.3636,-4.4005],[15.3616,-4.4038],[15.3638,-4.4096],[15.3605,-4.412],[15.3599,-4.4143],[15.3615,-4.4189],[15.36,-4.4213],[15.3607,-4.4234],[15.3572,-4.4257],[15.362,-4.4276],[15.3581,-4.4318],[15.3605,-4.433],[15.3593,-4.4344],[15.3596,-4.4381],[15.3535,-4.4401],[15.351,-4.4376],[15.3416,-4.4356],[15.3382,-4.4337],[15.335,-4.4284],[15.3304,-4.4257],[15.3245,-4.4294],[15.3182,-4.4283],[15.3139,-4.4303]]]}},{"type":"Feature","properties":{"name":"Lemba","km2":13.8,"side":"south","lon":15.3173,"lat":-4.404},"geometry":{"type":"Polygon","coordinates":[[[15.3067,-4.4301],[15.3086,-4.4266],[15.3076,-4.4207],[15.3021,-4.4122],[15.3017,-4.4083],[15.308,-4.3972],[15.3087,-4.3931],[15.3128,-4.3894],[15.3251,-4.3927],[15.3243,-4.39],[15.3254,-4.3841],[15.3318,-4.3778],[15.3331,-4.3734],[15.3444,-4.375],[15.3488,-4.379],[15.3403,-4.3836],[15.3409,-4.3856],[15.3308,-4.4044],[15.3311,-4.4133],[15.3185,-4.4202],[15.32,-4.4213],[15.3144,-4.4274],[15.3119,-4.4336],[15.3074,-4.4341],[15.3067,-4.4301]]]}},{"type":"Feature","properties":{"name":"Gombe","km2":12.4,"side":"south","lon":15.2894,"lat":-4.312},"geometry":{"type":"Polygon","coordinates":[[[15.2652,-4.317],[15.2659,-4.3147],[15.276,-4.3029],[15.2803,-4.2999],[15.2823,-4.3019],[15.2888,-4.3039],[15.3072,-4.2984],[15.3091,-4.2966],[15.3145,-4.2963],[15.3204,-4.2974],[15.3253,-4.3028],[15.3295,-4.3047],[15.3338,-4.3104],[15.3336,-4.3117],[15.3344,-4.311],[15.3339,-4.3146],[15.337,-4.3174],[15.3379,-4.3165],[15.3377,-4.3181],[15.3394,-4.3203],[15.3386,-4.318],[15.3417,-4.3208],[15.3436,-4.3198],[15.3445,-4.3212],[15.3365,-4.3255],[15.33,-4.3082],[15.3265,-4.3053],[15.3245,-4.3099],[15.3196,-4.3081],[15.2922,-4.3167],[15.2963,-4.3278],[15.2782,-4.3231],[15.2652,-4.317]]]}},{"type":"Feature","properties":{"name":"N'djili","km2":9.4,"side":"south","lon":15.3755,"lat":-4.407},"geometry":{"type":"Polygon","coordinates":[[[15.3615,-4.4189],[15.3603,-4.4123],[15.364,-4.4087],[15.3616,-4.4038],[15.3639,-4.4011],[15.3619,-4.3986],[15.3674,-4.3943],[15.3639,-4.3911],[15.364,-4.3873],[15.39,-4.3963],[15.3875,-4.4017],[15.389,-4.4026],[15.3876,-4.409],[15.3848,-4.4129],[15.3821,-4.4138],[15.3771,-4.4212],[15.3769,-4.4261],[15.3606,-4.4224],[15.3615,-4.4189]]]}},{"type":"Feature","properties":{"name":"Bandalungwa","km2":7.2,"side":"south","lon":15.2832,"lat":-4.3422},"geometry":{"type":"Polygon","coordinates":[[[15.2716,-4.3447],[15.2736,-4.3377],[15.2725,-4.3325],[15.2775,-4.3353],[15.2814,-4.3303],[15.2782,-4.3231],[15.2963,-4.3278],[15.2958,-4.338],[15.2875,-4.361],[15.2795,-4.3603],[15.2803,-4.3561],[15.2792,-4.3514],[15.2763,-4.3494],[15.2731,-4.3493],[15.2716,-4.3447]]]}},{"type":"Feature","properties":{"name":"Kalamu","km2":6.0,"side":"south","lon":15.3179,"lat":-4.3496},"geometry":{"type":"Polygon","coordinates":[[[15.3056,-4.3655],[15.314,-4.3399],[15.3143,-4.3298],[15.3215,-4.3324],[15.3254,-4.3316],[15.3271,-4.337],[15.3251,-4.3414],[15.3247,-4.3537],[15.32,-4.3694],[15.3056,-4.3655]]]}},{"type":"Feature","properties":{"name":"Makala","km2":5.2,"side":"south","lon":15.3085,"lat":-4.383},"geometry":{"type":"Polygon","coordinates":[[[15.2986,-4.4004],[15.3023,-4.3744],[15.3056,-4.3655],[15.32,-4.3694],[15.3149,-4.3894],[15.3114,-4.3898],[15.3059,-4.3974],[15.2986,-4.4004]]]}},{"type":"Feature","properties":{"name":"Matete","km2":4.9,"side":"south","lon":15.3513,"lat":-4.389},"geometry":{"type":"Polygon","coordinates":[[[15.3362,-4.3953],[15.3371,-4.3911],[15.3409,-4.3856],[15.3403,-4.3836],[15.3467,-4.3793],[15.3488,-4.379],[15.352,-4.3818],[15.3665,-4.3874],[15.3638,-4.3874],[15.3639,-4.3905],[15.3674,-4.3944],[15.3618,-4.3987],[15.3568,-4.3971],[15.3448,-4.3979],[15.3362,-4.3953]]]}},{"type":"Feature","properties":{"name":"Barumbu","km2":4.5,"side":"south","lon":15.3257,"lat":-4.319},"geometry":{"type":"Polygon","coordinates":[[[15.3146,-4.3093],[15.3197,-4.3081],[15.3245,-4.3099],[15.3265,-4.3053],[15.33,-4.3082],[15.3365,-4.3255],[15.3297,-4.3306],[15.3215,-4.3324],[15.3146,-4.3093]]]}},{"type":"Feature","properties":{"name":"Bumbu","km2":4.5,"side":"south","lon":15.2934,"lat":-4.3726},"geometry":{"type":"Polygon","coordinates":[[[15.2827,-4.3788],[15.2879,-4.3599],[15.3055,-4.3658],[15.3023,-4.3744],[15.3012,-4.3853],[15.2913,-4.382],[15.2918,-4.3807],[15.2827,-4.3788]]]}},{"type":"Feature","properties":{"name":"Kintambo","km2":4.0,"side":"south","lon":15.2667,"lat":-4.3434},"geometry":{"type":"Polygon","coordinates":[[[15.2592,-4.3369],[15.26,-4.3345],[15.2679,-4.3318],[15.2682,-4.3279],[15.2705,-4.3303],[15.2709,-4.3325],[15.2725,-4.3325],[15.2736,-4.3376],[15.2716,-4.3437],[15.2721,-4.3483],[15.2741,-4.3502],[15.2763,-4.3494],[15.2789,-4.351],[15.2803,-4.3561],[15.2797,-4.3595],[15.2768,-4.357],[15.2755,-4.3584],[15.2629,-4.3581],[15.2647,-4.3492],[15.2592,-4.3369]]]}},{"type":"Feature","properties":{"name":"Kasa-Vubu","km2":3.9,"side":"south","lon":15.304,"lat":-4.3417},"geometry":{"type":"Polygon","coordinates":[[[15.2918,-4.348],[15.296,-4.3371],[15.3144,-4.3316],[15.314,-4.3399],[15.309,-4.352],[15.3065,-4.3526],[15.2918,-4.348]]]}},{"type":"Feature","properties":{"name":"Kinshasa","km2":3.1,"side":"south","lon":15.3118,"lat":-4.3219},"geometry":{"type":"Polygon","coordinates":[[[15.3027,-4.313],[15.3149,-4.3105],[15.321,-4.3316],[15.3143,-4.3298],[15.3144,-4.3316],[15.3064,-4.334],[15.3079,-4.3292],[15.3027,-4.313]]]}},{"type":"Feature","properties":{"name":"Ngiri-Ngiri","km2":3.1,"side":"south","lon":15.2987,"lat":-4.3569},"geometry":{"type":"Polygon","coordinates":[[[15.2879,-4.3599],[15.2918,-4.348],[15.3065,-4.3526],[15.3106,-4.3505],[15.3055,-4.3658],[15.2879,-4.3599]]]}},{"type":"Feature","properties":{"name":"Ngaba","km2":2.9,"side":"south","lon":15.3218,"lat":-4.3813},"geometry":{"type":"Polygon","coordinates":[[[15.3149,-4.3894],[15.32,-4.3694],[15.3331,-4.3734],[15.3318,-4.3778],[15.3254,-4.3841],[15.3243,-4.39],[15.3251,-4.3927],[15.3149,-4.3894]]]}},{"type":"Feature","properties":{"name":"Lingwala","km2":2.8,"side":"south","lon":15.3013,"lat":-4.3253},"geometry":{"type":"Polygon","coordinates":[[[15.2922,-4.3167],[15.3027,-4.313],[15.3079,-4.3292],[15.3064,-4.334],[15.296,-4.3371],[15.2962,-4.3272],[15.2922,-4.3167]]]}}]}