{"type":"FeatureCollection","features":[{"type":"Feature","properties":{"kind":"secondary"},"geometry":{"type":"MultiLineString","coordinates":[[[15.2963,-4.3272],[15.3043,-4.325]],[[15.2749,-4.3208],[15.2748,-4.3206]],[[15.3053,-4.3379],[15.305,-4.3378]],[[15.3091,-4.3395],[15.3097,-4.3396]],[[15.325,-4.3302],[15.3249,-4.3302]],[[15.3249,-4.3302],[15.3248,-4.3302]],[[15.3248,-4.3302],[15.3228,-4.3303],[15.3208,-4.3312]],[[15.3208,-4.3312],[15.3193,-4.3315],[15.3141,-4.3295]],[[15.2749,-4.3208],[15.2778,-4.3229]],[[15.2778,-4.3229],[15.2781,-4.3232]],[[15.3049,-4.3386],[15.3038,-4.343],[15.3009,-4.3509]],[[15.3264,-4.3367],[15.325,-4.343]],[[15.3249,-4.3518],[15.3251,-4.351]],[[15.325,-4.3302],[15.325,-4.3304]],[[15.325,-4.3304],[15.325,-4.3305]],[[15.325,-4.3305],[15.3253,-4.3316]],[[15.3184,-4.3745],[15.3159,-4.3828]],[[15.3248,-4.3507],[15.3248,-4.351]],[[15.3089,-4.3012],[15.3088,-4.3012]],[[15.3088,-4.3012],[15.3086,-4.3012]],[[15.3086,-4.3012],[15.3087,-4.3015]],[[15.3087,-4.3015],[15.3089,-4.3012]],[[15.3082,-4.3015],[15.2998,-4.3046],[15.2954,-4.305]],[[15.2746,-4.3197],[15.2748,-4.3186]],[[15.3029,-4.3374],[15.3009,-4.3367]],[[15.3087,-4.3392],[15.3057,-4.3382]],[[15.3092,-4.3392],[15.309,-4.3392],[15.3087,-4.3392]],[[15.3097,-4.3396],[15.3101,-4.3396]],[[15.3139,-4.3409],[15.3194,-4.3426]],[[15.3197,-4.3427],[15.3239,-4.3441]],[[15.3249,-4.3441],[15.324,-4.3441]],[[15.315,-4.3896],[15.3149,-4.3891]],[[15.3321,-4.3184],[15.332,-4.3185]],[[15.332,-4.3185],[15.3326,-4.3187],[15.3324,-4.3184],[15.3321,-4.3184]],[[15.3206,-4.3677],[15.3207,-4.3674]],[[15.3207,-4.3672],[15.3208,-4.3666]],[[15.3203,-4.3671],[15.3205,-4.3675]],[[15.3205,-4.3675],[15.3207,-4.3674]],[[15.3207,-4.3674],[15.3207,-4.3672]],[[15.3207,-4.3672],[15.3205,-4.367]],[[15.3205,-4.367],[15.3203,-4.3671]],[[15.3421,-4.3743],[15.3439,-4.3748]],[[15.3409,-4.3741],[15.3362,-4.3736]],[[15.3362,-4.3736],[15.334,-4.3735]],[[15.3354,-4.3793],[15.3362,-4.3737]],[[15.3362,-4.3737],[15.3362,-4.3736]],[[15.3355,-4.3796],[15.3355,-4.3796]],[[15.3355,-4.3796],[15.3353,-4.3796]],[[15.3353,-4.3796],[15.3353,-4.3798]],[[15.3353,-4.3798],[15.3354,-4.3798]],[[15.3354,-4.3798],[15.3355,-4.3796]],[[15.2703,-4.3344],[15.2708,-4.3357]],[[15.2522,-4.3286],[15.249,-4.3254],[15.2471,-4.3247],[15.2441,-4.325],[15.2427,-4.3259],[15.2401,-4.3267],[15.2368,-4.3267],[15.2344,-4.3297]],[[15.2344,-4.3297],[15.2299,-4.3334],[15.2262,-4.3337],[15.222,-4.3354],[15.2201,-4.3375],[15.2192,-4.3401],[15.2192,-4.3442]],[[15.278,-4.3235],[15.2723,-4.3307],[15.2708,-4.3314]],[[15.3201,-4.3695],[15.3278,-4.3719]],[[15.3326,-4.3885],[15.3351,-4.39]],[[15.3306,-4.3877],[15.3308,-4.3877]],[[15.3308,-4.3877],[15.3308,-4.3876]],[[15.3308,-4.3876],[15.3307,-4.3875]],[[15.3307,-4.3875],[15.3306,-4.3875]],[[15.3306,-4.3875],[15.3306,-4.3877]],[[15.3307,-4.3873],[15.3306,-4.3875]],[[15.3249,-4.3441],[15.325,-4.3446]],[[15.325,-4.3446],[15.325,-4.345]],[[15.3251,-4.3507],[15.3249,-4.3498]],[[15.3249,-4.3498],[15.3248,-4.3507]],[[15.3249,-4.351],[15.3249,-4.3518]],[[15.3235,-4.3579],[15.3208,-4.3666]],[[15.324,-4.3441],[15.3248,-4.3445]],[[15.3063,-4.3341],[15.3053,-4.3373]],[[15.3057,-4.3382],[15.3054,-4.3379]],[[15.3045,-4.3379],[15.3049,-4.3381]],[[15.3049,-4.3386],[15.3053,-4.3383]],[[15.2552,-4.2695],[15.2618,-4.2706],[15.2636,-4.2697]],[[15.2636,-4.2697],[15.2637,-4.2696]],[[15.2637,-4.2696],[15.2671,-4.2674],[15.2726,-4.2659]],[[15.2716,-4.2811],[15.272,-4.2816]],[[15.2832,-4.2733],[15.2837,-4.2703]],[[15.2739,-4.2544],[15.2738,-4.2543]],[[15.2849,-4.2672],[15.2878,-4.2707]],[[15.2781,-4.2783],[15.2824,-4.2765]],[[15.2824,-4.2765],[15.2832,-4.2761]],[[15.2832,-4.2761],[15.2864,-4.2743],[15.289,-4.272]],[[15.289,-4.272],[15.2951,-4.2668]],[[15.3351,-4.3259],[15.3317,-4.3272],[15.3295,-4.3297],[15.3252,-4.3302]],[[15.3252,-4.3302],[15.325,-4.3302]],[[15.3193,-4.2997],[15.3115,-4.298],[15.3093,-4.2992],[15.3088,-4.3012]],[[15.1719,-4.4137],[15.1707,-4.4181],[15.168,-4.4198],[15.1668,-4.4233],[15.1651,-4.4248],[15.1644,-4.4287],[15.1646,-4.4296],[15.1668,-4.4316],[15.1668,-4.4353],[15.1688,-4.4408],[15.1676,-4.4428],[15.1672,-4.4453],[15.1685,-4.4534],[15.1704,-4.4554],[15.171,-4.4568],[15.1737,-4.457],[15.1749,-4.4585],[15.1779,-4.4602],[15.1802,-4.4663],[15.1802,-4.4691],[15.1825,-4.4703],[15.1867,-4.4749],[15.1904,-4.4763],[15.201,-4.488],[15.2027,-4.4904]],[[15.2728,-4.2658],[15.2729,-4.2658]],[[15.2729,-4.2658],[15.273,-4.2658]],[[15.273,-4.2658],[15.273,-4.2656]],[[15.273,-4.2656],[15.2728,-4.2658]],[[15.273,-4.2658],[15.2737,-4.2655]],[[15.2737,-4.2655],[15.2758,-4.2646]],[[15.2958,-4.266],[15.2935,-4.2617]],[[15.293,-4.2609],[15.29,-4.2592]],[[15.5773,-4.2085],[15.5777,-4.2108]],[[15.5782,-4.2111],[15.5778,-4.2091]],[[15.2815,-4.2506],[15.2842,-4.2539],[15.2858,-4.2555]],[[15.2858,-4.2555],[15.2899,-4.2596]],[[15.2597,-4.2619],[15.2535,-4.2641]],[[15.3463,-4.3737],[15.3455,-4.3732],[15.3446,-4.3735]],[[15.2664,-4.2493],[15.2643,-4.2537]],[[15.2643,-4.2537],[15.2641,-4.2539]],[[15.2641,-4.2539],[15.2609,-4.2578],[15.2605,-4.2616]],[[15.2605,-4.2616],[15.2606,-4.2621]],[[15.2606,-4.2621],[15.2607,-4.2629]],[[15.3309,-4.3229],[15.334,-4.3219],[15.3352,-4.3232]],[[15.3014,-4.3059],[15.3024,-4.3108]],[[15.3293,-4.3226],[15.3293,-4.3223]],[[15.3149,-4.3106],[15.316,-4.3146]],[[15.3136,-4.3054],[15.3134,-4.3054]],[[15.3134,-4.3054],[15.3135,-4.3058]],[[15.3135,-4.3058],[15.3136,-4.3054]],[[15.2748,-4.3186],[15.2757,-4.3176],[15.2954,-4.305]],[[15.2708,-4.3357],[15.2705,-4.3366],[15.2676,-4.3376]],[[15.2844,-4.2668],[15.2796,-4.2611]],[[15.2796,-4.2611],[15.2739,-4.2544]],[[15.276,-4.2783],[15.278,-4.2783]],[[15.2737,-4.2655],[15.273,-4.2656]],[[15.3302,-4.318],[15.332,-4.3185]],[[15.278,-4.2782],[15.278,-4.2783]],[[15.278,-4.2783],[15.2781,-4.2783]],[[15.2781,-4.2783],[15.2781,-4.2782],[15.278,-4.2782]],[[15.3025,-4.3121],[15.3024,-4.3108]],[[15.3116,-4.304],[15.3134,-4.3054]],[[15.2849,-4.2668],[15.2892,-4.2629]],[[15.2628,-4.3393],[15.2603,-4.3396]],[[15.2416,-4.2951],[15.2416,-4.2953]],[[15.2417,-4.295],[15.2416,-4.2948]],[[15.2416,-4.2953],[15.2346,-4.3072]],[[15.2346,-4.3072],[15.2346,-4.3073]],[[15.2346,-4.3073],[15.2337,-4.3082],[15.2305,-4.3085]],[[15.2401,-4.2917],[15.2416,-4.2948]],[[15.305,-4.3378],[15.3045,-4.3379]],[[15.3053,-4.3379],[15.3054,-4.3373]],[[15.3053,-4.3383],[15.3057,-4.3382]],[[15.3087,-4.3392],[15.3091,-4.3395]],[[15.3101,-4.3396],[15.3098,-4.3393]],[[15.3049,-4.3382],[15.3049,-4.3386]],[[15.334,-4.3735],[15.3362,-4.3737]],[[15.3362,-4.3737],[15.3409,-4.3742]],[[15.3409,-4.3742],[15.3421,-4.3743]],[[15.2544,-4.2849],[15.2575,-4.287],[15.2631,-4.2894]],[[15.5599,-4.1198],[15.5649,-4.1188],[15.5659,-4.1173],[15.5653,-4.115],[15.5634,-4.114],[15.5538,-4.1141],[15.5453,-4.1106],[15.5413,-4.1076],[15.5344,-4.0994],[15.5335,-4.0978],[15.5332,-4.0956],[15.5336,-4.0936],[15.5366,-4.0871],[15.54,-4.0826],[15.5419,-4.0784],[15.545,-4.076],[15.5532,-4.0676],[15.5554,-4.0641],[15.5555,-4.0615],[15.5527,-4.0592],[15.5573,-4.0523],[15.5588,-4.0511],[15.5577,-4.0482],[15.5571,-4.048]],[[15.2288,-4.3471],[15.2307,-4.3486],[15.2318,-4.3487]],[[15.5502,-4.1877],[15.5469,-4.178],[15.5436,-4.1749],[15.5428,-4.1724],[15.5432,-4.1709],[15.5445,-4.1696],[15.5501,-4.1685],[15.552,-4.1671],[15.5527,-4.1658],[15.5528,-4.1638],[15.5522,-4.1621],[15.5489,-4.1593],[15.5481,-4.1563],[15.5506,-4.1507],[15.5554,-4.1274],[15.5556,-4.1241],[15.5599,-4.1198]],[[15.2708,-4.3314],[15.2707,-4.3315]],[[15.2707,-4.3315],[15.2697,-4.3326],[15.2703,-4.3344]],[[15.2747,-4.3204],[15.2746,-4.3199]],[[15.2746,-4.3199],[15.2745,-4.3205]],[[15.2747,-4.3207],[15.2749,-4.3208]],[[15.2782,-4.3231],[15.2778,-4.3229]],[[15.2783,-4.3232],[15.2786,-4.3231]],[[15.278,-4.3235],[15.2782,-4.3233]],[[15.2781,-4.3232],[15.278,-4.3235]],[[15.2786,-4.3231],[15.2782,-4.3231]],[[15.2782,-4.3233],[15.2783,-4.3232]],[[15.2783,-4.3232],[15.2782,-4.3231]],[[15.2782,-4.3231],[15.2782,-4.3231],[15.2782,-4.3231]],[[15.2786,-4.3231],[15.2888,-4.326],[15.2962,-4.3272]],[[15.261,-4.2616],[15.265,-4.2609]],[[15.2622,-4.2277],[15.262,-4.2281]],[[15.2593,-4.2303],[15.2499,-4.2382],[15.2463,-4.2405]],[[15.2413,-4.2439],[15.2413,-4.2438]],[[15.2413,-4.2438],[15.2411,-4.2439],[15.2413,-4.2439]],[[15.2474,-4.2465],[15.2475,-4.248]],[[15.2879,-4.2708],[15.289,-4.272]],[[15.3009,-4.3367],[15.3006,-4.3358]],[[15.3271,-4.337],[15.3254,-4.3317]],[[15.3177,-4.3018],[15.318,-4.3021]],[[15.3184,-4.3042],[15.318,-4.3021]],[[15.318,-4.3021],[15.3178,-4.3015]],[[15.1413,-4.353],[15.1441,-4.3594],[15.1462,-4.3617],[15.1466,-4.3637],[15.1421,-4.3658],[15.1369,-4.3648],[15.1354,-4.3654],[15.1327,-4.3682],[15.1329,-4.3716],[15.1294,-4.377],[15.1293,-4.3805],[15.1237,-4.3887],[15.1223,-4.3895],[15.118,-4.3891],[15.1163,-4.3948],[15.1146,-4.3969],[15.1144,-4.4007],[15.1128,-4.4024],[15.1127,-4.4043],[15.1098,-4.4103],[15.1097,-4.4117],[15.1083,-4.4129],[15.1119,-4.4176],[15.1081,-4.4216],[15.1061,-4.4265],[15.1065,-4.4294],[15.1059,-4.4312],[15.1047,-4.4325],[15.1033,-4.4323],[15.1013,-4.4338],[15.0994,-4.4345],[15.0995,-4.4352],[15.1025,-4.4379],[15.1026,-4.4387],[15.0984,-4.4402],[15.0965,-4.4393],[15.0955,-4.4393],[15.0942,-4.4417],[15.0918,-4.4408],[15.0901,-4.444],[15.0903,-4.4464],[15.087,-4.4476],[15.0874,-4.453],[15.0811,-4.4583],[15.0794,-4.4615],[15.0776,-4.4716],[15.0776,-4.4773],[15.0761,-4.481],[15.0749,-4.4809],[15.0703,-4.4771],[15.063,-4.4771],[15.0607,-4.4766],[15.0535,-4.4784],[15.0513,-4.4805],[15.0509,-4.4828],[15.0486,-4.4834],[15.0426,-4.4873],[15.0405,-4.4954],[15.0387,-4.4966],[15.0355,-4.4967],[15.0315,-4.501],[15.0311,-4.5022],[15.0316,-4.5042],[15.0334,-4.5055],[15.0335,-4.5062],[15.0308,-4.5097],[15.028,-4.5114],[15.0246,-4.5104],[15.0176,-4.511],[15.0128,-4.5126],[15.0109,-4.5142],[15.0103,-4.5165],[15.0108,-4.5216],[15.0143,-4.5246],[15.0147,-4.5258],[15.0142,-4.5284],[15.0118,-4.5334],[15.0068,-4.5352],[14.9993,-4.5348],[14.997,-4.5354],[14.9944,-4.5373],[14.9867,-4.5379],[14.982,-4.5405],[14.9779,-4.5406],[14.9755,-4.5415],[14.9749,-4.5431],[14.9761,-4.5466],[14.9716,-4.5534],[14.9693,-4.5589],[14.9594,-4.5692],[14.9576,-4.5705],[14.9527,-4.5727],[14.9522,-4.5737],[14.9526,-4.5764],[14.9516,-4.5801],[14.9467,-4.5805],[14.9466,-4.5878],[14.9451,-4.5903],[14.9427,-4.5927],[14.9428,-4.5941]],[[15.3063,-4.3339],[15.3063,-4.3326],[15.3074,-4.3306]],[[15.3061,-4.3232],[15.3057,-4.3245]],[[15.3057,-4.3245],[15.3043,-4.325]],[[15.3074,-4.3306],[15.3079,-4.3298],[15.3079,-4.3292],[15.3065,-4.3243]],[[15.3065,-4.3243],[15.3064,-4.3239]],[[15.3064,-4.3239],[15.3062,-4.3235]],[[15.3062,-4.3235],[15.3051,-4.3196],[15.3043,-4.3182],[15.3025,-4.3121]],[[15.3041,-4.3179],[15.3052,-4.3203]],[[15.306,-4.3333],[15.3061,-4.3337]],[[15.3063,-4.334],[15.3063,-4.3341]],[[15.3175,-4.3205],[15.3276,-4.3175],[15.3302,-4.318]],[[15.3057,-4.3245],[15.3058,-4.3246],[15.3064,-4.3244]],[[15.3064,-4.3244],[15.3065,-4.3243]],[[15.3294,-4.3212],[15.3302,-4.318]],[[15.3302,-4.318],[15.3312,-4.315],[15.3302,-4.312],[15.3256,-4.3073]],[[15.3293,-4.3223],[15.3294,-4.3212]],[[15.242,-4.2434],[15.2413,-4.2438]],[[15.2837,-4.2703],[15.2837,-4.2701]],[[15.2841,-4.2677],[15.2846,-4.2671]],[[15.2464,-4.2456],[15.2413,-4.2439]],[[15.242,-4.2434],[15.2463,-4.2405]],[[15.262,-4.2281],[15.2624,-4.2278]],[[15.262,-4.2281],[15.2593,-4.2303]],[[15.3063,-4.3239],[15.3064,-4.3239]],[[15.3064,-4.3239],[15.3072,-4.3235]],[[15.2828,-4.2773],[15.2826,-4.2777]],[[15.2534,-4.2841],[15.2544,-4.2849]],[[15.2612,-4.2649],[15.2635,-4.2694]],[[15.2603,-4.2616],[15.2597,-4.2619]],[[15.2606,-4.2621],[15.261,-4.2616]],[[15.2641,-4.2539],[15.2643,-4.2541]],[[15.265,-4.2609],[15.2647,-4.2573]],[[15.2396,-4.2635],[15.2383,-4.2611],[15.2392,-4.258],[15.242,-4.2563],[15.2438,-4.2535],[15.2473,-4.2506],[15.2478,-4.2493],[15.2475,-4.248]],[[15.325,-4.346],[15.3251,-4.3446]],[[15.3251,-4.3446],[15.3251,-4.3442]],[[15.325,-4.343],[15.3249,-4.3441]],[[15.325,-4.346],[15.3249,-4.3498]],[[15.325,-4.345],[15.325,-4.346]],[[15.3248,-4.3445],[15.325,-4.3446]],[[15.325,-4.3446],[15.3251,-4.3446]],[[15.2892,-4.2629],[15.2899,-4.2596]],[[15.2899,-4.2596],[15.2899,-4.2595]],[[15.29,-4.2592],[15.2905,-4.2544],[15.2894,-4.2513]],[[15.2894,-4.2513],[15.286,-4.2442]],[[15.29,-4.2592],[15.2859,-4.2554]],[[15.2859,-4.2554],[15.2816,-4.2505],[15.2793,-4.2504],[15.2788,-4.2499]],[[15.2859,-4.2554],[15.2888,-4.2527]],[[15.2774,-4.263],[15.2796,-4.2611]],[[15.2796,-4.2611],[15.2858,-4.2555]],[[15.2858,-4.2555],[15.2858,-4.2554]],[[15.2858,-4.2554],[15.2859,-4.2554]],[[15.2773,-4.2631],[15.2773,-4.2631]],[[15.2899,-4.2595],[15.29,-4.2592]],[[15.29,-4.2592],[15.29,-4.2592]],[[15.316,-4.3146],[15.316,-4.3146]],[[15.3191,-4.3261],[15.3175,-4.3205]],[[15.2505,-4.3048],[15.2521,-4.3048],[15.2536,-4.3053],[15.2545,-4.3052],[15.256,-4.3045],[15.2582,-4.3018]],[[15.2647,-4.2573],[15.2643,-4.2541]],[[15.3333,-4.3735],[15.333,-4.3734]],[[15.333,-4.3734],[15.3278,-4.3719]],[[15.2669,-4.2887],[15.2666,-4.29]],[[15.2725,-4.282],[15.2803,-4.279]],[[15.3254,-4.3317],[15.3254,-4.3316]],[[15.3254,-4.3316],[15.325,-4.3304]],[[15.325,-4.3304],[15.325,-4.3304]],[[15.325,-4.3304],[15.3249,-4.3302]],[[15.3253,-4.3316],[15.3253,-4.3317]],[[15.3253,-4.3317],[15.3269,-4.337]],[[15.3208,-4.3345],[15.3215,-4.3326]],[[15.3215,-4.3326],[15.3215,-4.3324]],[[15.3441,-4.3738],[15.3446,-4.3736]],[[15.3446,-4.3735],[15.3442,-4.3737]],[[15.3421,-4.3743],[15.3429,-4.3742],[15.3441,-4.3738]],[[15.3442,-4.3737],[15.3427,-4.3742],[15.3409,-4.3741]],[[15.334,-4.3735],[15.3333,-4.3735]],[[15.3307,-4.3873],[15.3325,-4.3837],[15.3346,-4.3816],[15.3353,-4.38]],[[15.3307,-4.3875],[15.3307,-4.3873]],[[15.3149,-4.3891],[15.3146,-4.3896]],[[15.3409,-4.3741],[15.3409,-4.3742]],[[15.3446,-4.3736],[15.3456,-4.3734],[15.3464,-4.3741],[15.3463,-4.3737]],[[15.3053,-4.3373],[15.305,-4.3378]],[[15.3086,-4.3012],[15.3082,-4.3015]],[[15.3082,-4.3015],[15.3082,-4.3015],[15.3087,-4.3015]],[[15.2737,-4.2542],[15.2738,-4.2543]],[[15.2738,-4.2543],[15.2738,-4.2541]],[[15.2664,-4.2493],[15.2665,-4.2488]],[[15.2664,-4.2488],[15.2664,-4.2493]],[[15.5778,-4.2091],[15.5773,-4.2085]],[[15.5773,-4.2085],[15.5755,-4.2068],[15.5671,-4.2042]],[[15.5671,-4.2042],[15.5668,-4.204]],[[15.2544,-4.2849],[15.2543,-4.2836]],[[15.2803,-4.2789],[15.2724,-4.2818]],[[15.272,-4.2816],[15.272,-4.2819]],[[15.2803,-4.279],[15.2804,-4.279]],[[15.2722,-4.2818],[15.272,-4.2816]],[[15.2804,-4.2789],[15.2803,-4.2789]],[[15.2714,-4.281],[15.2716,-4.2811]],[[15.2716,-4.2811],[15.2716,-4.2808]],[[15.2826,-4.2777],[15.2804,-4.2789]],[[15.2804,-4.279],[15.2836,-4.2772]],[[15.2836,-4.2772],[15.2832,-4.2761]],[[15.2725,-4.282],[15.2724,-4.2818]],[[15.2724,-4.2818],[15.2722,-4.2818]],[[15.2722,-4.2818],[15.272,-4.2819]],[[15.272,-4.2819],[15.272,-4.282]],[[15.272,-4.282],[15.2722,-4.2822]],[[15.2722,-4.2822],[15.2725,-4.282]],[[15.2824,-4.2765],[15.2828,-4.2773]],[[15.2665,-4.2906],[15.2665,-4.2907]],[[15.2665,-4.2907],[15.2668,-4.2906]],[[15.2668,-4.2906],[15.2668,-4.2904]],[[15.2668,-4.2904],[15.2665,-4.2903]],[[15.2665,-4.2903],[15.2665,-4.2904]],[[15.2665,-4.2904],[15.2665,-4.2906]],[[15.2662,-4.2905],[15.2665,-4.2906]],[[15.2665,-4.2904],[15.2662,-4.2905]],[[15.2668,-4.2904],[15.2667,-4.29]],[[15.2666,-4.29],[15.2665,-4.2903]],[[15.272,-4.282],[15.2718,-4.2823]],[[15.2718,-4.2824],[15.2722,-4.2822]],[[15.2951,-4.2668],[15.2952,-4.2667]],[[15.2958,-4.266],[15.2959,-4.2662]],[[15.2953,-4.2665],[15.2952,-4.2667]],[[15.284,-4.2678],[15.2837,-4.2701]],[[15.2837,-4.2701],[15.2841,-4.2678]],[[15.2845,-4.267],[15.284,-4.2677]],[[15.2845,-4.267],[15.2846,-4.2671]],[[15.2846,-4.2671],[15.2847,-4.2671]],[[15.2847,-4.2671],[15.2848,-4.2671]],[[15.2848,-4.2671],[15.2848,-4.267]],[[15.2848,-4.267],[15.2847,-4.2669]],[[15.2847,-4.2669],[15.2847,-4.2669]],[[15.2847,-4.2669],[15.2845,-4.267]],[[15.2845,-4.267],[15.2845,-4.267]],[[15.2837,-4.2701],[15.2836,-4.2703]],[[15.2849,-4.2668],[15.2847,-4.2669]],[[15.2848,-4.267],[15.2849,-4.2668]],[[15.2847,-4.2671],[15.2849,-4.2672]],[[15.2849,-4.2672],[15.2848,-4.2671]],[[15.2931,-4.2614],[15.2932,-4.2615]],[[15.2932,-4.2615],[15.2934,-4.2614]],[[15.2934,-4.2614],[15.2933,-4.2612]],[[15.2933,-4.2612],[15.2931,-4.2613]],[[15.2931,-4.2613],[15.2931,-4.2614]],[[15.2932,-4.2615],[15.2935,-4.2617]],[[15.2935,-4.2617],[15.2934,-4.2614]],[[15.2844,-4.2668],[15.2845,-4.267]],[[15.2836,-4.2703],[15.2831,-4.2733]],[[15.2847,-4.2669],[15.2844,-4.2668]],[[15.293,-4.2609],[15.2931,-4.2613]],[[15.2933,-4.2612],[15.293,-4.2609]],[[15.2758,-4.2646],[15.2773,-4.2631]],[[15.2726,-4.2659],[15.2729,-4.2658]],[[15.2728,-4.2658],[15.2726,-4.2659]],[[15.2473,-4.2459],[15.2474,-4.246]],[[15.2474,-4.246],[15.2476,-4.2461]],[[15.2476,-4.2461],[15.2474,-4.2458]],[[15.2474,-4.2458],[15.2473,-4.2459]],[[15.2474,-4.2465],[15.2476,-4.2461]],[[15.2464,-4.2456],[15.2471,-4.2458]],[[15.2474,-4.246],[15.2474,-4.2465]],[[15.2474,-4.2458],[15.2471,-4.2458]],[[15.2471,-4.2458],[15.2474,-4.246]],[[15.2398,-4.2642],[15.24,-4.264]],[[15.24,-4.264],[15.2398,-4.2638]],[[15.2398,-4.2638],[15.2397,-4.2638]],[[15.2397,-4.2638],[15.2398,-4.2642]],[[15.2527,-4.2643],[15.2453,-4.2665],[15.2435,-4.2661],[15.2402,-4.2643]],[[15.2402,-4.2643],[15.24,-4.264]],[[15.3024,-4.3108],[15.3024,-4.3121]],[[15.3196,-4.3427],[15.3197,-4.3427]],[[15.3194,-4.3426],[15.3196,-4.3427]],[[15.3101,-4.3396],[15.3135,-4.3407]],[[15.3208,-4.3666],[15.3205,-4.367]],[[15.324,-4.3441],[15.3239,-4.3441]],[[15.3251,-4.3442],[15.3249,-4.3441]],[[15.2417,-4.2952],[15.2418,-4.2952]],[[15.2418,-4.2952],[15.2417,-4.295]],[[15.2417,-4.295],[15.2417,-4.295]],[[15.2417,-4.295],[15.2416,-4.2951]],[[15.2416,-4.2951],[15.2417,-4.2952]],[[15.2665,-4.2907],[15.2638,-4.295],[15.2618,-4.2962]],[[15.2618,-4.2963],[15.2627,-4.296],[15.2641,-4.2947],[15.2668,-4.2906]],[[15.2718,-4.2823],[15.2706,-4.2834],[15.2694,-4.285],[15.2675,-4.2875],[15.2669,-4.2887]],[[15.2805,-4.2327],[15.286,-4.2441]],[[15.2597,-4.2619],[15.26,-4.2618],[15.2603,-4.2616]],[[15.261,-4.2616],[15.2605,-4.2616]],[[15.3205,-4.3675],[15.3206,-4.3677]],[[15.2416,-4.2953],[15.2418,-4.2952]],[[15.2398,-4.2642],[15.2402,-4.2643]],[[15.2396,-4.2635],[15.2397,-4.2638]],[[15.2398,-4.2638],[15.2396,-4.2635]],[[15.307,-4.3235],[15.3068,-4.3235],[15.3062,-4.3235]],[[15.3062,-4.3235],[15.3061,-4.3235]],[[15.2643,-4.254],[15.2643,-4.2537]],[[15.2888,-4.2527],[15.2894,-4.2513]],[[15.2786,-4.25],[15.2792,-4.2506],[15.2815,-4.2506]],[[15.255,-4.2696],[15.2552,-4.2695]],[[15.2552,-4.2695],[15.255,-4.2695]],[[15.2748,-4.3206],[15.2747,-4.3204]],[[15.2746,-4.3206],[15.2747,-4.3207]],[[15.2745,-4.3205],[15.2746,-4.3206]],[[15.3139,-4.3409],[15.3138,-4.3408]],[[15.3138,-4.3409],[15.3139,-4.3409]],[[15.3137,-4.3407],[15.3135,-4.3407]],[[15.3135,-4.3407],[15.3136,-4.3408]],[[15.3256,-4.3073],[15.3255,-4.3072]],[[15.3255,-4.3072],[15.3184,-4.3042]],[[15.3294,-4.3227],[15.3305,-4.323],[15.3309,-4.3229]],[[15.3309,-4.3229],[15.3293,-4.3226]],[[15.3293,-4.3226],[15.3294,-4.3227]],[[15.3353,-4.38],[15.3354,-4.3798]],[[15.3354,-4.3793],[15.3353,-4.3796]],[[15.3355,-4.3796],[15.3354,-4.3793]],[[15.3353,-4.3798],[15.3353,-4.38]],[[15.331,-4.3876],[15.3308,-4.3876]],[[15.3308,-4.3877],[15.331,-4.3876]],[[15.2746,-4.3199],[15.2746,-4.3197]],[[15.2524,-4.3287],[15.2522,-4.3286]],[[15.2522,-4.3286],[15.2524,-4.3288]],[[15.3054,-4.3373],[15.3063,-4.3341]],[[15.24,-4.3073],[15.2399,-4.3074]],[[15.2399,-4.3074],[15.2399,-4.3075]],[[15.2399,-4.3075],[15.2402,-4.3074]],[[15.2402,-4.3074],[15.2401,-4.3073]],[[15.2401,-4.3073],[15.24,-4.3073],[15.24,-4.3073]],[[15.2396,-4.3076],[15.2399,-4.3075]],[[15.2582,-4.3015],[15.2581,-4.3017]],[[15.2581,-4.3017],[15.2582,-4.3018]],[[15.2582,-4.3018],[15.2584,-4.3016]],[[15.2584,-4.3016],[15.2582,-4.3015]],[[15.2582,-4.3015],[15.2582,-4.3015]],[[15.2584,-4.3016],[15.2616,-4.2964]],[[15.2616,-4.2961],[15.2615,-4.2963]],[[15.2615,-4.2963],[15.2616,-4.2964]],[[15.2616,-4.2964],[15.2618,-4.2963]],[[15.2618,-4.2963],[15.2618,-4.2962]],[[15.2618,-4.2962],[15.2617,-4.2961],[15.2617,-4.2961],[15.2616,-4.2961]],[[15.2386,-4.3079],[15.2396,-4.3076]],[[15.2402,-4.3074],[15.2445,-4.3063],[15.246,-4.3055],[15.2475,-4.306],[15.248,-4.306],[15.2502,-4.3049]],[[15.2502,-4.3049],[15.2502,-4.3049]],[[15.2502,-4.3049],[15.2505,-4.3048]],[[15.2505,-4.3048],[15.2505,-4.3048]],[[15.2505,-4.3048],[15.2502,-4.3048]],[[15.2502,-4.3048],[15.2502,-4.3049]],[[15.3352,-4.3901],[15.3352,-4.39]],[[15.3107,-4.3033],[15.3106,-4.3032]],[[15.325,-4.3304],[15.3252,-4.3302]],[[15.3248,-4.3302],[15.325,-4.3305]],[[15.284,-4.2677],[15.284,-4.2678]],[[15.2841,-4.2678],[15.2841,-4.2677]],[[15.2603,-4.2616],[15.2605,-4.2616]],[[15.2643,-4.2541],[15.2643,-4.254]],[[15.2416,-4.2948],[15.2417,-4.295]],[[15.2667,-4.29],[15.2669,-4.2888]],[[15.2669,-4.2888],[15.2718,-4.2824]],[[15.2637,-4.2696],[15.2635,-4.2694]],[[15.2635,-4.2694],[15.2636,-4.2697]],[[15.261,-4.2644],[15.2607,-4.2629]],[[15.2607,-4.2629],[15.261,-4.2645]],[[15.2773,-4.2631],[15.2774,-4.2631]],[[15.2774,-4.2631],[15.2774,-4.263]],[[15.2758,-4.2783],[15.276,-4.2783]],[[15.276,-4.2783],[15.2759,-4.2783]],[[15.2859,-4.2554],[15.2859,-4.2554]],[[15.2527,-4.2643],[15.2528,-4.2643],[15.2529,-4.2643],[15.2531,-4.2643]],[[15.2531,-4.2642],[15.2527,-4.2643]],[[15.2531,-4.2643],[15.2535,-4.2641]],[[15.2535,-4.2641],[15.2531,-4.2642]],[[15.2961,-4.2661],[15.2958,-4.266]],[[15.2746,-4.3199],[15.2746,-4.3199]],[[15.316,-4.3149],[15.316,-4.3146]],[[15.2346,-4.3073],[15.2349,-4.3075]],[[15.235,-4.3074],[15.2346,-4.3072]],[[15.2349,-4.3077],[15.2352,-4.3076]],[[15.2352,-4.3076],[15.2351,-4.3075]],[[15.2351,-4.3075],[15.235,-4.3074]],[[15.235,-4.3074],[15.2349,-4.3075]],[[15.2349,-4.3075],[15.2349,-4.3077]],[[15.2395,-4.3075],[15.2386,-4.3078]],[[15.2399,-4.3074],[15.2395,-4.3075]],[[15.2502,-4.3048],[15.248,-4.3059],[15.246,-4.3055],[15.2401,-4.3073]],[[15.2581,-4.3017],[15.2559,-4.3044],[15.2544,-4.3052],[15.2523,-4.3047],[15.2505,-4.3048]],[[15.2615,-4.2963],[15.2582,-4.3015]],[[15.331,-4.3876],[15.3326,-4.3885]],[[15.2352,-4.3076],[15.236,-4.3075],[15.2376,-4.3081],[15.2386,-4.3079]],[[15.2386,-4.3078],[15.2376,-4.308],[15.2361,-4.3075],[15.2351,-4.3075]],[[15.3352,-4.39],[15.3351,-4.39]],[[15.3199,-4.3289],[15.3195,-4.3275]],[[15.2962,-4.3272],[15.2963,-4.3272]],[[15.3357,-4.3246],[15.3358,-4.3249]],[[15.3358,-4.3249],[15.3351,-4.3259]],[[15.3211,-4.3316],[15.3208,-4.3312]],[[15.3208,-4.3312],[15.3199,-4.3289]],[[15.3206,-4.3677],[15.3201,-4.3695]],[[15.3195,-4.3275],[15.3191,-4.3261]],[[15.2254,-4.3442],[15.2271,-4.3455]],[[15.2192,-4.3442],[15.2245,-4.3434]],[[15.2665,-4.338],[15.2628,-4.3393]],[[15.2781,-4.3231],[15.2781,-4.3232]],[[15.2781,-4.3232],[15.2782,-4.3233]],[[15.2781,-4.3232],[15.2781,-4.3232]],[[15.2782,-4.3231],[15.2781,-4.3231]],[[15.3006,-4.3358],[15.3006,-4.3357]],[[15.3049,-4.3381],[15.3049,-4.3382]],[[15.3049,-4.3382],[15.3053,-4.3383]],[[15.3053,-4.3383],[15.3053,-4.3383]],[[15.3053,-4.3383],[15.3054,-4.3379]],[[15.305,-4.3378],[15.3049,-4.3381]],[[15.3098,-4.3393],[15.3095,-4.3391],[15.3092,-4.3392]],[[15.3097,-4.3396],[15.3098,-4.3393]],[[15.3092,-4.3392],[15.3091,-4.3395]],[[15.3251,-4.3442],[15.325,-4.343]],[[15.3251,-4.351],[15.3251,-4.3507]],[[15.3249,-4.351],[15.325,-4.351],[15.3251,-4.351]],[[15.3251,-4.3507],[15.3248,-4.3507]],[[15.3248,-4.351],[15.3249,-4.351]],[[15.3249,-4.3518],[15.3235,-4.3579]],[[15.305,-4.3378],[15.305,-4.3378]],[[15.3054,-4.3379],[15.3053,-4.3379]],[[15.3063,-4.3341],[15.3063,-4.3339]],[[15.2318,-4.3487],[15.2389,-4.3493]],[[15.2271,-4.3455],[15.2288,-4.3471]],[[15.3159,-4.3828],[15.3149,-4.3891]],[[15.3201,-4.3695],[15.3184,-4.3745]],[[15.3107,-4.3033],[15.3116,-4.304]],[[15.3045,-4.3379],[15.3039,-4.3377]],[[15.3039,-4.3377],[15.3029,-4.3374]],[[15.3024,-4.3121],[15.3041,-4.3179]],[[15.3052,-4.3203],[15.3061,-4.3232]],[[15.3061,-4.3232],[15.3061,-4.3235]],[[15.3061,-4.3337],[15.3063,-4.334]],[[15.3078,-4.3292],[15.3074,-4.3306]],[[15.3063,-4.3325],[15.306,-4.3333]],[[15.3074,-4.3306],[15.3063,-4.3325]],[[15.3358,-4.3249],[15.3362,-4.3247]],[[15.3352,-4.3232],[15.3352,-4.3234]],[[15.3158,-4.321],[15.3175,-4.3205]],[[15.3175,-4.3205],[15.316,-4.3149]],[[15.3072,-4.3235],[15.3158,-4.321]],[[15.3215,-4.3324],[15.3211,-4.3316]],[[15.2252,-4.344],[15.2254,-4.3442]],[[15.2245,-4.3434],[15.2252,-4.344]],[[15.3352,-4.3234],[15.3357,-4.3246]],[[15.3148,-4.3104],[15.3149,-4.3106]],[[15.3135,-4.3058],[15.3148,-4.3104]],[[15.3061,-4.3235],[15.3063,-4.3239]],[[15.3063,-4.3239],[15.3064,-4.3244]],[[15.3064,-4.3244],[15.3071,-4.3268]],[[15.5668,-4.204],[15.5523,-4.1912],[15.5503,-4.1879]],[[15.5503,-4.1879],[15.5502,-4.1877]],[[15.1432,-4.3315],[15.1456,-4.3358],[15.1456,-4.341],[15.1421,-4.3479],[15.1413,-4.353]],[[15.2631,-4.2894],[15.2662,-4.2905]],[[15.261,-4.2645],[15.2612,-4.2649]],[[15.2612,-4.2649],[15.261,-4.2644]],[[15.1886,-4.3876],[15.1861,-4.3902],[15.1815,-4.3924],[15.1783,-4.3954],[15.1786,-4.399],[15.1719,-4.4137]],[[15.3071,-4.3268],[15.3078,-4.3292]],[[15.3074,-4.3306],[15.3074,-4.3306]]]}},{"type":"Feature","properties":{"kind":"tertiary"},"geometry":{"type":"MultiLineString","coordinates":[[[15.3119,-4.3467],[15.3159,-4.348]],[[15.3159,-4.348],[15.3224,-4.3501]],[[15.3224,-4.3501],[15.3241,-4.3507]],[[15.286,-4.307],[15.2882,-4.3105]],[[15.3251,-4.351],[15.3254,-4.3509]],[[15.2981,-4.3453],[15.3002,-4.346]],[[15.3002,-4.346],[15.3045,-4.3474]],[[15.3045,-4.3474],[15.306,-4.3479]],[[15.307,-4.348],[15.307,-4.3479]],[[15.307,-4.3479],[15.3065,-4.3478]],[[15.3065,-4.3478],[15.3065,-4.3478]],[[15.3065,-4.3478],[15.3064,-4.3481]],[[15.3064,-4.3481],[15.3064,-4.3482]],[[15.3064,-4.3482],[15.3068,-4.3484]],[[15.3068,-4.3484],[15.3069,-4.3483]],[[15.3069,-4.3483],[15.307,-4.348]],[[15.318,-4.3021],[15.3158,-4.3027]],[[15.3158,-4.3027],[15.3141,-4.3032]],[[15.3141,-4.3032],[15.3098,-4.3044]],[[15.3098,-4.3044],[15.3085,-4.3048]],[[15.3085,-4.3048],[15.3071,-4.3052]],[[15.316,-4.3038],[15.3138,-4.3044]],[[15.3138,-4.3044],[15.3094,-4.3057]],[[15.3094,-4.3057],[15.3087,-4.3059]],[[15.3087,-4.3059],[15.3075,-4.3062]],[[15.3075,-4.3062],[15.3038,-4.3073]],[[15.3038,-4.3073],[15.3018,-4.3078]],[[15.3082,-4.3038],[15.3085,-4.3048]],[[15.3085,-4.3048],[15.3087,-4.3059]],[[15.3087,-4.3059],[15.3089,-4.3064]],[[15.3089,-4.3064],[15.309,-4.3068]],[[15.309,-4.3068],[15.3091,-4.3073]],[[15.3091,-4.3073],[15.3095,-4.3084]],[[15.3054,-4.3047],[15.3054,-4.3025]],[[15.3087,-4.3015],[15.3084,-4.3025]],[[15.3088,-4.3015],[15.3102,-4.303]],[[15.3123,-4.3138],[15.3138,-4.3192]],[[15.3138,-4.3192],[15.3154,-4.3244]],[[15.3109,-4.3005],[15.3119,-4.3013],[15.3121,-4.3006]],[[15.3086,-4.3067],[15.3086,-4.3069]],[[15.3086,-4.3069],[15.3091,-4.3073]],[[15.3091,-4.3073],[15.3095,-4.3067]],[[15.3095,-4.3067],[15.3092,-4.3064]],[[15.3092,-4.3064],[15.309,-4.3063],[15.3089,-4.3064]],[[15.3141,-4.3291],[15.3178,-4.3281]],[[15.3217,-4.311],[15.322,-4.3103]],[[15.322,-4.3103],[15.3225,-4.3091]],[[15.3053,-4.3123],[15.3027,-4.313]],[[15.3027,-4.313],[15.2984,-4.3144]],[[15.2984,-4.3144],[15.2923,-4.3167]],[[15.2923,-4.3167],[15.2891,-4.3179],[15.2858,-4.3184]],[[15.2858,-4.3184],[15.2801,-4.3191]],[[15.2844,-4.3247],[15.2858,-4.3186]],[[15.2861,-4.3069],[15.2852,-4.306],[15.2839,-4.3051]],[[15.2764,-4.314],[15.2802,-4.3114]],[[15.2802,-4.3114],[15.2808,-4.3107],[15.2817,-4.3106]],[[15.2984,-4.3144],[15.299,-4.3161]],[[15.3184,-4.3042],[15.3163,-4.3047]],[[15.3163,-4.3047],[15.3137,-4.3055]],[[15.2967,-4.3496],[15.2981,-4.3453]],[[15.2981,-4.3453],[15.2995,-4.341]],[[15.2995,-4.341],[15.3009,-4.3367]],[[15.3146,-4.3901],[15.3148,-4.3907]],[[15.2408,-4.342],[15.2444,-4.3367],[15.2502,-4.3353],[15.2525,-4.3322]],[[15.2526,-4.3321],[15.2535,-4.332]],[[15.2535,-4.332],[15.2529,-4.3315],[15.2526,-4.3321]],[[15.2535,-4.332],[15.2557,-4.3337]],[[15.3059,-4.3329],[15.305,-4.33],[15.3031,-4.3305]],[[15.3031,-4.3305],[15.3005,-4.3314],[15.3017,-4.3355]],[[15.3083,-4.3232],[15.3077,-4.3213]],[[15.3077,-4.3213],[15.3066,-4.3172]],[[15.3096,-4.3389],[15.3113,-4.3334]],[[15.3067,-4.335],[15.3085,-4.3343]],[[15.3085,-4.3343],[15.3113,-4.3334]],[[15.3113,-4.3334],[15.3129,-4.3329],[15.3145,-4.3334]],[[15.3085,-4.3343],[15.3073,-4.3387]],[[15.3083,-4.3232],[15.3091,-4.3262]],[[15.2801,-4.3191],[15.2764,-4.314]],[[15.2764,-4.314],[15.2732,-4.3116]],[[15.2732,-4.3116],[15.2772,-4.3061]],[[15.3309,-4.3229],[15.3321,-4.3188]],[[15.3144,-4.3405],[15.3197,-4.338]],[[15.3311,-4.3452],[15.3308,-4.3456]],[[15.3308,-4.3456],[15.3309,-4.3517]],[[15.3236,-4.3761],[15.3309,-4.3784]],[[15.3408,-4.3802],[15.3373,-4.3796]],[[15.3224,-4.3501],[15.3203,-4.3569]],[[15.3069,-4.3475],[15.3081,-4.3437]],[[15.3081,-4.3437],[15.3093,-4.34]],[[15.3065,-4.3478],[15.306,-4.3479]],[[15.3073,-4.3483],[15.311,-4.3494]],[[15.3054,-4.3523],[15.3065,-4.3486]],[[15.3105,-4.3509],[15.3107,-4.3506],[15.3106,-4.3503]],[[15.3071,-4.3617],[15.3096,-4.3537]],[[15.3096,-4.3537],[15.3105,-4.3509]],[[15.3197,-4.3425],[15.3204,-4.3415],[15.3203,-4.3383]],[[15.3203,-4.3383],[15.3203,-4.338]],[[15.3203,-4.338],[15.3202,-4.3377]],[[15.3202,-4.3377],[15.3204,-4.3342]],[[15.3136,-4.3413],[15.3141,-4.3414]],[[15.3165,-4.3457],[15.3141,-4.3414]],[[15.3073,-4.3387],[15.3059,-4.3431]],[[15.3059,-4.3431],[15.3045,-4.3474]],[[15.2995,-4.341],[15.3016,-4.3417]],[[15.3016,-4.3417],[15.3059,-4.3431]],[[15.3059,-4.3431],[15.3081,-4.3437]],[[15.3157,-4.3023],[15.316,-4.3018]],[[15.2735,-4.3367],[15.2745,-4.3375]],[[15.2745,-4.3375],[15.2736,-4.3418],[15.2742,-4.344]],[[15.2745,-4.3336],[15.2745,-4.3375]],[[15.2149,-4.3492],[15.2171,-4.3467],[15.2172,-4.3445]],[[15.2429,-4.3489],[15.2486,-4.3489],[15.2502,-4.3485],[15.251,-4.3493]],[[15.3202,-4.338],[15.3203,-4.338]],[[15.2566,-4.375],[15.2592,-4.3739],[15.2603,-4.3711]],[[15.2848,-4.3698],[15.2966,-4.3735]],[[15.3007,-4.3597],[15.2997,-4.3627]],[[15.3148,-4.3907],[15.3155,-4.3939]],[[15.3163,-4.407],[15.3163,-4.4111]],[[15.3301,-4.3289],[15.3305,-4.3298]],[[15.3282,-4.3404],[15.3295,-4.3395],[15.3315,-4.3306]],[[15.3306,-4.3877],[15.3307,-4.3879]],[[15.3209,-4.4032],[15.325,-4.4025],[15.3304,-4.3998],[15.3331,-4.3935]],[[15.3032,-4.3516],[15.3007,-4.3597]],[[15.3224,-4.3501],[15.3239,-4.3441]],[[15.3254,-4.3509],[15.3272,-4.352]],[[15.3248,-4.3508],[15.3241,-4.3507]],[[15.3241,-4.3507],[15.3248,-4.351]],[[15.3203,-4.3569],[15.3156,-4.3556]],[[15.2985,-4.359],[15.2901,-4.3564]],[[15.2901,-4.3516],[15.2844,-4.3507]],[[15.2862,-4.3456],[15.2848,-4.3478]],[[15.2848,-4.3478],[15.2848,-4.348]],[[15.2848,-4.348],[15.2844,-4.3507]],[[15.2862,-4.3456],[15.2865,-4.3454]],[[15.2845,-4.3479],[15.2809,-4.3473],[15.2805,-4.3424]],[[15.2995,-4.3636],[15.2978,-4.3692]],[[15.2533,-4.3594],[15.2536,-4.3608],[15.2544,-4.3613]],[[15.2844,-4.4447],[15.2861,-4.4447],[15.2881,-4.4457],[15.2895,-4.4473],[15.2898,-4.4492]],[[15.2545,-4.2699],[15.252,-4.2734],[15.2515,-4.2756]],[[15.2515,-4.2756],[15.2521,-4.2809]],[[15.348,-4.3463],[15.3448,-4.3474]],[[15.3447,-4.3379],[15.3455,-4.3394],[15.347,-4.34]],[[15.347,-4.34],[15.3471,-4.3401]],[[15.3469,-4.3403],[15.3431,-4.3416]],[[15.26,-4.2775],[15.261,-4.2746]],[[15.261,-4.2746],[15.2631,-4.2686]],[[15.2701,-4.2817],[15.2601,-4.2801]],[[15.2806,-4.2327],[15.2828,-4.2342]],[[15.2828,-4.2342],[15.2887,-4.2383],[15.2922,-4.2388]],[[15.2734,-4.2758],[15.278,-4.2726]],[[15.3232,-4.3588],[15.3245,-4.3591]],[[15.2813,-4.3099],[15.2811,-4.3096]],[[15.3419,-4.3929],[15.3433,-4.3925]],[[15.3427,-4.3817],[15.343,-4.3829]],[[15.343,-4.3829],[15.3439,-4.385]],[[15.3584,-4.3902],[15.356,-4.3965]],[[15.3527,-4.3932],[15.3467,-4.3937]],[[15.3512,-4.3564],[15.3564,-4.3553]],[[15.3264,-4.3369],[15.3282,-4.3404]],[[15.3282,-4.3404],[15.3288,-4.3416]],[[15.2583,-4.3541],[15.2568,-4.3543]],[[15.2568,-4.3543],[15.2567,-4.3543]],[[15.2565,-4.3546],[15.2579,-4.3549]],[[15.2381,-4.3535],[15.2324,-4.353],[15.2308,-4.3541],[15.229,-4.3546],[15.2267,-4.3531]],[[15.316,-4.3961],[15.3209,-4.3975]],[[15.3209,-4.3975],[15.3209,-4.4032]],[[15.3517,-4.3823],[15.3471,-4.3809],[15.343,-4.3829]],[[15.3527,-4.3932],[15.3522,-4.3873]],[[15.2267,-4.3531],[15.2227,-4.3507],[15.2189,-4.3519],[15.2137,-4.3513]],[[15.4234,-4.4053],[15.427,-4.4191],[15.43,-4.423]],[[15.2906,-4.2661],[15.2923,-4.2691]],[[15.2828,-4.2342],[15.2859,-4.2406]],[[15.2943,-4.2411],[15.2885,-4.2461]],[[15.3471,-4.3401],[15.3485,-4.3406],[15.3495,-4.3418]],[[15.3967,-4.3987],[15.3967,-4.4098],[15.3985,-4.4175],[15.4025,-4.4249],[15.4086,-4.4252]],[[15.3755,-4.3908],[15.3759,-4.3978]],[[15.3741,-4.4072],[15.3809,-4.4137]],[[15.2838,-4.3052],[15.2839,-4.3051]],[[15.2814,-4.4726],[15.2804,-4.4709],[15.2787,-4.4697],[15.2757,-4.4705],[15.2747,-4.4701],[15.2749,-4.4687],[15.2741,-4.4646],[15.2716,-4.4617],[15.2702,-4.4611],[15.2681,-4.4621],[15.2669,-4.4621],[15.2649,-4.4591],[15.2635,-4.4581],[15.2629,-4.4537],[15.2603,-4.4451],[15.2573,-4.4423]],[[15.2127,-4.6804],[15.2147,-4.6806],[15.2174,-4.6792],[15.2217,-4.6789],[15.2281,-4.6715],[15.2303,-4.666],[15.2311,-4.6651],[15.2368,-4.6613],[15.2435,-4.6605],[15.2463,-4.663],[15.2496,-4.6619],[15.2531,-4.6615],[15.2606,-4.6622],[15.2645,-4.6711],[15.2648,-4.6743],[15.2677,-4.6754],[15.2684,-4.6765],[15.2699,-4.6759],[15.2706,-4.6762],[15.2696,-4.68],[15.2696,-4.6826],[15.2719,-4.685],[15.2761,-4.6861],[15.2769,-4.6855],[15.2775,-4.6818],[15.2797,-4.6828],[15.2812,-4.6814],[15.2835,-4.6831],[15.2872,-4.6824],[15.2901,-4.6829],[15.2912,-4.6846],[15.2923,-4.6846]],[[15.7583,-4.318],[15.7594,-4.3152],[15.7611,-4.3018],[15.7623,-4.3009]],[[15.3533,-4.4864],[15.3533,-4.4882],[15.3503,-4.4981],[15.3481,-4.5024],[15.3473,-4.5073],[15.3432,-4.5157],[15.3414,-4.5206],[15.3407,-4.5254],[15.3409,-4.528],[15.3396,-4.5303],[15.3415,-4.5371],[15.3407,-4.5404],[15.3411,-4.5436],[15.339,-4.5491],[15.3367,-4.5502],[15.3321,-4.5513],[15.3319,-4.5587],[15.3298,-4.5618],[15.3283,-4.5676],[15.3267,-4.5687],[15.3234,-4.5691],[15.3198,-4.5708],[15.3164,-4.5732],[15.3071,-4.5752],[15.3065,-4.5791],[15.3059,-4.5802],[15.3046,-4.5807],[15.3042,-4.5827],[15.301,-4.586],[15.2995,-4.586],[15.2982,-4.5885],[15.295,-4.5904],[15.295,-4.5928],[15.293,-4.5953]],[[15.8224,-4.43],[15.8205,-4.4226],[15.8104,-4.4148],[15.7975,-4.4091],[15.7888,-4.4077],[15.7813,-4.4055],[15.7729,-4.4041],[15.7677,-4.4016],[15.757,-4.391],[15.7571,-4.3805],[15.7578,-4.377],[15.7558,-4.3684],[15.7583,-4.365],[15.7591,-4.3614],[15.7621,-4.3597],[15.7626,-4.3583],[15.7598,-4.3535],[15.7583,-4.3485],[15.7557,-4.343],[15.7549,-4.3393]],[[15.7549,-4.3393],[15.7537,-4.3347],[15.7535,-4.3307],[15.7535,-4.3246],[15.7546,-4.3226]],[[15.7546,-4.3226],[15.7583,-4.318]],[[15.4123,-4.5675],[15.4073,-4.5708],[15.408,-4.5805],[15.4104,-4.5816],[15.4117,-4.5831],[15.4143,-4.5831],[15.4174,-4.5863],[15.4187,-4.5869]],[[15.7803,-4.2829],[15.7906,-4.2693],[15.795,-4.2667]],[[15.3528,-4.4749],[15.3524,-4.4767],[15.3537,-4.4788],[15.3547,-4.4794]],[[15.3555,-4.466],[15.3564,-4.4619],[15.3543,-4.4558],[15.3611,-4.4474],[15.3611,-4.4443],[15.3621,-4.4426],[15.3613,-4.4408]],[[15.795,-4.2667],[15.7989,-4.2642],[15.8139,-4.2414]],[[15.7623,-4.3009],[15.7653,-4.2994],[15.7704,-4.295],[15.7803,-4.2829]],[[15.7546,-4.3226],[15.7561,-4.3037],[15.7561,-4.2935],[15.7547,-4.291],[15.7514,-4.2874],[15.7466,-4.2788],[15.7347,-4.2665],[15.7253,-4.2529],[15.7181,-4.2458],[15.7093,-4.2348],[15.7083,-4.2307],[15.7091,-4.2255],[15.7088,-4.2197],[15.7035,-4.1932]],[[15.4248,-4.657],[15.4247,-4.6598],[15.4261,-4.6605],[15.427,-4.6623]],[[15.427,-4.6623],[15.4264,-4.6625]],[[15.3566,-4.4817],[15.3598,-4.4839],[15.3637,-4.4907],[15.3649,-4.4932],[15.3648,-4.4967],[15.3668,-4.5014]],[[15.4193,-4.6252],[15.419,-4.6284],[15.418,-4.6316],[15.4187,-4.6329],[15.4189,-4.6356],[15.4213,-4.6384],[15.4211,-4.6425],[15.422,-4.6442],[15.423,-4.6447],[15.4241,-4.6477],[15.4249,-4.6531],[15.4248,-4.657]],[[15.3549,-4.4236],[15.3546,-4.4261],[15.355,-4.4291],[15.3534,-4.4354],[15.3514,-4.4383],[15.3503,-4.4468],[15.347,-4.4518],[15.3489,-4.4546]],[[14.8982,-4.7185],[14.9065,-4.7251],[14.9093,-4.7258],[14.9116,-4.7255],[14.9138,-4.7234],[14.9155,-4.7168],[14.9193,-4.7118],[14.9273,-4.7102],[14.9343,-4.7055],[14.9406,-4.7036],[14.9421,-4.7008],[14.9436,-4.6946],[14.9441,-4.6906],[14.9431,-4.6885],[14.9433,-4.6876],[14.9454,-4.6849],[14.9505,-4.6818],[14.955,-4.6774],[14.9586,-4.6771],[14.9638,-4.6752],[14.9659,-4.6729],[14.9683,-4.6717],[14.9669,-4.6697],[14.968,-4.667],[14.9764,-4.6626],[14.9816,-4.6588],[14.9826,-4.6541],[14.986,-4.6461],[14.9883,-4.6455],[14.993,-4.6455],[14.9946,-4.6448],[14.9949,-4.643],[14.9977,-4.6408],[15.0044,-4.6411],[15.0049,-4.6404],[15.0052,-4.6371],[15.0075,-4.6361],[15.0109,-4.6289],[15.0129,-4.622],[15.0152,-4.6195],[15.0158,-4.6178],[15.0158,-4.6087],[15.0138,-4.6027],[15.0139,-4.6019],[15.0167,-4.6028],[15.0191,-4.6019],[15.0209,-4.6022],[15.0246,-4.6053]],[[15.0246,-4.6053],[15.0257,-4.6075],[15.0253,-4.6108],[15.0271,-4.6119],[15.0285,-4.6138],[15.0305,-4.6188],[15.0296,-4.6244],[15.0307,-4.6252],[15.0323,-4.6252],[15.0339,-4.6276],[15.0387,-4.6279],[15.0421,-4.627],[15.0428,-4.6257],[15.0411,-4.6234],[15.0396,-4.6186],[15.0448,-4.6161],[15.0458,-4.6148],[15.0466,-4.6146],[15.0474,-4.6149],[15.0484,-4.6188],[15.0478,-4.6221],[15.0492,-4.6231],[15.054,-4.624],[15.0566,-4.623],[15.0576,-4.624],[15.0597,-4.6243],[15.0633,-4.6264],[15.0675,-4.6274],[15.0709,-4.6262],[15.074,-4.6265],[15.0807,-4.6245],[15.0838,-4.6249]],[[15.3214,-4.3227],[15.32,-4.3175]],[[15.32,-4.3175],[15.3188,-4.3132]],[[15.2735,-4.2658],[15.2755,-4.2659],[15.2774,-4.2684],[15.2792,-4.2695]],[[15.2886,-4.3054],[15.2843,-4.304]],[[15.3115,-4.298],[15.311,-4.3003]],[[15.311,-4.3003],[15.3109,-4.3005]],[[15.3109,-4.3005],[15.3106,-4.3018]],[[15.3106,-4.3018],[15.3102,-4.303]],[[15.3102,-4.303],[15.3098,-4.3044]],[[15.3098,-4.3044],[15.3094,-4.3057]],[[15.3094,-4.3057],[15.3092,-4.3064]],[[15.271,-4.2805],[15.2686,-4.2788],[15.2617,-4.2776]],[[15.2617,-4.2776],[15.26,-4.2775]],[[15.26,-4.2775],[15.2593,-4.2774]],[[15.2536,-4.3531],[15.2538,-4.3545],[15.2548,-4.3553],[15.2568,-4.3543]],[[15.3081,-4.3088],[15.3095,-4.3084]],[[15.3095,-4.3084],[15.3168,-4.3063]],[[15.3168,-4.3063],[15.3207,-4.3051]],[[15.3133,-4.3056],[15.3095,-4.3067]],[[15.3095,-4.3067],[15.309,-4.3068]],[[15.309,-4.3068],[15.3086,-4.3069]],[[15.3086,-4.3069],[15.3076,-4.3072]],[[15.2637,-4.2698],[15.264,-4.2702],[15.2617,-4.2776]],[[15.2617,-4.2776],[15.26,-4.2799]],[[15.2822,-4.3101],[15.286,-4.307]],[[15.286,-4.307],[15.2861,-4.3069]],[[15.2825,-4.3127],[15.2822,-4.3111]],[[15.3089,-4.3013],[15.3106,-4.3018]],[[15.3106,-4.3018],[15.3123,-4.3022]],[[15.261,-4.2746],[15.2578,-4.2764],[15.257,-4.2812]],[[15.257,-4.2812],[15.257,-4.2816]],[[15.3134,-4.3054],[15.3138,-4.3044]],[[15.3138,-4.3044],[15.3141,-4.3032]],[[15.2639,-4.3461],[15.2635,-4.3468]],[[15.2635,-4.3468],[15.2624,-4.3477],[15.2608,-4.3479],[15.2596,-4.3493],[15.2583,-4.3541]],[[15.2703,-4.3344],[15.2657,-4.336]],[[15.2993,-4.3174],[15.3037,-4.3162]],[[15.2524,-4.3578],[15.2529,-4.3567],[15.2536,-4.3567]],[[15.3192,-4.3092],[15.322,-4.3103]],[[15.322,-4.3103],[15.3229,-4.3106]],[[15.2715,-4.2803],[15.273,-4.2765]],[[15.2657,-4.336],[15.2642,-4.3365],[15.2581,-4.3343]],[[15.2807,-4.3077],[15.281,-4.3095]],[[15.2839,-4.3051],[15.2843,-4.304]],[[15.3086,-4.3067],[15.3075,-4.3062]],[[15.3075,-4.3062],[15.3054,-4.3048]],[[15.3066,-4.3172],[15.3061,-4.3155]],[[15.3061,-4.3155],[15.3055,-4.3131]],[[15.3055,-4.3131],[15.3053,-4.3123]],[[15.3053,-4.3123],[15.3038,-4.3073]],[[15.3038,-4.3073],[15.3033,-4.3053]],[[15.3029,-4.3139],[15.3055,-4.3131]],[[15.3055,-4.3131],[15.3148,-4.3104]],[[15.3287,-4.3226],[15.3257,-4.3216]],[[15.3257,-4.3216],[15.3214,-4.3227]],[[15.3214,-4.3227],[15.3154,-4.3244]],[[15.3154,-4.3244],[15.3091,-4.3262]],[[15.3091,-4.3262],[15.3083,-4.3264]],[[15.2946,-4.305],[15.2902,-4.3053]],[[15.2821,-4.3045],[15.2816,-4.3044],[15.2805,-4.3045]],[[15.2805,-4.3045],[15.2803,-4.3045]],[[15.2803,-4.3045],[15.2793,-4.3046],[15.2782,-4.3051]],[[15.2821,-4.3046],[15.2838,-4.3052]],[[15.2782,-4.3051],[15.2771,-4.306]],[[15.2783,-4.3053],[15.2804,-4.3046]],[[15.2804,-4.3046],[15.2805,-4.3046]],[[15.2805,-4.3046],[15.2821,-4.3046]],[[15.1888,-4.2616],[15.1967,-4.269]],[[15.1927,-4.284],[15.1913,-4.2802],[15.1921,-4.2782],[15.1917,-4.2737],[15.197,-4.2693]],[[15.1986,-4.3006],[15.1976,-4.2966],[15.1988,-4.293],[15.1985,-4.2898],[15.1968,-4.2884],[15.1935,-4.2883],[15.1938,-4.2872],[15.1927,-4.284]],[[15.2274,-4.3086],[15.2244,-4.3078],[15.2227,-4.3066],[15.2169,-4.3055],[15.2148,-4.3042],[15.2097,-4.3042],[15.2063,-4.3036],[15.2029,-4.301],[15.1986,-4.3006]],[[15.261,-4.2886],[15.2595,-4.2922]],[[15.2595,-4.2922],[15.256,-4.3008]],[[15.2472,-4.2972],[15.242,-4.2952]],[[15.2502,-4.2226],[15.2444,-4.2268],[15.2411,-4.2266],[15.2389,-4.2256],[15.2326,-4.2244]],[[15.2985,-4.359],[15.3009,-4.3509]],[[15.3117,-4.419],[15.3104,-4.4212]],[[15.3117,-4.4189],[15.3117,-4.419]],[[15.3117,-4.419],[15.3118,-4.419],[15.3119,-4.419],[15.3118,-4.4188]],[[15.3118,-4.4188],[15.3117,-4.4189]],[[15.2803,-4.3045],[15.2804,-4.3046]],[[15.2804,-4.3046],[15.2805,-4.3056]],[[15.2954,-4.305],[15.2946,-4.305]],[[15.2885,-4.3108],[15.2884,-4.3105]],[[15.2772,-4.3061],[15.2783,-4.3053]],[[15.2771,-4.306],[15.273,-4.3115]],[[15.2805,-4.3056],[15.2807,-4.3077]],[[15.2442,-4.2894],[15.2453,-4.2897],[15.2556,-4.2908],[15.2575,-4.2913]],[[15.235,-4.2827],[15.2383,-4.2802]],[[15.2383,-4.2802],[15.2397,-4.2797],[15.244,-4.2804]],[[15.2517,-4.2809],[15.2519,-4.2847]],[[15.2517,-4.2809],[15.2521,-4.2809]],[[15.2521,-4.2809],[15.257,-4.2812]],[[15.257,-4.2812],[15.258,-4.2813]],[[15.2209,-4.2823],[15.2162,-4.2844],[15.2134,-4.2865],[15.2124,-4.294],[15.2077,-4.2994]],[[15.2383,-4.2802],[15.2394,-4.2821],[15.2396,-4.285]],[[15.2396,-4.285],[15.2421,-4.2905]],[[15.3675,-4.4055],[15.3691,-4.3962]],[[15.3761,-4.4002],[15.375,-4.4056]],[[15.2657,-4.336],[15.2642,-4.3313]],[[15.265,-4.3385],[15.2675,-4.3457]],[[15.355,-4.3992],[15.3572,-4.3991]],[[15.3549,-4.4236],[15.3554,-4.4222],[15.3553,-4.4183],[15.3563,-4.4146],[15.3555,-4.4117],[15.3552,-4.4043],[15.3541,-4.396]],[[15.3541,-4.396],[15.3538,-4.393]],[[15.2603,-4.3711],[15.2578,-4.3661]],[[15.4249,-4.6733],[15.4268,-4.6799],[15.4314,-4.6844],[15.4327,-4.6868],[15.4345,-4.6868],[15.4353,-4.6894],[15.4371,-4.691],[15.4408,-4.6915],[15.4421,-4.6925],[15.4424,-4.6964],[15.4392,-4.7023],[15.4403,-4.7039],[15.4405,-4.7062],[15.4416,-4.7079],[15.4432,-4.7078],[15.446,-4.7049],[15.4501,-4.7038],[15.4601,-4.7073],[15.4664,-4.7105],[15.4687,-4.7152],[15.4681,-4.7175],[15.4689,-4.7193],[15.4688,-4.7204],[15.4675,-4.7211],[15.4659,-4.7252],[15.467,-4.7265],[15.4687,-4.727],[15.4705,-4.7295],[15.4716,-4.7295],[15.4727,-4.7288],[15.4732,-4.7302],[15.4757,-4.7322],[15.4784,-4.7355],[15.4784,-4.738],[15.4794,-4.7412],[15.4787,-4.7433],[15.4789,-4.7447],[15.4808,-4.7462],[15.4819,-4.7485],[15.4818,-4.7526],[15.4812,-4.756],[15.4802,-4.7571],[15.4803,-4.7588],[15.487,-4.7582],[15.4917,-4.7604],[15.4982,-4.7648],[15.5022,-4.7645],[15.5048,-4.7626],[15.5072,-4.7595]],[[15.427,-4.6623],[15.4279,-4.6639],[15.427,-4.6684],[15.4281,-4.669],[15.4292,-4.6716],[15.429,-4.6746],[15.4272,-4.6742],[15.4257,-4.6729],[15.4249,-4.6733]],[[15.4075,-4.5539],[15.4087,-4.5548],[15.4076,-4.5574],[15.4091,-4.559],[15.4092,-4.5626],[15.4122,-4.5667],[15.4123,-4.5675]],[[15.3692,-4.4171],[15.3677,-4.4068]],[[15.2985,-4.359],[15.3007,-4.3597]],[[15.3007,-4.3597],[15.3028,-4.3603]],[[15.3028,-4.3603],[15.3071,-4.3617]],[[15.2814,-4.4726],[15.2829,-4.4717],[15.2838,-4.466],[15.2872,-4.4637],[15.2879,-4.4623],[15.2885,-4.4602],[15.2879,-4.4556],[15.2898,-4.4492]],[[15.3162,-4.3682],[15.3201,-4.3695]],[[15.2689,-4.2469],[15.2756,-4.2429]],[[15.2756,-4.2429],[15.2832,-4.2382]],[[15.2816,-4.2505],[15.2759,-4.2432]],[[15.5761,-4.2438],[15.5935,-4.2438],[15.5949,-4.2421]],[[15.2392,-4.2718],[15.2399,-4.2698],[15.2421,-4.2678],[15.2431,-4.2659]],[[15.2515,-4.2756],[15.2494,-4.2755],[15.2472,-4.274],[15.2451,-4.2739],[15.2392,-4.2718]],[[15.3154,-4.3555],[15.3096,-4.3537]],[[15.3156,-4.3556],[15.3154,-4.3555]],[[15.3505,-4.3289],[15.3504,-4.3285]],[[15.3504,-4.3285],[15.35,-4.3285]],[[15.35,-4.3285],[15.3499,-4.3286]],[[15.3499,-4.3286],[15.35,-4.3291]],[[15.35,-4.3291],[15.3505,-4.3289]],[[15.3587,-4.326],[15.3549,-4.3258]],[[15.2547,-4.3613],[15.2544,-4.3613]],[[15.2547,-4.3615],[15.2548,-4.3614]],[[15.2548,-4.3614],[15.2547,-4.3613]],[[15.2547,-4.3613],[15.2547,-4.3613]],[[15.2547,-4.3613],[15.2546,-4.3614]],[[15.2548,-4.3614],[15.255,-4.3613]],[[15.1877,-4.3108],[15.1853,-4.3101],[15.1825,-4.3061],[15.18,-4.3056],[15.1748,-4.3005],[15.1739,-4.298]],[[15.2465,-4.2851],[15.2464,-4.2808]],[[15.2479,-4.2873],[15.2465,-4.2853]],[[15.2465,-4.2853],[15.2396,-4.285]],[[15.2209,-4.2823],[15.221,-4.2725],[15.225,-4.2672]],[[15.3238,-4.3108],[15.3253,-4.316]],[[15.3253,-4.316],[15.3258,-4.318]],[[15.2986,-4.1416],[15.301,-4.1426],[15.3038,-4.1462],[15.3069,-4.1522],[15.3103,-4.1558]],[[15.2408,-4.2442],[15.2342,-4.2489]],[[15.2336,-4.2494],[15.232,-4.2538]],[[15.2318,-4.2541],[15.2319,-4.2542]],[[15.2319,-4.2542],[15.232,-4.2541]],[[15.232,-4.2541],[15.232,-4.254],[15.2319,-4.254]],[[15.2319,-4.254],[15.2318,-4.2541]],[[15.2339,-4.2491],[15.2338,-4.249]],[[15.2338,-4.249],[15.2337,-4.2491]],[[15.2337,-4.2491],[15.2338,-4.2492]],[[15.2338,-4.2492],[15.2339,-4.2491]],[[15.2339,-4.2491],[15.2339,-4.2491]],[[15.2898,-4.4492],[15.2914,-4.4464],[15.2951,-4.4442],[15.2971,-4.4414],[15.2999,-4.4407],[15.3034,-4.4381],[15.305,-4.435]],[[15.3801,-4.4344],[15.3794,-4.4361],[15.3795,-4.4374]],[[15.382,-4.4147],[15.3822,-4.4171],[15.3814,-4.4221]],[[15.3781,-4.4413],[15.3781,-4.4411]],[[15.3781,-4.4413],[15.3779,-4.4413]],[[15.3126,-4.3021],[15.3152,-4.3014]],[[15.2635,-4.3468],[15.2646,-4.3495],[15.2629,-4.3581]],[[15.3149,-4.3333],[15.3145,-4.3334]],[[15.2962,-4.3278],[15.2995,-4.3286],[15.3024,-4.3281]],[[15.3024,-4.3281],[15.3071,-4.3268]],[[15.3059,-4.3329],[15.306,-4.3333]],[[15.3063,-4.3333],[15.3059,-4.3329]],[[15.306,-4.3235],[15.3024,-4.3245]],[[15.3316,-4.3567],[15.3318,-4.3569],[15.3321,-4.357],[15.3352,-4.3568]],[[15.3351,-4.3567],[15.3352,-4.3568]],[[15.3352,-4.3568],[15.3353,-4.3568]],[[15.3353,-4.3568],[15.3352,-4.3566]],[[15.3352,-4.3566],[15.3351,-4.3567]],[[15.3351,-4.3567],[15.3351,-4.3567]],[[15.3368,-4.3558],[15.3362,-4.3561]],[[15.3362,-4.3561],[15.3352,-4.3566]],[[15.3388,-4.36],[15.338,-4.3596]],[[15.338,-4.3596],[15.3366,-4.3602],[15.3336,-4.3604]],[[15.3316,-4.3567],[15.3314,-4.3517]],[[15.1197,-4.6492],[15.1195,-4.6472],[15.1214,-4.6488],[15.123,-4.6491],[15.1278,-4.6463],[15.1285,-4.6441],[15.1307,-4.6418],[15.1311,-4.6399],[15.1321,-4.6397],[15.1328,-4.6379],[15.1338,-4.6381],[15.1347,-4.6396],[15.1355,-4.6394],[15.137,-4.6377],[15.137,-4.6362],[15.1379,-4.6354],[15.1391,-4.6324],[15.138,-4.6316],[15.1381,-4.6299],[15.136,-4.6287],[15.1367,-4.6281],[15.1386,-4.6279],[15.139,-4.6268],[15.1409,-4.6256],[15.1431,-4.6224],[15.1432,-4.6202],[15.1449,-4.6202],[15.1464,-4.6166],[15.148,-4.6156],[15.1487,-4.6167],[15.1509,-4.6169],[15.1513,-4.6158],[15.1524,-4.6163],[15.1529,-4.6159],[15.1535,-4.6145],[15.1533,-4.6121],[15.1554,-4.6104],[15.1533,-4.6082],[15.1574,-4.6074],[15.1575,-4.6031],[15.1594,-4.6002],[15.1591,-4.5961],[15.162,-4.5953],[15.1654,-4.5919],[15.1684,-4.5923]],[[15.3091,-4.2998],[15.3108,-4.3002]],[[15.3108,-4.3002],[15.3091,-4.2997]],[[15.3108,-4.3002],[15.311,-4.3003]],[[15.311,-4.3003],[15.3121,-4.3006]],[[15.3121,-4.3006],[15.3136,-4.3009]],[[15.3136,-4.3009],[15.3152,-4.3014]],[[15.3152,-4.3014],[15.316,-4.3016]],[[15.3162,-4.3015],[15.3138,-4.3009],[15.3136,-4.3009]],[[15.5538,-4.1925],[15.5538,-4.1889],[15.5552,-4.1839],[15.5577,-4.1814],[15.5651,-4.1759],[15.5695,-4.1679],[15.576,-4.1601],[15.5741,-4.1582],[15.5747,-4.1561]],[[15.3099,-4.1617],[15.3096,-4.161],[15.3102,-4.1571]],[[15.3099,-4.1617],[15.31,-4.1619]],[[15.2523,-4.1882],[15.2479,-4.1889]],[[15.1766,-4.2152],[15.1779,-4.2165],[15.1784,-4.2184],[15.1821,-4.2189],[15.1842,-4.2209],[15.1847,-4.2248],[15.1836,-4.2274],[15.1839,-4.2296],[15.1857,-4.233],[15.1889,-4.2359],[15.192,-4.2415],[15.1965,-4.2418],[15.1981,-4.2424],[15.1992,-4.2441],[15.2009,-4.245],[15.2045,-4.2453],[15.2064,-4.2476],[15.2094,-4.2487],[15.2101,-4.2502],[15.2114,-4.2513],[15.2149,-4.2529]],[[15.2941,-4.2189],[15.2947,-4.2154],[15.2936,-4.2142]],[[15.3101,-4.1619],[15.3099,-4.1617]],[[15.4803,-4.4665],[15.4786,-4.4654],[15.4746,-4.4647],[15.4706,-4.4648],[15.4684,-4.4659],[15.4641,-4.4659],[15.4594,-4.4642]],[[15.3508,-4.4731],[15.351,-4.4733]],[[15.3724,-4.4786],[15.3689,-4.4762],[15.3628,-4.4746],[15.3586,-4.4742],[15.3552,-4.4758],[15.3536,-4.4756],[15.3528,-4.4749]],[[15.3528,-4.4749],[15.351,-4.4733]],[[15.257,-4.2816],[15.257,-4.282]],[[15.2573,-4.2818],[15.257,-4.2816]],[[15.7462,-4.6354],[15.7447,-4.6286],[15.7445,-4.6251],[15.7449,-4.6237],[15.7407,-4.6168],[15.7398,-4.6135],[15.7406,-4.6081],[15.738,-4.6042],[15.7378,-4.6019],[15.7401,-4.5996],[15.7404,-4.5976],[15.7389,-4.5949],[15.7373,-4.5938],[15.7377,-4.5891],[15.7357,-4.5849],[15.7397,-4.5803],[15.7414,-4.5768],[15.7425,-4.5729],[15.7451,-4.5715],[15.7511,-4.5732],[15.7553,-4.5711],[15.7575,-4.5683],[15.7608,-4.5664],[15.7615,-4.563],[15.7628,-4.561],[15.7642,-4.5568],[15.7706,-4.5496],[15.7737,-4.5465],[15.7752,-4.5466],[15.7767,-4.5444],[15.7837,-4.5411],[15.7876,-4.5374],[15.7865,-4.5344],[15.7886,-4.5337],[15.7893,-4.5321],[15.7893,-4.5293],[15.7879,-4.5249],[15.7859,-4.522],[15.7864,-4.5217],[15.7869,-4.5193],[15.793,-4.5111],[15.794,-4.5045],[15.8013,-4.4952],[15.8011,-4.4929],[15.8128,-4.4842],[15.814,-4.4816],[15.8172,-4.4779],[15.8184,-4.4777],[15.8189,-4.4761],[15.822,-4.4721],[15.8282,-4.4654],[15.8288,-4.4642],[15.8278,-4.4558],[15.8224,-4.43]],[[15.43,-4.423],[15.4325,-4.4277],[15.4332,-4.4331],[15.4353,-4.4391],[15.4385,-4.443],[15.4436,-4.4477]],[[15.4096,-4.43],[15.4098,-4.4256]],[[15.5543,-4.057],[15.5561,-4.058],[15.5616,-4.0578]],[[15.5569,-4.0529],[15.5597,-4.0529],[15.5616,-4.0563],[15.5616,-4.0578]],[[15.7549,-4.3393],[15.7514,-4.3475],[15.7508,-4.353],[15.7488,-4.3551],[15.7439,-4.3571],[15.7412,-4.3553],[15.7399,-4.3554],[15.7392,-4.3566],[15.7401,-4.3573],[15.7402,-4.3602],[15.7394,-4.3616],[15.7383,-4.3604],[15.7365,-4.3601],[15.7344,-4.362],[15.734,-4.3646],[15.7315,-4.3652],[15.7282,-4.3676],[15.7261,-4.3677],[15.725,-4.3672],[15.7227,-4.3646],[15.7217,-4.3578],[15.7206,-4.3547],[15.721,-4.3526],[15.7228,-4.3505],[15.7229,-4.3493],[15.7244,-4.3467],[15.7127,-4.3393],[15.7113,-4.3329],[15.7151,-4.3316],[15.716,-4.3308],[15.719,-4.3303],[15.72,-4.3294],[15.7202,-4.3269],[15.7218,-4.3256],[15.7238,-4.3201],[15.7212,-4.3177],[15.7219,-4.3159],[15.7214,-4.3152],[15.7222,-4.3137],[15.7183,-4.3124],[15.7155,-4.3107],[15.7069,-4.3097],[15.7055,-4.3086],[15.7047,-4.3059],[15.6996,-4.305],[15.6973,-4.3023],[15.6958,-4.2996],[15.6942,-4.2983],[15.6913,-4.2975],[15.6894,-4.2942],[15.6808,-4.2872],[15.6787,-4.2812],[15.6744,-4.2794],[15.6732,-4.2775],[15.6642,-4.277],[15.6615,-4.2726],[15.6563,-4.2687],[15.6511,-4.2668],[15.6374,-4.2598],[15.631,-4.2583],[15.6301,-4.2571]],[[15.3724,-4.4786],[15.3756,-4.4807],[15.3774,-4.4847],[15.3804,-4.4854],[15.3815,-4.4866],[15.3828,-4.4867],[15.3838,-4.4876],[15.3874,-4.4862],[15.3928,-4.4879],[15.3965,-4.488],[15.4013,-4.4865],[15.4053,-4.4871],[15.4088,-4.4858],[15.414,-4.4875]],[[15.3082,-4.3038],[15.3084,-4.3025]],[[15.3141,-4.3032],[15.3138,-4.3024]],[[14.972,-4.3678],[14.9724,-4.3696]],[[14.9724,-4.3696],[14.9728,-4.3713],[14.9748,-4.3746],[14.975,-4.3765],[14.9732,-4.3786],[14.9722,-4.3846],[14.9702,-4.3887],[14.9704,-4.3953],[14.9718,-4.3987],[14.9709,-4.4001]],[[14.9709,-4.4001],[14.9707,-4.4003]],[[14.9707,-4.4003],[14.9678,-4.4063],[14.9688,-4.4082],[14.9685,-4.4093],[14.9645,-4.4146],[14.9652,-4.4177],[14.9641,-4.4206],[14.9659,-4.4219],[14.9666,-4.4237],[14.9684,-4.4257],[14.9665,-4.4291],[14.9662,-4.4306],[14.9669,-4.4316],[14.9697,-4.4329],[14.9697,-4.4346],[14.9702,-4.4353],[14.9689,-4.4379],[14.9662,-4.4409],[14.9665,-4.4455],[14.9707,-4.4484],[14.9722,-4.4508],[14.9716,-4.4514],[14.9689,-4.4518],[14.9679,-4.453],[14.968,-4.4548],[14.9653,-4.4559],[14.9646,-4.46],[14.9627,-4.4631],[14.9594,-4.4666],[14.9574,-4.4674],[14.9485,-4.4675],[14.9436,-4.47],[14.9425,-4.4717],[14.9424,-4.4729]],[[15.0104,-4.5154],[15.0074,-4.5257],[15.0051,-4.5266],[15.003,-4.5216],[15.0021,-4.5172],[14.9993,-4.5158],[14.9979,-4.5133],[14.9963,-4.5118],[14.9917,-4.5108],[14.9885,-4.5069],[14.9843,-4.5039],[14.9805,-4.5041],[14.979,-4.5051],[14.9764,-4.5045],[14.9753,-4.5028],[14.9722,-4.5008],[14.9714,-4.5007],[14.9705,-4.5015],[14.9688,-4.5001],[14.9676,-4.5007],[14.9674,-4.4995],[14.9684,-4.4982],[14.9685,-4.4968],[14.968,-4.4959],[14.9657,-4.4943],[14.9661,-4.4923],[14.9646,-4.4812],[14.959,-4.4828],[14.9584,-4.4823],[14.9582,-4.4797],[14.9561,-4.48],[14.9545,-4.4784],[14.9477,-4.4792],[14.9432,-4.4745],[14.9424,-4.4729]],[[15.0318,-4.5086],[15.0319,-4.5072],[15.0333,-4.5066]],[[15.1739,-4.298],[15.1732,-4.2961],[15.1741,-4.2945],[15.1746,-4.29],[15.1709,-4.2834],[15.1711,-4.2798],[15.1702,-4.2791],[15.1684,-4.2798],[15.1669,-4.2768],[15.1645,-4.277],[15.1623,-4.2758],[15.1602,-4.2758],[15.1571,-4.2789],[15.1551,-4.2782],[15.1531,-4.279],[15.152,-4.28],[15.1517,-4.2813],[15.1507,-4.2818],[15.1479,-4.2791],[15.146,-4.2799],[15.139,-4.2789],[15.1347,-4.2755]],[[15.3029,-4.3374],[15.3016,-4.3417]],[[15.3016,-4.3417],[15.3002,-4.346]],[[15.3002,-4.346],[15.2989,-4.3503]],[[15.2622,-4.2243],[15.2609,-4.2216],[15.259,-4.22],[15.2563,-4.2193],[15.2534,-4.2198]],[[15.2911,-4.2689],[15.2902,-4.2671],[15.2906,-4.2661]],[[15.2792,-4.2695],[15.2802,-4.2676],[15.2838,-4.2677]],[[15.2792,-4.2695],[15.2834,-4.2719]],[[15.2859,-4.2406],[15.2885,-4.2461]],[[15.2885,-4.2461],[15.2891,-4.2473]],[[15.2891,-4.2473],[15.2901,-4.2495]],[[15.2759,-4.2432],[15.2756,-4.2429]],[[15.2756,-4.2429],[15.2704,-4.2364]],[[15.1347,-4.2755],[15.1318,-4.269],[15.1327,-4.2676],[15.1329,-4.265],[15.1295,-4.2603],[15.128,-4.261],[15.1271,-4.2596],[15.1265,-4.2596],[15.1234,-4.2629],[15.1179,-4.2659],[15.116,-4.2653],[15.11,-4.2649],[15.1081,-4.2627]],[[15.167,-4.1845],[15.1563,-4.1884],[15.1481,-4.1904],[15.1458,-4.1925],[15.1436,-4.1908],[15.1425,-4.1908]],[[15.0473,-4.3368],[15.0466,-4.3342],[15.0444,-4.3321],[15.0444,-4.3311],[15.0434,-4.3291],[15.0419,-4.3287],[15.0394,-4.326],[15.037,-4.325],[15.0357,-4.3228],[15.036,-4.3204],[15.0392,-4.3158],[15.0396,-4.3133],[15.0404,-4.3124],[15.04,-4.3109],[15.0384,-4.3098],[15.0376,-4.3082],[15.0355,-4.3006],[15.0327,-4.2988],[15.0304,-4.3006],[15.0246,-4.2988],[15.0238,-4.2976],[15.0216,-4.2971],[15.0186,-4.2945],[15.0148,-4.2927],[15.0134,-4.2909],[15.0116,-4.2905],[15.0072,-4.2843],[15.0059,-4.2793],[15.005,-4.2782],[15.0017,-4.2767],[14.9996,-4.275],[14.9997,-4.2746],[15.0022,-4.2736],[15.0081,-4.2594],[15.0106,-4.2499],[15.0107,-4.2475],[15.0083,-4.2368],[15.0084,-4.2325],[15.0095,-4.2274],[15.0088,-4.2252],[15.0074,-4.2242],[15.0072,-4.2205],[15.0061,-4.219],[15.0079,-4.2148],[15.0081,-4.2125],[15.0042,-4.2116],[15.0073,-4.2068]],[[15.1495,-4.2048],[15.1509,-4.2061],[15.1581,-4.2042],[15.1594,-4.2026],[15.1602,-4.2002],[15.1648,-4.2016],[15.1683,-4.2051],[15.1766,-4.2152]],[[15.3787,-3.9921],[15.3789,-3.9921],[15.3792,-3.992],[15.3934,-3.9876],[15.4013,-3.9826],[15.4067,-3.98],[15.4115,-3.9785],[15.4126,-3.9786],[15.4181,-3.9825],[15.4206,-3.9832],[15.4433,-3.9798],[15.4718,-3.9637],[15.4849,-3.9591],[15.4901,-3.9605],[15.4946,-3.9591],[15.5006,-3.9589],[15.5209,-3.9547],[15.527,-3.9546],[15.5792,-3.9599],[15.6009,-3.9684]],[[15.167,-4.1845],[15.1867,-4.1752],[15.19,-4.1743],[15.1922,-4.1747],[15.1963,-4.1772],[15.1984,-4.1788],[15.2006,-4.1815]],[[15.0784,-4.3219],[15.084,-4.3148],[15.0848,-4.3117],[15.0862,-4.31],[15.0897,-4.308],[15.092,-4.3053],[15.0957,-4.3027],[15.0966,-4.2998],[15.0953,-4.2973],[15.0985,-4.2948],[15.101,-4.2907],[15.1017,-4.2807],[15.1031,-4.2746],[15.1052,-4.2677],[15.108,-4.2638],[15.1081,-4.2627]],[[15.2149,-4.2529],[15.2165,-4.2535],[15.2186,-4.2532],[15.2198,-4.2537],[15.2217,-4.26],[15.224,-4.2625]],[[15.2502,-4.2226],[15.2524,-4.2217]],[[15.3289,-4.3418],[15.3308,-4.3456]],[[15.3308,-4.3456],[15.3339,-4.3516]],[[15.3339,-4.3516],[15.3362,-4.3561]],[[15.3362,-4.3561],[15.3363,-4.3563]],[[15.3363,-4.3563],[15.338,-4.3596]],[[15.3288,-4.3416],[15.3289,-4.3418]],[[15.3272,-4.352],[15.3273,-4.352]],[[15.3273,-4.352],[15.3309,-4.3517]],[[15.2833,-4.2526],[15.2891,-4.2473]],[[15.3351,-4.3567],[15.3321,-4.3568],[15.3316,-4.3567]],[[15.3353,-4.3568],[15.3363,-4.3563]],[[15.3363,-4.3563],[15.3369,-4.356]],[[15.3329,-4.3158],[15.3347,-4.3167],[15.3368,-4.3188],[15.3383,-4.3225]],[[15.3069,-4.3483],[15.3073,-4.3483]],[[15.306,-4.3479],[15.3064,-4.3481]],[[15.3064,-4.3482],[15.3065,-4.3486]],[[15.3065,-4.3486],[15.3068,-4.3484]],[[15.3069,-4.3475],[15.3065,-4.3478]],[[15.307,-4.3479],[15.3069,-4.3475]],[[15.3073,-4.3483],[15.307,-4.348]],[[15.3585,-4.3841],[15.3579,-4.3837]],[[15.3245,-4.3591],[15.333,-4.3609],[15.3335,-4.3605]],[[15.3245,-4.3591],[15.3245,-4.3591]],[[15.3336,-4.3604],[15.3335,-4.3605]],[[15.2858,-4.3186],[15.2858,-4.3185]],[[15.2858,-4.3185],[15.2858,-4.3184]],[[15.2858,-4.3184],[15.2874,-4.3117]],[[15.299,-4.3163],[15.2993,-4.3174]],[[15.2993,-4.3174],[15.3015,-4.3248]],[[15.3015,-4.3248],[15.3024,-4.3281]],[[15.3024,-4.3281],[15.3031,-4.3305]],[[15.299,-4.3161],[15.299,-4.3163]],[[15.4071,-4.5521],[15.4075,-4.5539]],[[15.3547,-4.4794],[15.3566,-4.4817]],[[15.3504,-4.3285],[15.3515,-4.3258],[15.3586,-4.326]],[[15.3393,-4.3327],[15.3417,-4.3319]],[[15.3417,-4.3319],[15.3487,-4.3293]],[[15.3488,-4.3292],[15.35,-4.3291]],[[15.3499,-4.3286],[15.3488,-4.3292]],[[15.3318,-4.3788],[15.3349,-4.3796]],[[15.3305,-4.3298],[15.3306,-4.3299]],[[15.3306,-4.3299],[15.3315,-4.3306]],[[15.3307,-4.3879],[15.3314,-4.3909],[15.331,-4.3921]],[[15.3307,-4.3879],[15.3307,-4.3877]],[[15.3148,-4.3907],[15.3149,-4.3902]],[[15.3143,-4.341],[15.3144,-4.3405]],[[15.3144,-4.3405],[15.3139,-4.3403]],[[15.3141,-4.3414],[15.3143,-4.341]],[[15.3092,-4.3396],[15.3093,-4.34]],[[15.3093,-4.34],[15.3095,-4.3397]],[[15.3096,-4.3389],[15.3093,-4.3391]],[[15.3097,-4.3392],[15.3096,-4.3389]],[[15.3102,-4.303],[15.3106,-4.3032]],[[15.2884,-4.3105],[15.2861,-4.3069]],[[15.2838,-4.3052],[15.286,-4.307]],[[15.2882,-4.3105],[15.2884,-4.3108]],[[15.2839,-4.3051],[15.2821,-4.3045]],[[15.2622,-4.2243],[15.2623,-4.2246]],[[15.2623,-4.2245],[15.2622,-4.2243]],[[15.2519,-4.2847],[15.2519,-4.2851]],[[15.2522,-4.285],[15.2519,-4.2847]],[[15.2575,-4.2913],[15.2564,-4.2909],[15.2445,-4.2893]],[[15.2715,-4.2803],[15.2714,-4.2804]],[[15.2715,-4.2804],[15.2715,-4.2803]],[[15.2838,-4.2677],[15.284,-4.2678]],[[15.284,-4.2677],[15.2838,-4.2677],[15.2838,-4.2677]],[[15.2841,-4.2677],[15.284,-4.2677]],[[15.2733,-4.2758],[15.2733,-4.2758]],[[15.2733,-4.2758],[15.2734,-4.2758]],[[15.2734,-4.2758],[15.2733,-4.2758]],[[15.2931,-4.2616],[15.2932,-4.2615]],[[15.2931,-4.2614],[15.2931,-4.2616]],[[15.2931,-4.2616],[15.2906,-4.2661]],[[15.273,-4.2658],[15.2735,-4.2658]],[[15.2735,-4.2658],[15.273,-4.2656]],[[15.6041,-3.9696],[15.6035,-3.9689]],[[15.6035,-3.9689],[15.6032,-3.9696]],[[15.6032,-3.9696],[15.6041,-3.9696]],[[15.6035,-3.9689],[15.6009,-3.9684]],[[15.6009,-3.9684],[15.6032,-3.9696]],[[15.2441,-4.2805],[15.2464,-4.2808]],[[15.2464,-4.2808],[15.2517,-4.2809]],[[15.2223,-4.264],[15.224,-4.2625]],[[15.224,-4.2625],[15.2261,-4.2616],[15.229,-4.2592],[15.2319,-4.2542]],[[15.2902,-4.2497],[15.2901,-4.2495]],[[15.2891,-4.2506],[15.2902,-4.2497]],[[15.3123,-4.3022],[15.3126,-4.3021]],[[15.3126,-4.3021],[15.3127,-4.3026]],[[15.3054,-4.3048],[15.3054,-4.3047]],[[15.3097,-4.3145],[15.3123,-4.3138]],[[15.3123,-4.3138],[15.3155,-4.3129]],[[15.2809,-4.3077],[15.2806,-4.3056]],[[15.2811,-4.3096],[15.2809,-4.3077]],[[15.2822,-4.3111],[15.282,-4.3104]],[[15.2813,-4.3099],[15.2808,-4.31]],[[15.2818,-4.3101],[15.2813,-4.3099]],[[15.2803,-4.3105],[15.2802,-4.3114]],[[15.2808,-4.31],[15.2803,-4.3105]],[[15.282,-4.3104],[15.2822,-4.3101]],[[15.2822,-4.3101],[15.2821,-4.3101],[15.2818,-4.3101]],[[15.2806,-4.3056],[15.2805,-4.3046]],[[15.2805,-4.3046],[15.2805,-4.3045]],[[15.281,-4.3095],[15.2808,-4.31]],[[15.2827,-4.3131],[15.2825,-4.3127]],[[15.2745,-4.3333],[15.2745,-4.3336]],[[15.2723,-4.3307],[15.2742,-4.3323],[15.2745,-4.3333]],[[15.2863,-4.3452],[15.2862,-4.3456]],[[15.2567,-4.3543],[15.2565,-4.3546]],[[15.2118,-4.3504],[15.2114,-4.3505]],[[15.2114,-4.3505],[15.2109,-4.3505]],[[15.2148,-4.3492],[15.2149,-4.3492]],[[15.2126,-4.3501],[15.2148,-4.3492]],[[15.2901,-4.3564],[15.2899,-4.3563]],[[15.2899,-4.3563],[15.2891,-4.356]],[[15.3159,-4.348],[15.3165,-4.3457]],[[15.3165,-4.3457],[15.3194,-4.3426]],[[15.3105,-4.3506],[15.3105,-4.3509]],[[15.3199,-4.3381],[15.3202,-4.338]],[[15.3202,-4.3377],[15.3198,-4.3379]],[[15.3198,-4.3379],[15.3197,-4.338]],[[15.3197,-4.338],[15.3199,-4.3381]],[[15.3199,-4.3381],[15.3203,-4.3383]],[[15.3202,-4.338],[15.3198,-4.3379]],[[15.2575,-4.2913],[15.2595,-4.2922]],[[15.2472,-4.2972],[15.256,-4.3008]],[[15.2524,-4.2217],[15.2534,-4.2211],[15.2534,-4.2198]],[[15.2337,-4.2491],[15.2336,-4.2494]],[[15.2336,-4.2494],[15.2338,-4.2492]],[[15.2339,-4.2491],[15.2342,-4.2489]],[[15.2342,-4.2489],[15.234,-4.249],[15.2338,-4.249]],[[15.2528,-4.1912],[15.2523,-4.1882]],[[15.1458,-4.1824],[15.1454,-4.1815],[15.1482,-4.1736],[15.1484,-4.1626],[15.1495,-4.1577],[15.1491,-4.1562],[15.1469,-4.1543],[15.1462,-4.1527]],[[15.1451,-4.1497],[15.1446,-4.1487],[15.1458,-4.1442],[15.1453,-4.1419],[15.1422,-4.1404],[15.1405,-4.1386],[15.1321,-4.1275],[15.1317,-4.1243],[15.1328,-4.1206],[15.1303,-4.1211],[15.1258,-4.1158],[15.1233,-4.1155],[15.1193,-4.1125],[15.1104,-4.1016],[15.1087,-4.0954],[15.1053,-4.0937],[15.0969,-4.0845],[15.0937,-4.08],[15.0907,-4.078],[15.0889,-4.0748],[15.0862,-4.0718],[15.0846,-4.0675],[15.0831,-4.066]],[[15.3431,-4.3416],[15.3426,-4.3416]],[[15.3428,-4.342],[15.3431,-4.3416]],[[15.3502,-4.346],[15.352,-4.3474]],[[15.3551,-4.3494],[15.3572,-4.3514]],[[15.3579,-4.3837],[15.3551,-4.3809],[15.3525,-4.3805]],[[15.3417,-4.3796],[15.3414,-4.3794]],[[15.3417,-4.3796],[15.3427,-4.3817]],[[15.3188,-4.3132],[15.3188,-4.3131]],[[15.3188,-4.3131],[15.3185,-4.312]],[[15.3185,-4.312],[15.3177,-4.3096]],[[15.3177,-4.3096],[15.3168,-4.3063]],[[15.3168,-4.3063],[15.3163,-4.3047]],[[15.3163,-4.3047],[15.316,-4.3038]],[[15.316,-4.3038],[15.3158,-4.3027]],[[15.3158,-4.3027],[15.3157,-4.3023]],[[15.3145,-4.3334],[15.3149,-4.3336]],[[15.2118,-4.3504],[15.2119,-4.3504]],[[15.2803,-4.3419],[15.2805,-4.3424]],[[15.2805,-4.3424],[15.2805,-4.3418]],[[15.2544,-4.3613],[15.2546,-4.3614]],[[15.255,-4.3613],[15.2547,-4.3613]],[[15.2522,-4.359],[15.2533,-4.3594]],[[15.3817,-4.4144],[15.3817,-4.4145]],[[15.3818,-4.4145],[15.382,-4.4147]],[[15.3368,-4.3923],[15.3369,-4.3924]],[[15.3345,-4.3914],[15.3368,-4.3923]],[[15.3371,-4.3924],[15.3395,-4.393]],[[15.3402,-4.393],[15.3395,-4.393]],[[15.3395,-4.393],[15.3398,-4.3931],[15.3402,-4.393]],[[15.1649,-4.452],[15.1662,-4.4533],[15.1655,-4.454]],[[15.1651,-4.4519],[15.1649,-4.452]],[[15.4086,-4.4252],[15.4091,-4.4252]],[[15.4091,-4.4252],[15.4097,-4.4251],[15.4098,-4.4256]],[[15.4656,-4.4813],[15.4652,-4.4886],[15.4661,-4.4928],[15.4661,-4.5008],[15.4647,-4.5047],[15.4621,-4.5087],[15.4623,-4.5108],[15.4618,-4.5113],[15.462,-4.5137],[15.4615,-4.515],[15.4607,-4.5227],[15.4613,-4.5276],[15.4643,-4.5292],[15.4679,-4.5294],[15.4722,-4.5283],[15.4777,-4.5258],[15.4813,-4.5249],[15.4877,-4.5245]],[[15.5298,-4.5987],[15.536,-4.6018]],[[15.407,-4.552],[15.4071,-4.5521]],[[15.3701,-4.5075],[15.3692,-4.5113],[15.3721,-4.5147],[15.3754,-4.5165],[15.3766,-4.5201],[15.3798,-4.5237],[15.3811,-4.53],[15.3832,-4.5334],[15.3839,-4.5382],[15.3903,-4.5398],[15.3916,-4.5438],[15.3924,-4.5445],[15.3963,-4.5446],[15.3992,-4.5461],[15.4024,-4.5452],[15.4041,-4.5509],[15.407,-4.552]],[[15.405,-4.5531],[15.405,-4.5527]],[[15.4187,-4.5869],[15.4201,-4.5884],[15.4199,-4.5905],[15.4206,-4.592],[15.4162,-4.5933],[15.4149,-4.5951],[15.4139,-4.5955],[15.4137,-4.5963],[15.4166,-4.6157],[15.4183,-4.6221],[15.4197,-4.6238],[15.4193,-4.6251]],[[15.4193,-4.6251],[15.4193,-4.6252]],[[15.4264,-4.6625],[15.4263,-4.6625]],[[15.3488,-4.6613],[15.3502,-4.6628],[15.3516,-4.6656],[15.3548,-4.6692],[15.3577,-4.6702],[15.3583,-4.67],[15.3596,-4.6675],[15.3624,-4.6667],[15.3638,-4.6655],[15.3648,-4.6659],[15.3666,-4.6686],[15.3705,-4.6704],[15.3748,-4.6673],[15.3772,-4.6677],[15.3783,-4.6672],[15.3806,-4.6675],[15.3819,-4.6644],[15.3827,-4.6637],[15.3859,-4.6672],[15.3885,-4.669],[15.3915,-4.6692],[15.3921,-4.6686],[15.3932,-4.6687],[15.3939,-4.668],[15.3963,-4.6675],[15.3974,-4.6679],[15.3983,-4.6698],[15.3996,-4.6686]],[[15.3996,-4.6686],[15.4006,-4.6659],[15.4036,-4.6656],[15.4049,-4.6641],[15.4068,-4.6633],[15.408,-4.6636],[15.4092,-4.6629],[15.4116,-4.6655],[15.4155,-4.6663],[15.4212,-4.6655],[15.4236,-4.6624],[15.4263,-4.6625]],[[15.3668,-4.5014],[15.3673,-4.503],[15.3702,-4.5046],[15.3701,-4.5073]],[[15.3701,-4.5073],[15.3701,-4.5075]],[[15.4117,-4.7028],[15.4118,-4.7029]],[[15.4118,-4.7029],[15.4111,-4.7044]],[[15.2902,-4.3053],[15.2886,-4.3054]],[[15.3287,-4.3226],[15.3294,-4.3227]],[[15.3293,-4.3226],[15.3287,-4.3226]],[[15.2223,-4.264],[15.225,-4.2672]],[[15.242,-4.2952],[15.2418,-4.295]],[[15.2418,-4.2952],[15.242,-4.2952]],[[15.3254,-4.3509],[15.3251,-4.3508]],[[15.3028,-4.3603],[15.3054,-4.3523]],[[15.3067,-4.335],[15.3061,-4.3348]],[[15.232,-4.2541],[15.232,-4.2538]],[[15.232,-4.2538],[15.2319,-4.254]],[[15.2545,-4.2696],[15.2545,-4.2699]],[[15.2545,-4.2699],[15.2547,-4.2697]],[[15.2538,-4.3642],[15.251,-4.3658]],[[15.2268,-4.2824],[15.2238,-4.2819],[15.2209,-4.2823]],[[15.2411,-4.2439],[15.2408,-4.2442]],[[15.2326,-4.2244],[15.2303,-4.2242]],[[15.2422,-4.2907],[15.2421,-4.2905]],[[15.2825,-4.3127],[15.2825,-4.3132]],[[15.273,-4.3115],[15.2732,-4.3116]],[[15.2732,-4.3116],[15.2732,-4.3116]],[[15.2732,-4.3116],[15.273,-4.3115]],[[15.273,-4.3115],[15.273,-4.3115]],[[15.3467,-4.3937],[15.3467,-4.3937]],[[15.1425,-4.1908],[15.1437,-4.1922],[15.1436,-4.1939],[15.142,-4.1958],[15.1417,-4.1971],[15.1482,-4.2012],[15.1497,-4.2033],[15.1495,-4.2048]],[[15.3489,-4.4548],[15.3488,-4.4559],[15.3472,-4.4584],[15.347,-4.4606],[15.351,-4.4687],[15.35,-4.4714],[15.3506,-4.4729]],[[15.3506,-4.4729],[15.3508,-4.4731]],[[15.3489,-4.4546],[15.3489,-4.4548]],[[15.3136,-4.4163],[15.3118,-4.4188]],[[15.3136,-4.4162],[15.3136,-4.4163]],[[15.3136,-4.4163],[15.3137,-4.4163],[15.3138,-4.4163],[15.3137,-4.4162]],[[15.3137,-4.4162],[15.3136,-4.4162]],[[15.3746,-4.4064],[15.3741,-4.4072]],[[15.2479,-4.1889],[15.2483,-4.1917]],[[15.1462,-4.1527],[15.1451,-4.1497]],[[15.2004,-4.1746],[15.2006,-4.1815]],[[15.2006,-4.1815],[15.2003,-4.19],[15.2018,-4.1961],[15.2034,-4.1977],[15.2082,-4.1995],[15.2113,-4.2017],[15.2156,-4.209],[15.2191,-4.2132],[15.2227,-4.2198],[15.2246,-4.2218],[15.2266,-4.223]],[[15.083,-4.0658],[15.0814,-4.0648]],[[15.0831,-4.066],[15.083,-4.0658]],[[15.3103,-4.156],[15.3102,-4.1571]],[[15.3103,-4.1558],[15.3103,-4.156]],[[15.1464,-4.541],[15.1495,-4.5426],[15.1524,-4.5449],[15.1526,-4.5486],[15.1553,-4.5511],[15.1574,-4.5517],[15.1586,-4.5526],[15.1588,-4.5548],[15.1603,-4.5559],[15.1604,-4.5573],[15.162,-4.5579],[15.1635,-4.5615],[15.1627,-4.5662],[15.1661,-4.571]],[[15.4086,-4.4468],[15.4086,-4.4455],[15.4077,-4.4438],[15.4082,-4.4403],[15.4074,-4.4378],[15.4096,-4.43]],[[15.4174,-4.4713],[15.4137,-4.4674],[15.4123,-4.4634],[15.4087,-4.4573],[15.408,-4.4483],[15.4081,-4.4471],[15.4086,-4.4468]],[[15.0814,-4.0648],[15.0757,-4.0562],[15.0737,-4.0501],[15.0718,-4.0496],[15.0675,-4.0516],[15.0657,-4.051],[15.0637,-4.0422],[15.0609,-4.0379],[15.0532,-4.0309],[15.0481,-4.0294],[15.0469,-4.0285],[15.0446,-4.0255],[15.0379,-4.0192],[15.032,-4.0173],[15.0292,-4.0145],[15.0265,-4.0105],[15.0249,-4.0067],[15.023,-3.9888],[15.0203,-3.9823],[15.0181,-3.9812],[15.0137,-3.9825],[15.0023,-3.982],[14.9951,-3.9847],[14.987,-3.9853],[14.9831,-3.9872],[14.9824,-3.9893],[14.9814,-3.9901],[14.9775,-3.9886],[14.9738,-3.9898],[14.9708,-3.9872],[14.9642,-3.9864],[14.961,-3.9847],[14.9548,-3.9882],[14.9516,-3.9886],[14.9506,-3.9875],[14.95,-3.9858],[14.9506,-3.9828],[14.9501,-3.981],[14.9449,-3.9783],[14.9422,-3.9739],[14.9404,-3.9654],[14.9378,-3.9593],[14.9259,-3.9418],[14.9231,-3.9394]],[[15.3155,-4.3939],[15.316,-4.3961]],[[15.316,-4.3961],[15.3163,-4.3973]],[[15.3167,-4.3098],[15.3177,-4.3096]],[[15.3177,-4.3096],[15.3192,-4.3092]],[[15.2925,-4.6845],[15.2928,-4.683],[15.2955,-4.682],[15.2959,-4.6846],[15.2956,-4.6864],[15.2966,-4.6887],[15.3004,-4.6901],[15.3028,-4.6892]],[[15.3028,-4.6892],[15.3032,-4.6891]],[[15.2923,-4.6846],[15.2925,-4.6845]],[[15.3187,-4.6706],[15.3187,-4.6706]],[[15.3028,-4.6892],[15.303,-4.6889]],[[15.303,-4.6889],[15.3041,-4.6882],[15.3043,-4.6865],[15.3059,-4.6843],[15.306,-4.6812],[15.3079,-4.6781],[15.3104,-4.6785],[15.311,-4.6779],[15.3111,-4.6756],[15.314,-4.6742],[15.3152,-4.6713],[15.3178,-4.6699],[15.3187,-4.6706]],[[15.303,-4.6889],[15.3032,-4.6891]],[[15.4033,-4.8107],[15.4056,-4.8104],[15.4073,-4.8082],[15.4084,-4.8047],[15.4082,-4.8034],[15.4088,-4.8008],[15.4081,-4.7991],[15.4085,-4.7969],[15.408,-4.7949],[15.4066,-4.7945],[15.4061,-4.7935],[15.4039,-4.792],[15.403,-4.7892],[15.4004,-4.7869],[15.4022,-4.7844],[15.403,-4.7807],[15.4052,-4.7773],[15.4043,-4.776],[15.4038,-4.7686],[15.4027,-4.7679],[15.4012,-4.7652],[15.4008,-4.7626],[15.3995,-4.762],[15.3995,-4.7578],[15.3985,-4.7555],[15.3999,-4.7533],[15.4011,-4.7524],[15.4005,-4.7512],[15.4011,-4.7474],[15.4007,-4.746],[15.4011,-4.7435],[15.4034,-4.7416],[15.4025,-4.7372],[15.4012,-4.7346],[15.4023,-4.7323],[15.4017,-4.7311],[15.3992,-4.7292],[15.3979,-4.7268],[15.3975,-4.7212],[15.3967,-4.7193],[15.4015,-4.7116],[15.4051,-4.7102],[15.4059,-4.7071],[15.4066,-4.7074],[15.4073,-4.7093],[15.4093,-4.7086],[15.4098,-4.707],[15.4106,-4.7067],[15.4096,-4.7057],[15.4111,-4.7044]],[[15.3377,-4.6594],[15.3363,-4.6578],[15.3362,-4.6559],[15.3353,-4.654],[15.3355,-4.652],[15.3346,-4.6512],[15.3347,-4.6501],[15.3353,-4.6491],[15.3388,-4.6468],[15.3396,-4.6453],[15.3386,-4.6413],[15.3357,-4.6405],[15.3355,-4.6372],[15.3348,-4.6366],[15.3342,-4.6341]],[[15.3342,-4.6341],[15.3349,-4.6325],[15.3346,-4.6311],[15.3318,-4.6296],[15.3314,-4.6286],[15.3311,-4.6242],[15.3303,-4.6221],[15.3322,-4.619],[15.3303,-4.6131],[15.3315,-4.6098],[15.3349,-4.6046]],[[15.3407,-4.6579],[15.3427,-4.6592]],[[15.3342,-4.6341],[15.3319,-4.6363],[15.3305,-4.6383],[15.3306,-4.6393],[15.3294,-4.6405],[15.3272,-4.6391],[15.3252,-4.6389],[15.3249,-4.6414],[15.3253,-4.6429],[15.3241,-4.6444],[15.3231,-4.6473],[15.3207,-4.6478],[15.3183,-4.6495],[15.3175,-4.6513],[15.3182,-4.6527],[15.3203,-4.6542],[15.3225,-4.6537],[15.3261,-4.6552],[15.3272,-4.6541],[15.3286,-4.6537],[15.3336,-4.6592],[15.3353,-4.6597],[15.3377,-4.6594]],[[15.3377,-4.6594],[15.3405,-4.6578]],[[15.2845,-4.3479],[15.2848,-4.348]],[[15.2848,-4.3478],[15.2845,-4.3479]],[[15.3469,-4.3403],[15.3471,-4.3401]],[[15.347,-4.34],[15.3469,-4.3403]],[[15.2522,-4.358],[15.2524,-4.3578]],[[15.2524,-4.3578],[15.2521,-4.3577]],[[15.2902,-4.3516],[15.2901,-4.3516]],[[15.2642,-4.3313],[15.2641,-4.3312]],[[15.2891,-4.356],[15.289,-4.356]],[[15.3344,-4.3913],[15.3344,-4.3913]],[[15.2572,-4.3336],[15.2575,-4.3336]],[[15.2575,-4.3335],[15.2572,-4.3336]],[[15.3197,-4.3425],[15.3194,-4.3426]],[[15.3196,-4.3427],[15.3197,-4.3425]],[[15.2525,-4.3322],[15.2526,-4.3321]],[[15.3105,-4.3504],[15.3105,-4.3506]],[[15.2557,-4.3337],[15.2558,-4.3337]],[[15.2559,-4.3337],[15.2572,-4.3336]],[[15.3237,-4.3108],[15.3238,-4.3108]],[[15.3155,-4.3129],[15.3185,-4.312]],[[15.3185,-4.312],[15.3217,-4.311]],[[15.3217,-4.311],[15.3229,-4.3106]],[[15.3229,-4.3106],[15.3237,-4.3108]],[[15.308,-4.3972],[15.3078,-4.3948]],[[15.3349,-4.3796],[15.3353,-4.3798]],[[15.3353,-4.3796],[15.3349,-4.3796]],[[15.3455,-4.3916],[15.3454,-4.3914]],[[15.3454,-4.3914],[15.3454,-4.3913]],[[15.3453,-4.3914],[15.3453,-4.3914]],[[15.3453,-4.3914],[15.3455,-4.3916]],[[15.3454,-4.3913],[15.3453,-4.3914]],[[15.3453,-4.3911],[15.3453,-4.3914]],[[15.3451,-4.3915],[15.3453,-4.3914]],[[15.3453,-4.3914],[15.3454,-4.3914]],[[15.3455,-4.3916],[15.3467,-4.3937]],[[15.2565,-4.3751],[15.2566,-4.375]],[[15.1194,-4.6493],[15.1197,-4.6492]],[[15.0337,-4.7537],[15.0344,-4.7538],[15.0346,-4.7529],[15.0371,-4.7493],[15.0365,-4.7477],[15.038,-4.7473],[15.0397,-4.7437],[15.0421,-4.7415],[15.0424,-4.74],[15.0437,-4.7384],[15.0431,-4.7375],[15.0433,-4.7366],[15.048,-4.7342],[15.0504,-4.7336],[15.0505,-4.7316],[15.0498,-4.7311],[15.0529,-4.7293],[15.0527,-4.7277],[15.0556,-4.7272],[15.0576,-4.7231],[15.06,-4.7226],[15.0619,-4.7211],[15.0624,-4.7184],[15.0648,-4.7183],[15.0656,-4.7178],[15.0671,-4.7132],[15.0684,-4.7121],[15.0678,-4.71],[15.0683,-4.7077],[15.0688,-4.7077],[15.07,-4.7097],[15.071,-4.7089],[15.0724,-4.7093],[15.0718,-4.7076],[15.0725,-4.7067],[15.0734,-4.7111],[15.0749,-4.7128],[15.074,-4.7152],[15.0742,-4.7162],[15.0753,-4.7175],[15.0765,-4.7178],[15.0773,-4.7196],[15.0816,-4.7174],[15.0831,-4.7184],[15.0848,-4.7179],[15.0891,-4.7136],[15.09,-4.7112],[15.0913,-4.7106],[15.0914,-4.708],[15.0934,-4.705],[15.0936,-4.7039],[15.0917,-4.7021],[15.089,-4.7006],[15.0884,-4.6996],[15.0925,-4.694],[15.0951,-4.6916],[15.0941,-4.69],[15.0912,-4.6878],[15.0913,-4.6843],[15.0943,-4.6812],[15.0953,-4.6777],[15.0948,-4.6755],[15.0959,-4.6731],[15.0971,-4.672],[15.0998,-4.672],[15.1,-4.6663],[15.1025,-4.6619],[15.0992,-4.658],[15.0989,-4.6555],[15.0996,-4.6547],[15.1016,-4.6561],[15.1046,-4.6554],[15.1058,-4.6573],[15.1067,-4.6575],[15.1089,-4.6557],[15.1093,-4.6531],[15.1122,-4.6524],[15.1155,-4.6525],[15.1183,-4.6511],[15.1194,-4.6493]],[[15.3781,-4.4411],[15.3779,-4.4413]],[[15.2934,-4.3188],[15.2935,-4.3188]],[[15.296,-4.3263],[15.2961,-4.3263]],[[15.294,-4.2204],[15.2939,-4.2204]],[[15.2939,-4.2204],[15.2939,-4.2205],[15.294,-4.2204]],[[15.2266,-4.223],[15.2303,-4.2242]],[[15.376,-4.3978],[15.3756,-4.3908]],[[15.376,-4.398],[15.376,-4.3978]],[[15.3759,-4.3978],[15.376,-4.398]],[[15.3756,-4.3908],[15.3756,-4.3907]],[[15.3755,-4.3907],[15.3755,-4.3908]],[[15.3603,-4.3851],[15.3604,-4.3849]],[[15.3706,-4.3888],[15.3706,-4.3889]],[[15.3409,-4.3803],[15.3408,-4.3802]],[[15.3138,-4.3024],[15.3138,-4.3023]],[[15.3127,-4.3026],[15.3128,-4.3027]],[[15.356,-4.3965],[15.3546,-4.396],[15.3541,-4.396]],[[15.2406,-4.3423],[15.2408,-4.342]],[[15.2408,-4.342],[15.2407,-4.3419]],[[15.2559,-4.3337],[15.2558,-4.3337]],[[15.2465,-4.2851],[15.2465,-4.2853]],[[15.2941,-4.219],[15.2941,-4.2189]],[[15.2939,-4.2204],[15.2941,-4.219]],[[15.284,-4.2678],[15.2841,-4.2678]],[[15.2318,-4.2841],[15.23,-4.2827],[15.2268,-4.2824]],[[15.3662,-4.1075],[15.3661,-4.1117],[15.3635,-4.1163],[15.3621,-4.1202],[15.3605,-4.122]],[[15.1425,-4.1908],[15.1418,-4.1894],[15.1458,-4.1824]],[[15.2936,-4.2142],[15.2935,-4.2141]],[[15.2934,-4.2142],[15.2936,-4.2142]],[[15.2624,-4.2247],[15.2623,-4.2245]],[[15.2623,-4.2246],[15.2623,-4.2247]],[[15.2636,-4.2697],[15.2637,-4.2698]],[[15.2637,-4.2698],[15.2637,-4.2696]],[[15.6226,-4.2508],[15.6218,-4.249],[15.6209,-4.2485],[15.6169,-4.2479],[15.6143,-4.2484],[15.6124,-4.2476],[15.6112,-4.2477]],[[15.6112,-4.2477],[15.6102,-4.2476],[15.6077,-4.2455],[15.6024,-4.2467],[15.6009,-4.245],[15.5982,-4.245],[15.5968,-4.242],[15.5956,-4.2417],[15.5949,-4.2421]],[[15.2421,-4.2905],[15.2421,-4.2907]],[[15.2922,-4.2388],[15.2923,-4.2389]],[[15.2924,-4.2388],[15.2922,-4.2388]],[[15.3572,-4.3514],[15.3583,-4.355]],[[15.3495,-4.3453],[15.348,-4.3463]],[[15.3438,-4.336],[15.3447,-4.3379]],[[15.3417,-4.3319],[15.3438,-4.336]],[[15.3138,-4.3192],[15.32,-4.3175]],[[15.32,-4.3175],[15.3224,-4.3168]],[[15.352,-4.3474],[15.3538,-4.3486]],[[15.3495,-4.3453],[15.3502,-4.346]],[[15.3538,-4.3486],[15.3551,-4.3494]],[[15.2582,-4.3546],[15.2583,-4.3541]],[[15.3549,-4.3258],[15.3515,-4.3257],[15.35,-4.3285]],[[15.3586,-4.326],[15.3587,-4.326]],[[15.3787,-3.9921],[15.3785,-3.9919]],[[15.3784,-3.992],[15.3787,-3.9921]],[[15.4509,-4.4543],[15.453,-4.456],[15.4594,-4.4642]],[[15.4594,-4.4642],[15.4652,-4.4757],[15.4656,-4.4813]],[[15.3546,-4.4038],[15.3546,-4.4038]],[[15.3645,-4.4237],[15.3645,-4.4237]],[[15.3646,-4.4231],[15.3654,-4.421],[15.3681,-4.4182]],[[15.3681,-4.4182],[15.3692,-4.4172]],[[15.3691,-4.3962],[15.3706,-4.3889]],[[15.3809,-4.4137],[15.3813,-4.4141]],[[15.3813,-4.4141],[15.3817,-4.4144]],[[15.376,-4.398],[15.3761,-4.4002]],[[15.375,-4.4056],[15.3746,-4.4064]],[[15.3676,-4.4057],[15.3675,-4.4055]],[[15.3706,-4.3889],[15.3706,-4.3889]],[[15.3369,-4.3924],[15.3371,-4.3924]],[[15.3433,-4.3925],[15.3451,-4.3915]],[[15.3402,-4.393],[15.3419,-4.3929]],[[15.345,-4.3882],[15.3453,-4.3911]],[[15.3453,-4.3914],[15.3451,-4.3915]],[[15.3467,-4.3937],[15.3467,-4.3938]],[[15.3447,-4.3862],[15.3449,-4.3875]],[[15.3449,-4.3875],[15.345,-4.3882]],[[15.3529,-4.385],[15.3527,-4.3827]],[[15.3531,-4.3866],[15.3529,-4.385]],[[15.3535,-4.3907],[15.3534,-4.3893]],[[15.3467,-4.3938],[15.3467,-4.3937]],[[15.3538,-4.393],[15.3535,-4.3907]],[[15.3518,-4.3828],[15.3517,-4.3823]],[[15.3522,-4.3873],[15.352,-4.385]],[[15.3439,-4.385],[15.3447,-4.3862]],[[15.3584,-4.3901],[15.3584,-4.3902]],[[15.3603,-4.3851],[15.3584,-4.3901]],[[15.3534,-4.3893],[15.3531,-4.3873]],[[15.3163,-4.3973],[15.3163,-4.4013]],[[15.3344,-4.3913],[15.3345,-4.3914]],[[15.3163,-4.4013],[15.3163,-4.407]],[[15.3311,-4.3785],[15.3318,-4.3788]],[[15.3373,-4.3796],[15.3369,-4.3796]],[[15.3369,-4.3796],[15.3355,-4.3796]],[[15.3814,-4.4221],[15.3814,-4.4245]],[[15.3814,-4.4263],[15.3813,-4.428]],[[15.3817,-4.4145],[15.3818,-4.4145]],[[15.352,-4.385],[15.3518,-4.3828]],[[15.3505,-4.3562],[15.3512,-4.3564]],[[15.3476,-4.3547],[15.3505,-4.3562]],[[15.3306,-4.3925],[15.3302,-4.3932]],[[15.331,-4.3921],[15.3309,-4.3923]],[[15.3811,-4.4313],[15.3801,-4.4344]],[[15.3152,-4.4143],[15.3137,-4.4162]],[[15.3157,-4.4129],[15.3152,-4.4143]],[[15.3229,-4.3081],[15.3236,-4.3063]],[[15.3225,-4.3091],[15.3229,-4.3081]],[[15.244,-4.2804],[15.2441,-4.2805]],[[15.3086,-4.4266],[15.3075,-4.4201],[15.3019,-4.4117],[15.3019,-4.4074],[15.3039,-4.4029],[15.3069,-4.399]],[[15.3037,-4.3162],[15.3061,-4.3155]],[[15.3061,-4.3155],[15.3097,-4.3145]],[[15.2935,-4.3188],[15.2993,-4.3174]],[[15.3079,-4.3973],[15.308,-4.3972]],[[15.3533,-4.4863],[15.3533,-4.4864]],[[15.3506,-4.4729],[15.3494,-4.475],[15.3508,-4.4788],[15.353,-4.4804],[15.354,-4.4826],[15.3542,-4.484],[15.3533,-4.4863]],[[15.783,-4.8516],[15.7823,-4.8476],[15.7829,-4.839],[15.7802,-4.835],[15.7799,-4.8335],[15.7805,-4.831],[15.7803,-4.829],[15.7814,-4.8247],[15.7835,-4.82],[15.7888,-4.8138],[15.7883,-4.8074],[15.7894,-4.8012],[15.7959,-4.7917],[15.7936,-4.7897],[15.791,-4.7734],[15.7897,-4.7703],[15.7884,-4.7697],[15.7885,-4.7633],[15.791,-4.761],[15.7918,-4.758],[15.7913,-4.7541],[15.7899,-4.7504],[15.7898,-4.7478],[15.7888,-4.7473],[15.7873,-4.7431],[15.7885,-4.7394],[15.7922,-4.7352],[15.7916,-4.7299],[15.7928,-4.7281],[15.7941,-4.7238],[15.7966,-4.7212],[15.8028,-4.7169],[15.8059,-4.71],[15.8062,-4.7045],[15.8083,-4.7014],[15.8086,-4.6996],[15.8082,-4.6955],[15.8086,-4.6939],[15.8129,-4.6919],[15.8201,-4.6907],[15.8227,-4.6912],[15.8235,-4.6897],[15.8264,-4.6886],[15.8292,-4.6865],[15.8301,-4.6839],[15.8298,-4.6815],[15.8261,-4.6757],[15.8245,-4.6674],[15.8222,-4.6635],[15.8234,-4.662],[15.8254,-4.6554],[15.8266,-4.6541],[15.8273,-4.6497]],[[15.5316,-4.3156],[15.5326,-4.316],[15.5368,-4.3118]],[[15.5369,-4.3119],[15.5368,-4.3118]],[[15.5368,-4.3118],[15.537,-4.3113],[15.5372,-4.3118]],[[15.5372,-4.3118],[15.5371,-4.3119],[15.5369,-4.3119]],[[15.5372,-4.3118],[15.5414,-4.3156]],[[15.3009,-4.7491],[15.3009,-4.7492]],[[15.3009,-4.7492],[15.2998,-4.7534],[15.3022,-4.7551],[15.3017,-4.7579]],[[15.3487,-4.6612],[15.3488,-4.6613]],[[15.3187,-4.6706],[15.3228,-4.6723],[15.3232,-4.6737],[15.3256,-4.675],[15.325,-4.6761],[15.3254,-4.677],[15.3281,-4.6774],[15.3294,-4.6765],[15.3297,-4.6747],[15.3345,-4.6709],[15.3351,-4.6685],[15.3377,-4.6675],[15.3376,-4.6663],[15.3382,-4.6658],[15.3394,-4.6658],[15.3427,-4.6592]],[[15.3427,-4.6592],[15.3432,-4.6584],[15.3453,-4.6584],[15.3487,-4.6612]],[[15.2978,-4.7106],[15.2978,-4.7117],[15.2985,-4.7123],[15.2982,-4.7133],[15.2999,-4.7139],[15.2987,-4.7169],[15.3007,-4.718],[15.3009,-4.7189],[15.3001,-4.7224],[15.3014,-4.7262],[15.3004,-4.7331],[15.3009,-4.7348],[15.3004,-4.7352],[15.2983,-4.7345],[15.2971,-4.7347],[15.296,-4.7381],[15.2949,-4.7389],[15.2947,-4.7396],[15.2953,-4.7414],[15.2969,-4.7427],[15.2966,-4.7452],[15.2973,-4.7473],[15.3009,-4.7491]],[[15.5202,-4.0931],[15.5211,-4.0927],[15.522,-4.0907],[15.5233,-4.0896]],[[15.2126,-4.3501],[15.2122,-4.3502]],[[15.2122,-4.3502],[15.2119,-4.3504]],[[15.2119,-4.3504],[15.2122,-4.3503]],[[15.2122,-4.3503],[15.2126,-4.3501]],[[15.2126,-4.3501],[15.2122,-4.3503]],[[15.2122,-4.3503],[15.2119,-4.3504]],[[15.4117,-4.7027],[15.41,-4.7029],[15.4092,-4.7017],[15.4093,-4.7002],[15.4069,-4.6984],[15.4056,-4.6967],[15.4036,-4.6967],[15.4028,-4.6946],[15.4005,-4.6946],[15.4006,-4.6924],[15.399,-4.6896],[15.3951,-4.6867],[15.3958,-4.6837],[15.3987,-4.6809],[15.3996,-4.6786],[15.3996,-4.6768],[15.3984,-4.6761],[15.399,-4.6742],[15.3984,-4.6726],[15.3996,-4.6686]],[[15.4117,-4.7027],[15.4117,-4.7028]],[[15.2665,-4.338],[15.2661,-4.337]],[[15.2817,-4.3106],[15.2822,-4.3111]],[[15.282,-4.3104],[15.2818,-4.3101]],[[15.2861,-4.3069],[15.2886,-4.3054]],[[15.3235,-4.3579],[15.3203,-4.3569]],[[15.2731,-4.2762],[15.2733,-4.2758]],[[15.273,-4.2765],[15.2731,-4.2762]],[[15.3779,-4.4414],[15.3782,-4.4414]],[[15.3779,-4.4413],[15.3779,-4.4414]],[[15.3795,-4.4374],[15.379,-4.439]],[[15.3782,-4.4414],[15.3781,-4.4413]],[[15.3811,-4.4313],[15.3811,-4.4313]],[[15.3813,-4.428],[15.3811,-4.4313]],[[15.3814,-4.4245],[15.3814,-4.4251]],[[15.3814,-4.4251],[15.3814,-4.4263]],[[15.3692,-4.4172],[15.3692,-4.4171]],[[15.3677,-4.4068],[15.3677,-4.4067]],[[15.3677,-4.4067],[15.3676,-4.4057]],[[15.3645,-4.4237],[15.3646,-4.4231]],[[15.3531,-4.3873],[15.3531,-4.3866]],[[15.4436,-4.4477],[15.4473,-4.4524]],[[15.3152,-4.4143],[15.3152,-4.4143]],[[15.3163,-4.4111],[15.3157,-4.4129]],[[15.3069,-4.399],[15.3079,-4.3973]],[[15.2745,-4.4381],[15.2778,-4.4442],[15.2803,-4.4454],[15.2844,-4.4447]],[[15.3309,-4.3923],[15.3306,-4.3925]],[[15.3302,-4.3932],[15.33,-4.394]],[[15.2013,-4.3528],[15.1992,-4.3535],[15.1961,-4.3587]],[[15.1951,-4.3664],[15.1957,-4.3677]],[[15.414,-4.4875],[15.4181,-4.486],[15.4199,-4.4831],[15.4205,-4.4797]],[[15.4205,-4.4797],[15.4191,-4.4734],[15.4174,-4.4713]],[[15.2172,-4.3445],[15.2192,-4.3442]],[[15.2536,-4.3567],[15.2556,-4.3575],[15.2556,-4.3561],[15.2565,-4.3546]],[[15.2521,-4.3482],[15.2532,-4.3508],[15.2549,-4.3515],[15.2547,-4.3525],[15.2536,-4.3531]],[[15.3045,-4.3474],[15.3032,-4.3516]],[[15.3245,-4.3591],[15.3245,-4.3591]],[[15.3551,-4.3494],[15.3551,-4.3494]],[[15.3564,-4.3553],[15.3583,-4.355]],[[15.3495,-4.3418],[15.3495,-4.3453]],[[15.3015,-4.3248],[15.2961,-4.3263]],[[15.3061,-4.3235],[15.306,-4.3235]],[[15.2997,-4.3627],[15.2995,-4.3636]],[[15.2978,-4.3692],[15.2966,-4.3735]],[[15.3236,-4.3761],[15.3184,-4.3745]],[[15.3309,-4.3784],[15.3311,-4.3785]],[[15.3072,-4.3235],[15.307,-4.3235]],[[15.6777,-4.4812],[15.6789,-4.4835],[15.6787,-4.4873],[15.6795,-4.4889],[15.6819,-4.4906],[15.6819,-4.4929],[15.6909,-4.4905]],[[15.3585,-4.3842],[15.3585,-4.3841]],[[15.3555,-4.4662],[15.3555,-4.466]],[[15.3528,-4.4749],[15.3551,-4.4714],[15.3555,-4.4662]],[[15.3178,-4.3281],[15.3195,-4.3275]],[[15.314,-4.3292],[15.3141,-4.3291]],[[15.3414,-4.3795],[15.3417,-4.3796]],[[15.1949,-4.3658],[15.1951,-4.3664]],[[15.1975,-4.3614],[15.1968,-4.3637],[15.1949,-4.3658]],[[15.2122,-4.3503],[15.2122,-4.3503]],[[15.2122,-4.3503],[15.2122,-4.3503]],[[15.2122,-4.3503],[15.2122,-4.3502]],[[15.2137,-4.3513],[15.2122,-4.3503]],[[15.2629,-4.3581],[15.2627,-4.3583]],[[15.2627,-4.3583],[15.2619,-4.3591],[15.255,-4.3613]],[[15.2392,-4.3487],[15.2429,-4.3489]],[[15.239,-4.3486],[15.2392,-4.3487]],[[15.2661,-4.337],[15.2657,-4.336]],[[15.6301,-4.2571],[15.6253,-4.2534]],[[15.2578,-4.3661],[15.2558,-4.3646]],[[15.2558,-4.3646],[15.2549,-4.3639],[15.2538,-4.3642]],[[15.2546,-4.3614],[15.2547,-4.3615]],[[15.3149,-4.3103],[15.3158,-4.3101]],[[15.3158,-4.3101],[15.3167,-4.3098]],[[15.3148,-4.3104],[15.3149,-4.3103]],[[15.3024,-4.3245],[15.3015,-4.3248]],[[15.3051,-4.4346],[15.3067,-4.4301]],[[15.3613,-4.4408],[15.3622,-4.4399]],[[15.3622,-4.4399],[15.3629,-4.4304],[15.3645,-4.4237]],[[15.379,-4.439],[15.3781,-4.4411]],[[15.3082,-4.428],[15.3086,-4.4266]],[[15.3076,-4.4291],[15.3082,-4.428]],[[15.3083,-4.3264],[15.3071,-4.3268]],[[15.0246,-4.6053],[15.0269,-4.603],[15.0276,-4.6012]],[[15.0276,-4.6012],[15.0265,-4.5984],[15.0226,-4.5953],[15.0174,-4.5942],[15.015,-4.5945],[15.0099,-4.5933],[15.0094,-4.5926],[15.0095,-4.5909],[15.0072,-4.5891],[15.0063,-4.589],[15.0001,-4.5916],[14.9977,-4.5915],[14.9949,-4.5903],[14.9939,-4.5893],[14.9938,-4.5907]],[[15.0276,-4.5565],[15.0262,-4.5562],[15.0251,-4.5567],[15.0242,-4.559]],[[15.0242,-4.559],[15.0232,-4.5605]],[[15.0232,-4.5605],[15.0234,-4.563],[15.0247,-4.5666],[15.0231,-4.569],[15.0197,-4.5702],[15.0159,-4.575]],[[15.0159,-4.575],[15.016,-4.577],[15.0173,-4.5791],[15.0242,-4.5863]],[[15.0242,-4.5863],[15.0267,-4.5886]],[[15.0267,-4.5886],[15.029,-4.5927],[15.0301,-4.598],[15.0276,-4.6012]],[[15.235,-4.2827],[15.2331,-4.2845],[15.232,-4.2842]],[[15.232,-4.2842],[15.2318,-4.2841]],[[15.1898,-4.2528],[15.189,-4.2535],[15.1883,-4.2558],[15.1891,-4.2597],[15.1889,-4.2614]],[[15.1889,-4.2614],[15.1888,-4.2616]],[[15.1957,-4.3677],[15.1973,-4.3698],[15.2001,-4.372],[15.2003,-4.3734],[15.2014,-4.3752],[15.2012,-4.3783],[15.2003,-4.3801],[15.201,-4.3808],[15.1997,-4.3821],[15.1994,-4.3832],[15.1971,-4.3827],[15.1962,-4.3838],[15.1963,-4.3848],[15.1952,-4.386],[15.192,-4.3889],[15.1906,-4.3888]],[[15.1906,-4.3888],[15.1904,-4.3886]],[[15.3309,-4.3517],[15.3314,-4.3517]],[[15.3314,-4.3517],[15.3339,-4.3516]],[[15.3339,-4.3516],[15.3344,-4.3515]],[[15.1873,-4.6029],[15.1867,-4.6009],[15.1872,-4.5986]],[[15.3487,-4.3293],[15.3488,-4.3292]],[[15.2708,-4.3357],[15.2733,-4.3366]],[[15.2733,-4.3366],[15.2735,-4.3367]],[[15.2109,-4.3505],[15.2025,-4.3524]],[[15.1961,-4.3587],[15.1975,-4.3614]],[[15.2025,-4.3524],[15.2013,-4.3528]],[[15.3224,-4.3168],[15.3253,-4.316]],[[15.3057,-4.3221],[15.3077,-4.3213]],[[15.3077,-4.3213],[15.3138,-4.3192]],[[15.6253,-4.2534],[15.6236,-4.2523],[15.6227,-4.2509]],[[15.6227,-4.2509],[15.6226,-4.2508]],[[15.3454,-4.3913],[15.3453,-4.3911]],[[15.2787,-4.2708],[15.2792,-4.2695]],[[15.278,-4.2726],[15.2787,-4.2708]],[[15.3413,-4.3795],[15.3414,-4.3795]],[[15.3414,-4.3794],[15.3414,-4.3793]],[[15.3067,-4.4301],[15.3076,-4.4291]],[[15.305,-4.435],[15.3051,-4.4346]],[[15.1967,-4.269],[15.197,-4.2693]],[[15.2027,-4.4904],[15.2036,-4.4931],[15.2039,-4.4978],[15.2013,-4.4999],[15.2019,-4.5008]],[[15.1904,-4.3886],[15.1896,-4.3875],[15.1886,-4.3876]],[[15.1681,-4.4509],[15.1674,-4.4514],[15.1659,-4.4512],[15.1651,-4.4519]],[[15.1655,-4.454],[15.1691,-4.4543]],[[15.2599,-4.2783],[15.26,-4.2775]]]}}]}