{"type":"FeatureCollection","features":[{"type":"Feature","properties":{"kind":"major"},"geometry":{"type":"MultiLineString","coordinates":[[[15.3206,-4.3344],[15.3267,-4.3369]],[[15.315,-4.3896],[15.3145,-4.3897]],[[15.3145,-4.3897],[15.3145,-4.3899]],[[15.3251,-4.3927],[15.331,-4.3943],[15.3322,-4.394]],[[15.2578,-4.4279],[15.2578,-4.4235],[15.2601,-4.4187],[15.2564,-4.4073]],[[15.2918,-4.3478],[15.2917,-4.348]],[[15.3151,-4.3901],[15.3156,-4.3901]],[[15.3145,-4.3897],[15.314,-4.3897]],[[15.314,-4.3897],[15.3124,-4.3894],[15.311,-4.39],[15.3074,-4.3955]],[[15.3463,-4.3737],[15.344,-4.3699]],[[15.3436,-4.375],[15.3436,-4.3759]],[[15.3438,-4.3757],[15.3449,-4.3755]],[[15.3488,-4.3792],[15.3499,-4.3805],[15.3509,-4.3812]],[[15.3791,-4.392],[15.3757,-4.3908]],[[15.3345,-4.3515],[15.3294,-4.3416]],[[15.271,-4.4028],[15.266,-4.4052],[15.263,-4.4058],[15.2596,-4.4054],[15.257,-4.4066]],[[15.2969,-4.4021],[15.29,-4.4082],[15.2803,-4.4291]],[[15.5757,-4.2454],[15.5771,-4.2393],[15.5781,-4.2113]],[[15.3838,-4.394],[15.3899,-4.3963]],[[15.4008,-4.4003],[15.3984,-4.3994]],[[15.4539,-4.387],[15.4687,-4.3856],[15.47,-4.385],[15.4766,-4.3797]],[[15.2591,-4.4421],[15.2574,-4.4412],[15.257,-4.4393]],[[15.2549,-4.443],[15.2591,-4.4421]],[[15.2591,-4.4421],[15.2664,-4.4409]],[[15.4914,-4.3678],[15.4698,-4.385],[15.4538,-4.3869],[15.4515,-4.3883],[15.4274,-4.4038],[15.4234,-4.4053],[15.4184,-4.4059]],[[15.5035,-4.3583],[15.5054,-4.3564],[15.5062,-4.355],[15.5141,-4.3347],[15.5162,-4.3324]],[[15.5791,-4.2096],[15.5908,-4.2004],[15.5969,-4.1987],[15.599,-4.1993],[15.6051,-4.2028],[15.6114,-4.2019],[15.6189,-4.2037],[15.6234,-4.2034],[15.6262,-4.2018],[15.6326,-4.2028],[15.6345,-4.1994],[15.6388,-4.1995],[15.6419,-4.1985],[15.6425,-4.1991],[15.6436,-4.2066],[15.6445,-4.2075],[15.6472,-4.2083],[15.649,-4.2057],[15.652,-4.204],[15.6552,-4.2046],[15.6576,-4.2028],[15.6645,-4.1945],[15.6661,-4.1908],[15.67,-4.1866],[15.6747,-4.1847],[15.6779,-4.1846],[15.6816,-4.1864],[15.6865,-4.1854],[15.6902,-4.1809],[15.691,-4.1806],[15.6919,-4.1812],[15.6951,-4.1897],[15.696,-4.1907],[15.7093,-4.1952],[15.7586,-4.2175],[15.7737,-4.2202],[15.7849,-4.2286],[15.8014,-4.2344],[15.822,-4.2459],[15.8473,-4.2476],[15.8682,-4.2522],[15.8773,-4.2558],[15.895,-4.2601],[15.9017,-4.2655],[15.9003,-4.2717],[15.9004,-4.2754],[15.9011,-4.2762],[15.934,-4.2852],[15.9597,-4.2875],[15.9611,-4.2883],[15.9631,-4.2912],[15.9641,-4.2946],[15.9651,-4.2953],[15.969,-4.2936],[15.9716,-4.2931],[15.9722,-4.2923],[15.9706,-4.2868],[15.9712,-4.2812],[15.9703,-4.2795],[15.9684,-4.2786],[15.9684,-4.278]],[[15.193,-4.5061],[15.1897,-4.5065],[15.1879,-4.5082],[15.1876,-4.5106],[15.1889,-4.5147],[15.1882,-4.5204],[15.1815,-4.5279],[15.1792,-4.537],[15.1741,-4.546],[15.1739,-4.5481],[15.1745,-4.5499],[15.1736,-4.5518],[15.1739,-4.5537],[15.1732,-4.5561],[15.1747,-4.5588],[15.175,-4.5621],[15.1737,-4.5656],[15.1737,-4.5679],[15.1725,-4.5692],[15.1695,-4.5708],[15.1657,-4.5712],[15.165,-4.5728],[15.1627,-4.574],[15.1626,-4.5754],[15.1633,-4.576],[15.1639,-4.5789],[15.1681,-4.5829],[15.169,-4.5865]],[[15.2564,-4.4073],[15.257,-4.4066]],[[15.257,-4.4066],[15.2566,-4.4066]],[[15.2784,-4.2316],[15.279,-4.2333]],[[15.3439,-4.3699],[15.3446,-4.3752]],[[15.245,-4.4555],[15.2455,-4.4597],[15.2449,-4.4617]],[[15.5232,-4.3269],[15.5408,-4.3163],[15.5545,-4.3011],[15.5689,-4.2726],[15.5742,-4.2515]],[[15.5791,-4.2096],[15.5777,-4.2108]],[[15.2726,-4.2185],[15.2713,-4.2172]],[[15.3576,-4.1181],[15.3562,-4.1198]],[[15.4915,-4.3678],[15.4929,-4.3667]],[[15.4927,-4.3668],[15.4914,-4.3678]],[[15.2564,-4.4073],[15.2563,-4.4069]],[[15.5782,-4.2111],[15.5791,-4.2096]],[[15.5776,-4.2112],[15.577,-4.2393],[15.5742,-4.2508]],[[15.169,-4.5865],[15.1683,-4.5929]],[[15.1683,-4.5929],[15.1683,-4.5935]],[[15.1871,-4.6138],[15.19,-4.6172],[15.1927,-4.6184],[15.1925,-4.6274],[15.1954,-4.6317],[15.1982,-4.6344],[15.1975,-4.6356],[15.198,-4.6375],[15.1971,-4.6405],[15.1995,-4.6442],[15.2005,-4.6492],[15.2024,-4.6523],[15.2067,-4.654],[15.2082,-4.6557],[15.2085,-4.6665],[15.2098,-4.6738],[15.2127,-4.6804],[15.2153,-4.6892],[15.2146,-4.6909],[15.2118,-4.693],[15.2119,-4.6957],[15.2135,-4.6994],[15.2116,-4.7012],[15.2079,-4.7072],[15.2071,-4.7106],[15.2039,-4.7171],[15.1958,-4.7258],[15.1961,-4.7283],[15.1949,-4.732],[15.1955,-4.734],[15.1977,-4.7372],[15.1968,-4.7422],[15.1977,-4.7495],[15.1974,-4.754],[15.1984,-4.7654],[15.1971,-4.7691],[15.1948,-4.7725],[15.1925,-4.7747],[15.1864,-4.777],[15.1841,-4.7803],[15.1811,-4.7924],[15.1817,-4.7942],[15.185,-4.7985],[15.1854,-4.8017]],[[15.5743,-4.2509],[15.5757,-4.2454]],[[15.5742,-4.2515],[15.5743,-4.2509]],[[15.5509,-4.3049],[15.5408,-4.3162],[15.524,-4.3261],[15.5201,-4.3291]],[[15.5742,-4.2508],[15.5741,-4.2512]],[[15.3267,-4.3369],[15.3292,-4.3414]],[[15.3063,-4.3341],[15.3145,-4.3318]],[[15.2955,-4.3387],[15.2919,-4.3476]],[[15.3142,-4.3317],[15.3063,-4.3339]],[[15.2713,-4.2172],[15.2712,-4.2171]],[[15.2712,-4.2171],[15.2614,-4.2031],[15.2555,-4.1909],[15.2531,-4.1809],[15.2552,-4.1655],[15.2566,-4.1628],[15.2587,-4.1607],[15.2724,-4.1521],[15.2804,-4.1441],[15.2986,-4.1416],[15.3004,-4.1407]],[[15.3663,-4.3872],[15.3613,-4.3853]],[[15.3734,-4.39],[15.38,-4.3925]],[[15.3662,-4.3874],[15.3669,-4.3876]],[[15.3113,-4.13],[15.3116,-4.1301]],[[15.3154,-4.1301],[15.3169,-4.1297],[15.3232,-4.1303],[15.3281,-4.1292],[15.3336,-4.1317],[15.3355,-4.1315]],[[15.3293,-4.3416],[15.3439,-4.3699]],[[15.3294,-4.3416],[15.3293,-4.3414]],[[15.3292,-4.3414],[15.3293,-4.3416]],[[15.3293,-4.3414],[15.3269,-4.3369]],[[15.278,-4.2309],[15.2779,-4.2306]],[[15.2779,-4.2306],[15.2765,-4.225],[15.2733,-4.2194]],[[15.3204,-4.3343],[15.3206,-4.3344]],[[15.3146,-4.3319],[15.3204,-4.3343]],[[15.5201,-4.3291],[15.5198,-4.3293]],[[15.5197,-4.3296],[15.5202,-4.3292]],[[15.5164,-4.3321],[15.514,-4.3346],[15.5061,-4.3549]],[[15.5061,-4.3549],[15.5047,-4.3571]],[[15.5202,-4.3292],[15.5232,-4.3269]],[[15.3523,-4.3818],[15.3511,-4.3812]],[[15.3523,-4.382],[15.3528,-4.3822]],[[15.3156,-4.3901],[15.3151,-4.3897]],[[15.314,-4.3897],[15.3145,-4.3899]],[[15.3439,-4.3748],[15.3442,-4.375]],[[15.3204,-4.3342],[15.3145,-4.3317]],[[15.3269,-4.3369],[15.3206,-4.3343]],[[15.3145,-4.3317],[15.3144,-4.3317]],[[15.3206,-4.3343],[15.3204,-4.3342]],[[15.3144,-4.3317],[15.3142,-4.3317]],[[15.3145,-4.3318],[15.3146,-4.3319]],[[15.2726,-4.2185],[15.273,-4.219]],[[15.2731,-4.2188],[15.2726,-4.2185]],[[15.273,-4.2191],[15.2733,-4.2194]],[[15.2733,-4.2194],[15.2732,-4.2191]],[[15.273,-4.219],[15.273,-4.2191]],[[15.273,-4.2191],[15.2731,-4.2191],[15.2732,-4.2191]],[[15.2732,-4.2191],[15.2731,-4.2188]],[[15.2731,-4.2188],[15.273,-4.219]],[[15.322,-4.16],[15.3223,-4.1599]],[[15.3223,-4.1599],[15.322,-4.159],[15.322,-4.16]],[[15.3222,-4.1605],[15.3224,-4.1634],[15.3212,-4.1665]],[[15.3213,-4.1665],[15.3224,-4.1636],[15.3223,-4.1605]],[[15.2919,-4.3476],[15.2918,-4.3478]],[[15.2916,-4.3485],[15.2919,-4.3481]],[[15.2919,-4.3479],[15.292,-4.3476]],[[15.2917,-4.348],[15.2915,-4.3485]],[[15.2942,-4.2261],[15.295,-4.2301],[15.2961,-4.2336]],[[15.2962,-4.2335],[15.2943,-4.2261]],[[15.2961,-4.2337],[15.2962,-4.2335]],[[15.2962,-4.2335],[15.2961,-4.2336]],[[15.2961,-4.2336],[15.2961,-4.2337]],[[15.3004,-4.1407],[15.3005,-4.1406]],[[15.3005,-4.1406],[15.308,-4.1315],[15.3103,-4.13],[15.3113,-4.13]],[[15.3686,-4.0699],[15.3678,-4.0727],[15.3674,-4.0787],[15.3653,-4.0821],[15.3649,-4.0836],[15.365,-4.0847],[15.3667,-4.0899],[15.3687,-4.1018],[15.3684,-4.1042],[15.3673,-4.1062]],[[15.4067,-3.8954],[15.4003,-3.9152],[15.3832,-3.9321],[15.3804,-3.9363],[15.3757,-3.9462],[15.3753,-3.9484],[15.3757,-3.9517],[15.3808,-3.9617],[15.3823,-3.972],[15.3814,-3.9806],[15.3785,-3.9914]],[[15.3785,-3.9919],[15.3785,-3.9918]],[[15.3785,-3.9918],[15.3782,-3.9917]],[[15.3782,-3.9917],[15.3782,-3.992]],[[15.3782,-3.992],[15.3783,-3.9921]],[[15.3783,-3.9921],[15.3785,-3.9919]],[[15.3671,-4.0398],[15.3614,-4.0274],[15.3568,-4.0196],[15.3563,-4.0166],[15.3574,-4.0091],[15.3655,-3.9983],[15.3711,-3.9955],[15.3766,-3.9946],[15.3775,-3.9937],[15.3783,-3.9921]],[[15.3785,-3.9914],[15.3782,-3.9917]],[[15.3785,-3.9918],[15.3785,-3.9914]],[[15.2784,-4.2316],[15.278,-4.2309]],[[15.2805,-4.2327],[15.2784,-4.2316]],[[15.2915,-4.3485],[15.2914,-4.3489]],[[15.2914,-4.3489],[15.2913,-4.3491]],[[15.3445,-4.3751],[15.3446,-4.3752]],[[15.2959,-4.337],[15.2959,-4.3371]],[[15.296,-4.3371],[15.296,-4.337]],[[15.2959,-4.3371],[15.2955,-4.3387]],[[15.2956,-4.3388],[15.296,-4.3373]],[[15.3442,-4.375],[15.3445,-4.3751]],[[15.39,-4.3964],[15.3948,-4.3981]],[[15.3901,-4.3962],[15.39,-4.3962]],[[15.3899,-4.3963],[15.39,-4.3964]],[[15.3888,-4.3957],[15.3839,-4.3939]],[[15.2563,-4.4069],[15.2563,-4.4065]],[[15.2566,-4.4066],[15.2563,-4.4065]],[[15.3581,-4.1175],[15.358,-4.1177]],[[15.3622,-4.1128],[15.3581,-4.1175]],[[15.3071,-4.3959],[15.307,-4.396]],[[15.3212,-4.1665],[15.3161,-4.1711],[15.3148,-4.1728],[15.3139,-4.1744],[15.3133,-4.176],[15.3113,-4.1836],[15.3111,-4.185],[15.3113,-4.1912],[15.3105,-4.1942],[15.3088,-4.1968],[15.3009,-4.2032],[15.2997,-4.2044],[15.299,-4.2056],[15.2981,-4.2078],[15.2952,-4.2197]],[[15.3362,-4.1312],[15.3389,-4.1302],[15.3451,-4.1324],[15.3486,-4.1319],[15.3507,-4.13],[15.3562,-4.1198]],[[15.3355,-4.1315],[15.3362,-4.1312]],[[15.2959,-4.3371],[15.296,-4.3371]],[[15.296,-4.3371],[15.2964,-4.337]],[[15.296,-4.3373],[15.296,-4.3371]],[[15.5781,-4.2113],[15.5782,-4.2111]],[[15.5777,-4.2108],[15.5776,-4.2112]],[[15.292,-4.3476],[15.2956,-4.3388]],[[15.2888,-4.3569],[15.2913,-4.3491]],[[15.2913,-4.3491],[15.2901,-4.3516]],[[15.2913,-4.3491],[15.2914,-4.3489]],[[15.2914,-4.3489],[15.2916,-4.3485]],[[15.2899,-4.3526],[15.2888,-4.3569]],[[15.29,-4.3522],[15.2899,-4.3526]],[[15.3333,-4.3931],[15.3397,-4.3823]],[[15.3396,-4.3823],[15.3351,-4.39]],[[15.3489,-4.3792],[15.3486,-4.3788]],[[15.3485,-4.3789],[15.3488,-4.3792]],[[15.3483,-4.3785],[15.3485,-4.3789]],[[15.3511,-4.3812],[15.3509,-4.381]],[[15.3509,-4.381],[15.3489,-4.3792]],[[15.3509,-4.3812],[15.3511,-4.3813]],[[15.3511,-4.3813],[15.3523,-4.382]],[[15.4007,-4.4004],[15.401,-4.4005]],[[15.5171,-4.3314],[15.5164,-4.3321]],[[15.5196,-4.3295],[15.5172,-4.3314]],[[15.5166,-4.332],[15.5197,-4.3296]],[[15.5162,-4.3324],[15.5166,-4.332]],[[15.3223,-4.1605],[15.3223,-4.1599]],[[15.322,-4.16],[15.3222,-4.1605]],[[15.2952,-4.2197],[15.2941,-4.2244],[15.2942,-4.2261]],[[15.2943,-4.2261],[15.2953,-4.2197]],[[15.2953,-4.2197],[15.299,-4.2056],[15.3008,-4.2034],[15.3088,-4.1968],[15.3099,-4.1955],[15.3108,-4.1938],[15.3114,-4.1912],[15.3114,-4.1836],[15.3142,-4.174],[15.3165,-4.1707],[15.3213,-4.1665]],[[15.3689,-4.0699],[15.3689,-4.0698]],[[15.3689,-4.0698],[15.3688,-4.0697]],[[15.3688,-4.0697],[15.3686,-4.0699]],[[15.3686,-4.0699],[15.3688,-4.07]],[[15.3688,-4.07],[15.3689,-4.0699]],[[15.3673,-4.1062],[15.3685,-4.1044],[15.3688,-4.1016],[15.3668,-4.0897],[15.3651,-4.0834],[15.3676,-4.0787],[15.3679,-4.0727],[15.3688,-4.07]],[[15.3782,-3.992],[15.3763,-3.9943],[15.3709,-3.9952],[15.3645,-3.9984],[15.361,-4.004],[15.3581,-4.0066],[15.3568,-4.009],[15.3559,-4.0186],[15.3574,-4.0223],[15.3612,-4.028],[15.3651,-4.0373],[15.3669,-4.04]],[[15.3673,-4.1062],[15.3652,-4.1088]],[[15.3486,-4.3788],[15.3463,-4.3737]],[[15.3449,-4.3755],[15.3483,-4.3785]],[[15.373,-4.058],[15.3731,-4.0524],[15.3727,-4.0501],[15.3671,-4.0398]],[[15.3669,-4.04],[15.368,-4.0432],[15.3709,-4.0471],[15.3725,-4.0508],[15.3728,-4.058]],[[15.3191,-4.391],[15.3251,-4.3927]],[[15.3149,-4.3902],[15.3151,-4.3901]],[[15.3151,-4.3901],[15.3151,-4.3898]],[[15.2878,-4.3602],[15.2877,-4.3603]],[[15.2888,-4.3569],[15.2879,-4.3598]],[[15.401,-4.4005],[15.4124,-4.4049],[15.4146,-4.4055]],[[15.3937,-4.3976],[15.3917,-4.3969]],[[15.2542,-4.4435],[15.2539,-4.4437]],[[15.2549,-4.443],[15.2542,-4.4435]],[[15.2877,-4.3603],[15.285,-4.369]],[[15.4141,-4.4053],[15.4139,-4.4052]],[[15.4139,-4.4052],[15.4063,-4.4024]],[[15.5034,-4.3582],[15.4927,-4.3668]],[[15.2253,-4.4674],[15.2198,-4.4846],[15.2211,-4.4903]],[[15.2879,-4.3598],[15.2879,-4.3599]],[[15.2917,-4.348],[15.2919,-4.3481]],[[15.2879,-4.3599],[15.2878,-4.3602]],[[15.307,-4.396],[15.3048,-4.3982],[15.2986,-4.4004]],[[15.3074,-4.3955],[15.3071,-4.3959]],[[15.255,-4.4429],[15.257,-4.4393]],[[15.2986,-4.4004],[15.2969,-4.4021]],[[15.2919,-4.3479],[15.2919,-4.3478],[15.2918,-4.3478],[15.2918,-4.3478]],[[15.2919,-4.3481],[15.2919,-4.3479]],[[15.2919,-4.3481],[15.2919,-4.3481]],[[15.3593,-4.3846],[15.3597,-4.3848]],[[15.3839,-4.3939],[15.3835,-4.3937]],[[15.3802,-4.3926],[15.3835,-4.3938]],[[15.2965,-4.3369],[15.296,-4.337]],[[15.296,-4.337],[15.296,-4.337]],[[15.3006,-4.3357],[15.2965,-4.3369]],[[15.2964,-4.337],[15.3006,-4.3358]],[[15.3063,-4.334],[15.3006,-4.3357]],[[15.3006,-4.3358],[15.3063,-4.3341]],[[15.2042,-4.5006],[15.2014,-4.5009],[15.1982,-4.5022],[15.193,-4.5061]],[[15.3564,-4.3834],[15.3527,-4.382]],[[15.3528,-4.3822],[15.3592,-4.3846]],[[15.3669,-4.3876],[15.3734,-4.39]],[[15.3706,-4.3888],[15.3683,-4.388]],[[15.3446,-4.3752],[15.3449,-4.3755]],[[15.3436,-4.3749],[15.3436,-4.375]],[[15.3436,-4.375],[15.3439,-4.375],[15.3439,-4.3748]],[[15.3439,-4.3748],[15.3436,-4.3749]],[[15.5172,-4.3314],[15.5171,-4.3314]],[[15.5741,-4.2512],[15.5686,-4.2729],[15.5545,-4.3008],[15.5509,-4.3049]],[[15.4897,-4.3693],[15.4915,-4.3678]],[[15.4929,-4.3667],[15.5035,-4.3583]],[[15.4766,-4.3797],[15.4878,-4.3708]],[[15.4146,-4.4055],[15.4174,-4.406],[15.4209,-4.4059],[15.4244,-4.4052],[15.4277,-4.4037]],[[15.4184,-4.4059],[15.4152,-4.4056]],[[15.4051,-4.402],[15.401,-4.4004]],[[15.401,-4.4004],[15.4008,-4.4003]],[[15.39,-4.3962],[15.3899,-4.3962]],[[15.4143,-4.4054],[15.4141,-4.4053]],[[15.4063,-4.4024],[15.4059,-4.4023]],[[15.3917,-4.3969],[15.3901,-4.3962]],[[15.3899,-4.3962],[15.3888,-4.3957]],[[15.38,-4.3924],[15.3791,-4.392]],[[15.3683,-4.388],[15.3669,-4.3874]],[[15.3665,-4.3873],[15.3663,-4.3872]],[[15.3755,-4.3907],[15.3755,-4.3907]],[[15.3757,-4.3908],[15.3755,-4.3907]],[[15.3755,-4.3907],[15.3734,-4.3899]],[[15.3734,-4.3899],[15.3706,-4.3888]],[[15.3527,-4.382],[15.3523,-4.3818]],[[15.2408,-4.464],[15.2392,-4.4654],[15.2362,-4.4665],[15.2306,-4.4659],[15.2269,-4.4664]],[[15.3436,-4.3759],[15.3425,-4.3774],[15.3408,-4.3802]],[[15.3344,-4.3913],[15.3333,-4.3931]],[[15.3397,-4.3823],[15.3438,-4.3757]],[[15.3145,-4.3899],[15.3149,-4.3902]],[[15.2189,-4.5014],[15.2179,-4.5029],[15.2163,-4.5035],[15.2042,-4.5006]],[[15.2269,-4.4664],[15.2265,-4.4665]],[[15.2494,-4.4477],[15.2464,-4.4513],[15.2451,-4.4549]],[[15.2539,-4.4437],[15.2538,-4.4438]],[[15.2745,-4.4381],[15.272,-4.438],[15.2688,-4.4397]],[[15.2803,-4.4291],[15.2764,-4.4371],[15.2745,-4.4381]],[[15.3408,-4.3802],[15.3396,-4.3823]],[[15.3351,-4.39],[15.3344,-4.3913]],[[15.3322,-4.394],[15.3333,-4.3931]],[[15.2495,-4.4475],[15.2494,-4.4477]],[[15.2538,-4.4438],[15.2495,-4.4475]],[[15.2901,-4.3516],[15.29,-4.3522]],[[15.3413,-4.3646],[15.3345,-4.3515]],[[15.2827,-4.3788],[15.2826,-4.3791]],[[15.2832,-4.3754],[15.2827,-4.3788]],[[15.285,-4.369],[15.2832,-4.3754]],[[15.3156,-4.3901],[15.3191,-4.391]],[[15.3151,-4.3898],[15.3151,-4.3897]],[[15.3151,-4.3897],[15.315,-4.3896]],[[15.2837,-4.3841],[15.2837,-4.3845]],[[15.2826,-4.3794],[15.2826,-4.381],[15.2837,-4.3841]],[[15.2826,-4.3791],[15.2826,-4.3794]],[[15.2803,-4.392],[15.2789,-4.3962],[15.2776,-4.3974]],[[15.2837,-4.3845],[15.2819,-4.3903],[15.2805,-4.3919]],[[15.2734,-4.4025],[15.2725,-4.4027]],[[15.2757,-4.3989],[15.2734,-4.4025]],[[15.4309,-4.4017],[15.4326,-4.4007]],[[15.4277,-4.4037],[15.4309,-4.4017]],[[15.257,-4.4393],[15.258,-4.436],[15.2578,-4.4279]],[[15.1827,-4.6102],[15.1871,-4.6138]],[[15.1683,-4.5935],[15.1679,-4.5968],[15.1684,-4.5985],[15.1759,-4.6021],[15.1793,-4.6074],[15.1805,-4.6078],[15.1804,-4.6095],[15.1827,-4.6102]],[[15.3594,-4.3845],[15.3564,-4.3834]],[[15.3592,-4.3846],[15.3593,-4.3846]],[[15.3615,-4.3855],[15.3662,-4.3874]],[[15.395,-4.3982],[15.398,-4.3994]],[[15.3984,-4.3994],[15.3981,-4.3993]],[[15.3948,-4.398],[15.3937,-4.3976]],[[15.3984,-4.3995],[15.4007,-4.4004]],[[15.3613,-4.3854],[15.3615,-4.3855]],[[15.3613,-4.3853],[15.3597,-4.3847]],[[15.3597,-4.3848],[15.3613,-4.3854]],[[15.3597,-4.3847],[15.3594,-4.3845]],[[15.3835,-4.3937],[15.3802,-4.3925]],[[15.3835,-4.3938],[15.3838,-4.394]],[[15.3802,-4.3925],[15.38,-4.3924]],[[15.38,-4.3925],[15.3802,-4.3926]],[[15.3981,-4.3993],[15.3951,-4.3981]],[[15.398,-4.3994],[15.3984,-4.3995]],[[15.3951,-4.3981],[15.3948,-4.398]],[[15.3948,-4.3981],[15.395,-4.3982]],[[15.3416,-4.3652],[15.3413,-4.3646]],[[15.344,-4.3699],[15.3416,-4.3652]],[[15.2549,-4.443],[15.255,-4.4429]],[[15.3063,-4.3339],[15.3063,-4.334]],[[15.296,-4.337],[15.2959,-4.337]],[[15.4539,-4.3871],[15.4539,-4.387]],[[15.5047,-4.3571],[15.5034,-4.3582]],[[15.4331,-4.4003],[15.4331,-4.4003]],[[15.4326,-4.4007],[15.4331,-4.4003]],[[15.4331,-4.4003],[15.4539,-4.3871]],[[15.4878,-4.3708],[15.4897,-4.3693]],[[15.5198,-4.3293],[15.5196,-4.3295]],[[15.2211,-4.4903],[15.2215,-4.4937]],[[15.2265,-4.4665],[15.2253,-4.4674]],[[15.2451,-4.4549],[15.245,-4.4555]],[[15.2449,-4.4617],[15.2425,-4.4626],[15.2408,-4.464]],[[15.2688,-4.4397],[15.2664,-4.4409]],[[15.4152,-4.4056],[15.4144,-4.4054],[15.4143,-4.4054]],[[15.4059,-4.4023],[15.4051,-4.402]],[[15.3579,-4.1179],[15.3579,-4.1179]],[[15.3579,-4.1179],[15.3581,-4.1178]],[[15.3581,-4.1178],[15.358,-4.1177]],[[15.358,-4.1177],[15.3579,-4.1178]],[[15.3579,-4.1178],[15.3579,-4.1179]],[[15.3581,-4.1178],[15.3581,-4.1175]],[[15.3576,-4.1181],[15.3579,-4.1179]],[[15.3581,-4.1175],[15.3581,-4.1175]],[[15.3579,-4.1178],[15.3576,-4.1181]],[[15.3669,-4.3874],[15.3665,-4.3873]],[[15.3116,-4.1301],[15.3136,-4.1308],[15.3154,-4.1301]],[[15.373,-4.0582],[15.373,-4.058]],[[15.3689,-4.0698],[15.372,-4.0656],[15.3725,-4.0645],[15.373,-4.0582]],[[15.3728,-4.0582],[15.3723,-4.0647],[15.3688,-4.0697]],[[15.3728,-4.058],[15.3728,-4.0582]],[[15.3652,-4.1088],[15.3622,-4.1128]],[[15.2215,-4.4937],[15.2189,-4.5014]],[[15.2805,-4.3919],[15.2803,-4.392]],[[15.2776,-4.3974],[15.277,-4.3978]],[[15.2725,-4.4027],[15.271,-4.4028]],[[15.2764,-4.3983],[15.2757,-4.3989]],[[15.277,-4.3978],[15.2764,-4.3983]],[[15.5061,-4.3549],[15.4968,-4.3488]]]}},{"type":"Feature","properties":{"kind":"primary"},"geometry":{"type":"MultiLineString","coordinates":[[[15.2744,-4.3208],[15.2731,-4.3217]],[[15.2731,-4.3217],[15.2685,-4.3254],[15.2674,-4.3273]],[[15.2923,-4.3167],[15.2888,-4.3112]],[[15.2743,-4.321],[15.2747,-4.3207]],[[15.2823,-4.3148],[15.2783,-4.3174],[15.2759,-4.3196]],[[15.2759,-4.3196],[15.2751,-4.3202]],[[15.2498,-4.3319],[15.2523,-4.3289]],[[15.2498,-4.3319],[15.2484,-4.3323]],[[15.2536,-4.3716],[15.2514,-4.3671]],[[15.3266,-4.3054],[15.3299,-4.3082],[15.3365,-4.3254]],[[15.2751,-4.3202],[15.2747,-4.3204]],[[15.2742,-4.344],[15.2795,-4.3423]],[[15.2816,-4.3419],[15.2812,-4.3417]],[[15.2812,-4.3417],[15.2738,-4.3441]],[[15.2531,-4.329],[15.2558,-4.3315]],[[15.3564,-4.3834],[15.3534,-4.3819]],[[15.3532,-4.3839],[15.355,-4.385],[15.3576,-4.3847]],[[15.2888,-4.3112],[15.2886,-4.3109]],[[15.3181,-4.3006],[15.3194,-4.2997]],[[15.2864,-4.3453],[15.2833,-4.3425],[15.2816,-4.3419]],[[15.2313,-4.2969],[15.2401,-4.2918]],[[15.2497,-4.2864],[15.2528,-4.2847],[15.2595,-4.2804]],[[15.2401,-4.2917],[15.2312,-4.2967]],[[15.2817,-4.2743],[15.2831,-4.2734]],[[15.2594,-4.2803],[15.2595,-4.2804]],[[15.2595,-4.2804],[15.26,-4.2804]],[[15.26,-4.2804],[15.2601,-4.2802]],[[15.2601,-4.2802],[15.2599,-4.2799]],[[15.2599,-4.2799],[15.2596,-4.2799]],[[15.2596,-4.2799],[15.2594,-4.2803]],[[15.2684,-4.283],[15.2711,-4.2809]],[[15.2711,-4.2809],[15.2716,-4.2807]],[[15.2716,-4.2807],[15.2753,-4.2791],[15.2756,-4.2788],[15.2768,-4.2769],[15.2813,-4.2745]],[[15.2642,-4.2617],[15.2609,-4.2643]],[[15.2711,-4.2809],[15.2715,-4.2809],[15.2716,-4.2807]],[[15.2716,-4.2807],[15.2716,-4.2806]],[[15.2716,-4.2806],[15.2711,-4.2804],[15.2711,-4.2809]],[[15.2711,-4.2809],[15.2711,-4.2809]],[[15.2738,-4.2541],[15.2787,-4.2501]],[[15.2684,-4.2368],[15.2676,-4.2295],[15.2629,-4.2277]],[[15.286,-4.2441],[15.2923,-4.239]],[[15.2923,-4.239],[15.2925,-4.2389]],[[15.2925,-4.2389],[15.2942,-4.2374],[15.295,-4.2359]],[[15.2687,-4.2371],[15.279,-4.2333]],[[15.279,-4.2333],[15.2805,-4.2327]],[[15.2536,-4.3716],[15.2419,-4.3608],[15.2383,-4.3542],[15.2382,-4.3521],[15.2406,-4.3423]],[[15.2995,-4.2485],[15.2926,-4.239]],[[15.2313,-4.2969],[15.2312,-4.2967]],[[15.2312,-4.2967],[15.2309,-4.2969]],[[15.2309,-4.2969],[15.231,-4.297]],[[15.231,-4.297],[15.2313,-4.2969]],[[15.2309,-4.2969],[15.2306,-4.2972]],[[15.2306,-4.2972],[15.231,-4.297]],[[15.2306,-4.2972],[15.2292,-4.2986],[15.2286,-4.3014],[15.2299,-4.3037],[15.2305,-4.3088],[15.2299,-4.3094],[15.2287,-4.3093]],[[15.2287,-4.3093],[15.2279,-4.3089]],[[15.2279,-4.3089],[15.2277,-4.3087]],[[15.2277,-4.3087],[15.2271,-4.3084],[15.2256,-4.3083]],[[15.2256,-4.3083],[15.2277,-4.3087]],[[15.1432,-4.3315],[15.1395,-4.3335],[15.1333,-4.3347],[15.1291,-4.3331],[15.1234,-4.3325],[15.1202,-4.3308],[15.1186,-4.3333],[15.1141,-4.334],[15.1123,-4.3333],[15.1095,-4.3293],[15.1079,-4.3288],[15.1013,-4.332],[15.0993,-4.3351],[15.0959,-4.336],[15.0942,-4.3349],[15.0927,-4.331],[15.0884,-4.3287],[15.0861,-4.3253],[15.0797,-4.3218],[15.0746,-4.3223],[15.0718,-4.3262],[15.0675,-4.3255],[15.0646,-4.3275],[15.0602,-4.328],[15.0561,-4.331],[15.0522,-4.3312],[15.0469,-4.3372],[15.0442,-4.3386],[15.044,-4.3398],[15.0453,-4.3427],[15.044,-4.3448],[15.0422,-4.3455],[15.0377,-4.3451],[15.0347,-4.3463],[15.0336,-4.3477],[15.0333,-4.3518],[15.0303,-4.3567],[15.0274,-4.3588],[15.0212,-4.3611],[15.0199,-4.3655],[15.0205,-4.3708],[15.0185,-4.374],[15.0152,-4.3755],[15.0133,-4.375],[15.0098,-4.3703],[15.0051,-4.3675],[15.0045,-4.364],[15.0019,-4.3628],[14.9919,-4.3628],[14.9792,-4.3651],[14.9741,-4.3685],[14.9707,-4.3673],[14.9636,-4.368],[14.9533,-4.3679],[14.9505,-4.366],[14.9467,-4.3605],[14.9401,-4.3588],[14.9348,-4.3543],[14.9266,-4.3537],[14.9231,-4.3555],[14.9217,-4.3555],[14.9161,-4.3483],[14.9076,-4.3449],[14.8892,-4.3475],[14.8811,-4.3467],[14.8785,-4.3498],[14.8747,-4.3525],[14.8661,-4.3559],[14.8581,-4.3574],[14.8528,-4.3594],[14.8485,-4.3601],[14.8469,-4.361],[14.8454,-4.3632],[14.8435,-4.3631],[14.8404,-4.3615],[14.8331,-4.3615],[14.8281,-4.3639],[14.8223,-4.3693],[14.8142,-4.374],[14.8081,-4.3731],[14.8056,-4.3709],[14.803,-4.3707],[14.792,-4.3676],[14.7888,-4.3691],[14.7882,-4.3737],[14.7857,-4.3762],[14.7824,-4.3773],[14.7799,-4.3757]],[[15.3214,-4.302],[15.3223,-4.3032],[15.324,-4.3039]],[[15.2522,-4.2619],[15.253,-4.2643]],[[15.312,-4.3221],[15.314,-4.3292]],[[15.2812,-4.2743],[15.2767,-4.2769],[15.2753,-4.279],[15.2716,-4.2806]],[[15.2716,-4.2806],[15.2711,-4.2809]],[[15.2711,-4.2809],[15.2684,-4.2828]],[[15.2599,-4.2799],[15.2599,-4.2783],[15.2564,-4.2737],[15.2549,-4.2697]],[[15.2549,-4.2697],[15.2547,-4.2692]],[[15.2547,-4.2692],[15.2523,-4.2619]],[[15.2729,-4.3444],[15.2723,-4.3446]],[[15.2594,-4.2803],[15.2497,-4.2863]],[[15.2548,-4.2697],[15.2548,-4.2697]],[[15.2548,-4.2697],[15.2549,-4.2697]],[[15.2549,-4.2697],[15.255,-4.2694]],[[15.255,-4.2694],[15.2549,-4.2692]],[[15.2549,-4.2692],[15.2548,-4.2692],[15.2547,-4.2692]],[[15.2547,-4.2692],[15.2546,-4.2692]],[[15.2546,-4.2692],[15.2548,-4.2697]],[[15.2886,-4.3109],[15.2905,-4.3097]],[[15.2905,-4.3097],[15.2948,-4.3072],[15.3025,-4.3056],[15.3068,-4.3044]],[[15.3068,-4.3044],[15.316,-4.3018]],[[15.2662,-4.2602],[15.2726,-4.255]],[[15.2672,-4.3277],[15.2662,-4.3294],[15.2641,-4.3312]],[[15.2674,-4.3273],[15.2672,-4.3277]],[[15.2884,-4.3108],[15.2885,-4.3109]],[[15.2885,-4.3109],[15.2885,-4.3109]],[[15.2885,-4.3109],[15.2885,-4.311]],[[15.2484,-4.3323],[15.2488,-4.3326],[15.2498,-4.3319]],[[15.2639,-4.3461],[15.2622,-4.3446],[15.2603,-4.3396]],[[15.2723,-4.3446],[15.2699,-4.3451]],[[15.2874,-4.2254],[15.2874,-4.2253]],[[15.2874,-4.2253],[15.293,-4.2147]],[[15.2957,-4.2097],[15.3004,-4.1995],[15.3007,-4.1974],[15.2993,-4.1939],[15.291,-4.1858],[15.2891,-4.1774],[15.2942,-4.17],[15.2986,-4.1668],[15.3066,-4.1633]],[[15.2832,-4.2734],[15.2832,-4.2733]],[[15.2832,-4.2733],[15.283,-4.2734]],[[15.283,-4.2734],[15.2831,-4.2734]],[[15.2831,-4.2734],[15.2832,-4.2734]],[[15.2966,-4.2658],[15.298,-4.2648],[15.2991,-4.2604],[15.2991,-4.258],[15.2976,-4.2539],[15.2994,-4.2491]],[[15.2832,-4.2734],[15.2878,-4.2708]],[[15.3178,-4.3015],[15.3177,-4.3011]],[[15.316,-4.3016],[15.3068,-4.3042]],[[15.3068,-4.3042],[15.3036,-4.3052]],[[15.3177,-4.3011],[15.3181,-4.3006]],[[15.3175,-4.3007],[15.316,-4.3016]],[[15.3177,-4.3018],[15.3178,-4.3015]],[[15.3177,-4.3011],[15.3175,-4.3007]],[[15.2961,-4.3367],[15.2964,-4.3347]],[[15.3143,-4.3313],[15.3147,-4.3324]],[[15.3143,-4.3311],[15.3142,-4.3298]],[[15.3147,-4.3324],[15.3144,-4.3313]],[[15.2963,-4.3347],[15.2959,-4.337]],[[15.3137,-4.341],[15.3118,-4.3468]],[[15.31,-4.162],[15.31,-4.162]],[[15.31,-4.162],[15.3101,-4.162]],[[15.3101,-4.162],[15.3101,-4.1619]],[[15.3101,-4.1619],[15.31,-4.1619]],[[15.31,-4.1619],[15.31,-4.162]],[[15.3104,-4.1621],[15.3101,-4.1619]],[[15.3124,-4.1625],[15.3128,-4.1622]],[[15.3308,-4.157],[15.3424,-4.1503],[15.3439,-4.1415],[15.3455,-4.14],[15.3494,-4.1383],[15.3538,-4.1339],[15.3603,-4.1224],[15.3604,-4.1205],[15.3583,-4.1181]],[[15.2484,-4.2105],[15.2427,-4.2065],[15.2391,-4.1986],[15.239,-4.1967],[15.2394,-4.1934],[15.2405,-4.1922],[15.2463,-4.1912],[15.248,-4.1918]],[[15.2554,-4.1905],[15.2528,-4.1912]],[[15.2732,-4.219],[15.2874,-4.2254]],[[15.2874,-4.2254],[15.2936,-4.2282]],[[15.31,-4.1619],[15.3098,-4.162]],[[15.255,-4.2694],[15.261,-4.2645]],[[15.2484,-4.192],[15.2488,-4.1933],[15.2531,-4.1927],[15.2529,-4.1916]],[[15.2542,-4.2597],[15.2541,-4.2599]],[[15.2541,-4.2599],[15.2541,-4.26]],[[15.2541,-4.26],[15.2543,-4.2598]],[[15.2543,-4.2598],[15.2542,-4.2597]],[[15.2524,-4.2614],[15.2523,-4.2614]],[[15.2523,-4.2614],[15.2519,-4.2616],[15.2522,-4.2619]],[[15.2522,-4.2619],[15.2523,-4.2619]],[[15.2523,-4.2619],[15.2524,-4.2615]],[[15.2524,-4.2615],[15.2524,-4.2614]],[[15.2664,-4.2487],[15.2616,-4.2521],[15.2559,-4.2577],[15.2542,-4.2597]],[[15.2543,-4.2598],[15.2616,-4.2523],[15.2664,-4.2488]],[[15.2541,-4.2599],[15.2523,-4.2614]],[[15.2524,-4.2615],[15.2541,-4.26]],[[15.2521,-4.3577],[15.2512,-4.3538],[15.2497,-4.3512],[15.251,-4.3493]],[[15.2514,-4.3671],[15.2511,-4.3662]],[[15.2622,-4.2276],[15.2622,-4.2276]],[[15.2622,-4.2276],[15.2625,-4.2278]],[[15.2625,-4.2278],[15.2624,-4.2276]],[[15.2624,-4.2276],[15.2624,-4.2275]],[[15.2624,-4.2275],[15.2622,-4.2276]],[[15.2629,-4.2277],[15.2624,-4.2276]],[[15.2622,-4.2272],[15.2622,-4.2276]],[[15.2624,-4.2275],[15.2623,-4.2273]],[[15.2609,-4.2643],[15.2549,-4.2692]],[[15.253,-4.2643],[15.2546,-4.2692]],[[15.2546,-4.2692],[15.2548,-4.2697]],[[15.2548,-4.2697],[15.2562,-4.2736],[15.2598,-4.2782],[15.2596,-4.2799]],[[15.2727,-4.2549],[15.2736,-4.2542]],[[15.2788,-4.25],[15.286,-4.2442]],[[15.2787,-4.2501],[15.2788,-4.25]],[[15.2688,-4.2467],[15.2683,-4.2374]],[[15.2673,-4.3277],[15.2675,-4.3273]],[[15.2675,-4.3273],[15.2685,-4.3256],[15.2732,-4.3218]],[[15.2732,-4.3218],[15.2743,-4.321]],[[15.2964,-4.3347],[15.2966,-4.3322],[15.2965,-4.3299],[15.2963,-4.3272],[15.2959,-4.3253],[15.2946,-4.3212],[15.2935,-4.3188],[15.2924,-4.3169]],[[15.2924,-4.3169],[15.2923,-4.3167]],[[15.3448,-4.3474],[15.3506,-4.3631],[15.3524,-4.38]],[[15.3143,-4.3311],[15.3143,-4.3312]],[[15.3143,-4.3312],[15.3143,-4.3313]],[[15.3144,-4.3313],[15.3143,-4.3312]],[[15.3143,-4.3311],[15.3143,-4.3311]],[[15.316,-4.3018],[15.3177,-4.3018]],[[15.2886,-4.3109],[15.2886,-4.3109]],[[15.2886,-4.3109],[15.2885,-4.3108]],[[15.2885,-4.3108],[15.2885,-4.3108]],[[15.2885,-4.311],[15.2922,-4.3168]],[[15.3231,-4.1593],[15.3294,-4.1576]],[[15.3303,-4.1574],[15.3304,-4.1573]],[[15.3304,-4.1573],[15.3302,-4.1571]],[[15.3302,-4.1571],[15.3298,-4.1573]],[[15.3298,-4.1573],[15.3299,-4.1575]],[[15.3299,-4.1575],[15.3303,-4.1574]],[[15.3128,-4.1622],[15.321,-4.1597]],[[15.3216,-4.1594],[15.321,-4.1597]],[[15.321,-4.1597],[15.3217,-4.1598]],[[15.3304,-4.1573],[15.3308,-4.157]],[[15.3294,-4.1576],[15.3299,-4.1575]],[[15.3298,-4.1573],[15.3294,-4.1576]],[[15.3308,-4.157],[15.3302,-4.1571]],[[15.3225,-4.1596],[15.3231,-4.1593]],[[15.3231,-4.1593],[15.3224,-4.1592]],[[15.2592,-4.3369],[15.258,-4.335]],[[15.2918,-4.3479],[15.2915,-4.3479]],[[15.2922,-4.3481],[15.292,-4.348]],[[15.2919,-4.3481],[15.2923,-4.3482]],[[15.2911,-4.3478],[15.2917,-4.348]],[[15.2915,-4.3479],[15.2911,-4.3478]],[[15.2726,-4.2549],[15.2661,-4.2602]],[[15.2726,-4.255],[15.2727,-4.2549]],[[15.2727,-4.2548],[15.2726,-4.2549]],[[15.2735,-4.2541],[15.2727,-4.2548]],[[15.295,-4.2359],[15.2963,-4.2343],[15.2962,-4.2336]],[[15.2859,-4.2441],[15.2787,-4.25]],[[15.2961,-4.2337],[15.2962,-4.2343],[15.295,-4.2358]],[[15.2949,-4.2359],[15.2924,-4.2388]],[[15.2924,-4.2388],[15.2923,-4.2389]],[[15.2923,-4.2389],[15.286,-4.2441]],[[15.295,-4.2358],[15.2949,-4.2359]],[[15.295,-4.2359],[15.295,-4.2359]],[[15.2735,-4.2541],[15.2736,-4.2542]],[[15.2736,-4.2542],[15.2738,-4.2541]],[[15.2738,-4.2541],[15.2737,-4.254]],[[15.2737,-4.254],[15.2736,-4.254]],[[15.2736,-4.254],[15.2735,-4.2541]],[[15.2735,-4.2541],[15.2735,-4.2541]],[[15.2787,-4.25],[15.2737,-4.254]],[[15.2787,-4.25],[15.2787,-4.25]],[[15.2735,-4.2539],[15.2735,-4.2541]],[[15.2736,-4.254],[15.2735,-4.2539]],[[15.2668,-4.2484],[15.2665,-4.2486]],[[15.2666,-4.2486],[15.2668,-4.2484]],[[15.2685,-4.2472],[15.2668,-4.2484]],[[15.2482,-4.1917],[15.248,-4.1918]],[[15.2689,-4.247],[15.2688,-4.2469]],[[15.2688,-4.2469],[15.2688,-4.2469]],[[15.2688,-4.2469],[15.2687,-4.2469]],[[15.2687,-4.2469],[15.2688,-4.247]],[[15.2688,-4.247],[15.2688,-4.247]],[[15.2688,-4.247],[15.2689,-4.247]],[[15.2689,-4.247],[15.2689,-4.247]],[[15.2624,-4.2247],[15.2624,-4.2244]],[[15.2683,-4.2371],[15.2684,-4.2371]],[[15.2684,-4.2371],[15.2684,-4.2371]],[[15.2684,-4.2371],[15.2684,-4.2371]],[[15.2684,-4.2371],[15.2684,-4.2371]],[[15.2684,-4.2371],[15.2683,-4.2371]],[[15.2683,-4.2371],[15.2683,-4.2371]],[[15.2688,-4.247],[15.2689,-4.2473]],[[15.2684,-4.2371],[15.2687,-4.2371]],[[15.2689,-4.2473],[15.2689,-4.247]],[[15.2683,-4.2371],[15.2683,-4.2374]],[[15.2688,-4.2469],[15.2688,-4.2467]],[[15.2683,-4.2374],[15.2684,-4.2371]],[[15.2688,-4.2467],[15.2688,-4.2469]],[[15.2735,-4.2539],[15.2694,-4.2491]],[[15.2664,-4.2488],[15.2664,-4.2488]],[[15.2664,-4.2488],[15.2666,-4.2486]],[[15.2666,-4.2486],[15.2665,-4.2486]],[[15.2665,-4.2486],[15.2664,-4.2487]],[[15.2664,-4.2487],[15.2664,-4.2488]],[[15.2687,-4.2469],[15.2685,-4.2472]],[[15.2483,-4.1917],[15.2482,-4.1917]],[[15.2528,-4.1912],[15.2529,-4.1916]],[[15.2684,-4.2371],[15.2684,-4.2368]],[[15.2685,-4.2472],[15.2688,-4.247]],[[15.2623,-4.2246],[15.2623,-4.225]],[[15.2484,-4.192],[15.2483,-4.1918]],[[15.2483,-4.1918],[15.2483,-4.1917]],[[15.2687,-4.2371],[15.2684,-4.2371]],[[15.2623,-4.2249],[15.2623,-4.2247]],[[15.2684,-4.2368],[15.2683,-4.2371]],[[15.2625,-4.2278],[15.2629,-4.2277]],[[15.2529,-4.1916],[15.2555,-4.1909]],[[15.2626,-4.224],[15.2623,-4.2245]],[[15.2624,-4.2244],[15.2626,-4.224]],[[15.2623,-4.2247],[15.2624,-4.2247]],[[15.2623,-4.225],[15.2622,-4.2272]],[[15.2497,-4.2863],[15.2421,-4.2906]],[[15.2421,-4.2906],[15.2401,-4.2917]],[[15.2401,-4.2918],[15.2422,-4.2907]],[[15.2422,-4.2907],[15.2497,-4.2864]],[[15.2684,-4.2828],[15.2622,-4.2819],[15.2601,-4.2802]],[[15.26,-4.2804],[15.2622,-4.282],[15.2684,-4.283]],[[15.2878,-4.2707],[15.2832,-4.2733]],[[15.2879,-4.2707],[15.2966,-4.2658]],[[15.2966,-4.2658],[15.2879,-4.2707]],[[15.2879,-4.2708],[15.2879,-4.2707]],[[15.2879,-4.2707],[15.2879,-4.2707]],[[15.2879,-4.2707],[15.2878,-4.2707]],[[15.2878,-4.2707],[15.2878,-4.2708]],[[15.2878,-4.2708],[15.2879,-4.2708]],[[15.2816,-4.2743],[15.2817,-4.2743]],[[15.2817,-4.2743],[15.2815,-4.2741]],[[15.2815,-4.2741],[15.2812,-4.2743]],[[15.2812,-4.2743],[15.2813,-4.2745]],[[15.2813,-4.2745],[15.2816,-4.2743]],[[15.283,-4.2734],[15.2815,-4.2741]],[[15.2643,-4.2617],[15.2648,-4.2613]],[[15.2648,-4.2613],[15.2662,-4.2602]],[[15.2995,-4.2487],[15.2995,-4.2487]],[[15.2995,-4.2487],[15.2997,-4.2487]],[[15.2997,-4.2487],[15.2996,-4.2485]],[[15.2996,-4.2485],[15.2995,-4.2486]],[[15.2995,-4.2486],[15.2995,-4.2487]],[[15.2995,-4.2485],[15.2995,-4.2486]],[[15.2648,-4.2613],[15.2642,-4.2617]],[[15.2661,-4.2602],[15.2648,-4.2613]],[[15.2996,-4.2485],[15.2995,-4.2485]],[[15.2994,-4.2491],[15.2997,-4.2487]],[[15.2995,-4.2487],[15.2994,-4.2491]],[[15.2911,-4.3478],[15.2904,-4.3476]],[[15.2904,-4.3476],[15.2903,-4.3476]],[[15.2575,-4.3336],[15.2581,-4.3335]],[[15.2581,-4.3335],[15.2619,-4.3331],[15.2661,-4.3297],[15.2673,-4.3277]],[[15.2641,-4.3312],[15.2617,-4.333],[15.2581,-4.3334]],[[15.2581,-4.3334],[15.2575,-4.3335]],[[15.2752,-4.3203],[15.276,-4.3197]],[[15.276,-4.3197],[15.2865,-4.3122]],[[15.2865,-4.3122],[15.2885,-4.311]],[[15.2885,-4.311],[15.2886,-4.3109]],[[15.2885,-4.3108],[15.2884,-4.3108]],[[15.3036,-4.3052],[15.2948,-4.3071],[15.2904,-4.3096]],[[15.2904,-4.3096],[15.2885,-4.3108]],[[15.2537,-4.3717],[15.2558,-4.3739],[15.2591,-4.3802],[15.2599,-4.3841]],[[15.2748,-4.3206],[15.2752,-4.3203]],[[15.2747,-4.3207],[15.2748,-4.3206]],[[15.2746,-4.3206],[15.2744,-4.3208]],[[15.2747,-4.3204],[15.2746,-4.3206]],[[15.3534,-4.3819],[15.353,-4.3815]],[[15.353,-4.3815],[15.3525,-4.3803]],[[15.3576,-4.3847],[15.3592,-4.3846]],[[15.358,-4.118],[15.3583,-4.1181]],[[15.3102,-4.3508],[15.3086,-4.3522],[15.3061,-4.3525],[15.2923,-4.3482]],[[15.3109,-4.3497],[15.3102,-4.3508]],[[15.3106,-4.3505],[15.3109,-4.3497]],[[15.2926,-4.239],[15.2925,-4.2389]],[[15.2925,-4.2389],[15.2924,-4.2388]],[[15.2923,-4.2389],[15.2923,-4.239]],[[15.2923,-4.239],[15.2926,-4.239]],[[15.2484,-4.2106],[15.2484,-4.2105]],[[15.2626,-4.224],[15.2618,-4.2202],[15.2529,-4.2157],[15.2484,-4.2106]],[[15.3104,-4.1621],[15.3124,-4.1625]],[[15.3066,-4.1633],[15.3067,-4.1633]],[[15.3101,-4.162],[15.3104,-4.1621]],[[15.3067,-4.1633],[15.3098,-4.162]],[[15.2575,-4.3336],[15.2575,-4.3335]],[[15.3136,-4.3409],[15.3137,-4.341]],[[15.3137,-4.341],[15.3137,-4.3409]],[[15.3138,-4.3406],[15.3137,-4.3407]],[[15.3138,-4.3407],[15.3138,-4.3406]],[[15.3136,-4.3409],[15.3137,-4.3409]],[[15.3137,-4.3409],[15.3138,-4.3409]],[[15.3147,-4.3324],[15.3147,-4.3364]],[[15.2581,-4.3335],[15.2581,-4.3334]],[[15.3102,-4.3508],[15.3105,-4.3506]],[[15.3264,-4.3053],[15.3266,-4.3054]],[[15.324,-4.3039],[15.3264,-4.3053]],[[15.3524,-4.38],[15.3525,-4.3801]],[[15.2599,-4.3841],[15.2594,-4.3806],[15.256,-4.374],[15.2537,-4.3717]],[[15.2537,-4.3717],[15.2536,-4.3716]],[[15.2563,-4.4052],[15.2603,-4.3906],[15.26,-4.3854]],[[15.253,-4.3289],[15.2531,-4.329]],[[15.2528,-4.3289],[15.2524,-4.3287]],[[15.2523,-4.3289],[15.2525,-4.3288]],[[15.2524,-4.3288],[15.2523,-4.3289]],[[15.2524,-4.3287],[15.2524,-4.3288]],[[15.2528,-4.3289],[15.253,-4.3289]],[[15.2524,-4.3288],[15.2525,-4.3288]],[[15.2525,-4.3288],[15.2528,-4.3289]],[[15.2952,-4.3229],[15.2964,-4.3294],[15.2963,-4.3347]],[[15.2922,-4.3168],[15.2923,-4.3169]],[[15.2936,-4.2281],[15.2874,-4.2253]],[[15.2874,-4.2253],[15.2732,-4.2189]],[[15.248,-4.1918],[15.2483,-4.1918]],[[15.286,-4.2441],[15.2859,-4.2441]],[[15.2859,-4.2441],[15.286,-4.2442]],[[15.286,-4.2442],[15.286,-4.2441]],[[15.286,-4.2441],[15.286,-4.2441]],[[15.3098,-4.162],[15.31,-4.162]],[[15.269,-4.2482],[15.2691,-4.2488],[15.2694,-4.2491]],[[15.269,-4.2482],[15.2689,-4.2473]],[[15.2694,-4.2491],[15.269,-4.2482]],[[15.293,-4.2147],[15.2934,-4.2142]],[[15.294,-4.213],[15.2934,-4.214]],[[15.2934,-4.2141],[15.293,-4.2147]],[[15.2935,-4.2141],[15.294,-4.213]],[[15.2934,-4.214],[15.2934,-4.2141]],[[15.2934,-4.2141],[15.2934,-4.2142]],[[15.2934,-4.2142],[15.2935,-4.2141]],[[15.2935,-4.2141],[15.2934,-4.214]],[[15.2934,-4.214],[15.2934,-4.214]],[[15.294,-4.213],[15.2957,-4.2097]],[[15.2623,-4.2245],[15.2623,-4.2246]],[[15.2623,-4.2273],[15.2623,-4.2249]],[[15.3428,-4.342],[15.3445,-4.3465]],[[15.3366,-4.3256],[15.3393,-4.3327]],[[15.2563,-4.3384],[15.2564,-4.3384]],[[15.2568,-4.3381],[15.2577,-4.3347]],[[15.2923,-4.3482],[15.2922,-4.3481]],[[15.3137,-4.3407],[15.3136,-4.3408]],[[15.251,-4.3658],[15.2491,-4.3632],[15.2525,-4.3618],[15.2522,-4.359]],[[15.2563,-4.4065],[15.2562,-4.4058]],[[15.3147,-4.3364],[15.3138,-4.3406]],[[15.3365,-4.3254],[15.3366,-4.3256]],[[15.258,-4.3339],[15.2581,-4.3335]],[[15.2406,-4.3423],[15.2408,-4.3416]],[[15.242,-4.3364],[15.2428,-4.3352],[15.2484,-4.3323]],[[15.2865,-4.3122],[15.2885,-4.3109]],[[15.2885,-4.3109],[15.2886,-4.3109]],[[15.2886,-4.3109],[15.2905,-4.3097]],[[15.2904,-4.3096],[15.2885,-4.3108]],[[15.2885,-4.3108],[15.2885,-4.3109]],[[15.2885,-4.3109],[15.2865,-4.3121]],[[15.2732,-4.3218],[15.276,-4.3197]],[[15.2759,-4.3196],[15.2731,-4.3217]],[[15.3181,-4.3006],[15.3175,-4.3007]],[[15.296,-4.337],[15.2961,-4.3367]],[[15.3137,-4.3407],[15.3137,-4.3407]],[[15.3138,-4.3408],[15.3138,-4.3407]],[[15.3138,-4.3407],[15.3137,-4.3407],[15.3137,-4.3407]],[[15.3136,-4.3408],[15.3136,-4.3409]],[[15.3138,-4.3409],[15.3138,-4.3408]],[[15.2562,-4.4058],[15.2563,-4.4052]],[[15.2884,-4.3108],[15.2865,-4.3121]],[[15.2865,-4.3121],[15.2823,-4.3148]],[[15.3525,-4.3801],[15.3525,-4.3803]],[[15.258,-4.3341],[15.2575,-4.3336]],[[15.2805,-4.3419],[15.2816,-4.3419]],[[15.2795,-4.3423],[15.2804,-4.342]],[[15.2699,-4.3451],[15.269,-4.3453]],[[15.269,-4.3453],[15.2653,-4.3462]],[[15.2603,-4.3396],[15.2592,-4.3369]],[[15.2865,-4.3454],[15.2864,-4.3453]],[[15.2903,-4.3476],[15.2865,-4.3454]],[[15.2738,-4.3441],[15.2742,-4.344]],[[15.2742,-4.344],[15.2742,-4.344]],[[15.2408,-4.3416],[15.242,-4.3364]],[[15.2521,-4.3482],[15.2521,-4.3481]],[[15.2653,-4.3462],[15.2639,-4.3461]],[[15.2522,-4.359],[15.2522,-4.358]],[[15.251,-4.3493],[15.2521,-4.3482]],[[15.2537,-4.3438],[15.2553,-4.3393],[15.2563,-4.3384]],[[15.2581,-4.3342],[15.258,-4.3341]],[[15.258,-4.335],[15.2581,-4.3342]],[[15.3407,-4.3364],[15.3416,-4.3388]],[[15.3445,-4.3465],[15.3448,-4.3474]],[[15.3427,-4.3418],[15.3428,-4.342]],[[15.3416,-4.3388],[15.3427,-4.3418]],[[15.3393,-4.3327],[15.3398,-4.3343]],[[15.26,-4.3854],[15.2599,-4.3841]],[[15.2522,-4.358],[15.2521,-4.3577]],[[15.3102,-4.3161],[15.312,-4.3221]],[[15.3068,-4.3042],[15.3068,-4.3044]],[[15.3068,-4.3044],[15.3102,-4.3161]],[[15.3105,-4.3506],[15.3106,-4.3505]],[[15.314,-4.3292],[15.3142,-4.3298]],[[15.3143,-4.3312],[15.3143,-4.3311]],[[15.3118,-4.3468],[15.3109,-4.3497]],[[15.2564,-4.3384],[15.2565,-4.3383]],[[15.2565,-4.3383],[15.2568,-4.3381]],[[15.2521,-4.3481],[15.2537,-4.3438]],[[15.2577,-4.3347],[15.258,-4.3341]],[[15.258,-4.3341],[15.258,-4.3339]],[[15.2558,-4.3315],[15.2575,-4.3335]],[[15.2738,-4.3441],[15.2729,-4.3444]],[[15.3398,-4.3343],[15.3407,-4.3364]],[[15.2511,-4.3662],[15.251,-4.3658]],[[15.2923,-4.3169],[15.2952,-4.3229]],[[15.3205,-4.3007],[15.3214,-4.302]],[[15.3194,-4.2997],[15.3205,-4.3007]],[[15.3583,-4.1181],[15.3581,-4.1179]],[[15.2805,-4.3419],[15.2812,-4.3417]],[[15.3525,-4.3803],[15.3532,-4.3839]],[[15.2804,-4.342],[15.2805,-4.3419]],[[15.2256,-4.3083],[15.2208,-4.3073],[15.2164,-4.3078],[15.2102,-4.3099],[15.1979,-4.3097],[15.1922,-4.3112],[15.1877,-4.3108]],[[15.1877,-4.3108],[15.185,-4.3138],[15.1739,-4.3204],[15.1705,-4.3216],[15.1663,-4.3215],[15.162,-4.3222],[15.1515,-4.328],[15.1432,-4.3315]],[[15.261,-4.2644],[15.2643,-4.2617]],[[15.261,-4.2645],[15.261,-4.2644]]]}}]}