{"type":"FeatureCollection","features":[{"type":"Feature","properties":{"code":"JOFI","name":"John Fitzgerald Kennedy National Historic Site","type":"National Historic Sites"},"geometry":{"type":"Point","coordinates":[-71.12323,42.34694]}},{"type":"Feature","properties":{"code":"THRB","name":"Theodore Roosevelt Birthplace National Historic Site","type":"National Historic Sites"},"geometry":{"type":"Point","coordinates":[-73.98904,40.73857]}},{"type":"Feature","properties":{"code":"FEHA","name":"Federal Hall National Memorial","type":"National Memorials"},"geometry":{"type":"Point","coordinates":[-74.01025,40.70732]}},{"type":"Feature","properties":{"code":"AFBG","name":"African Burial Ground National Monument","type":"National Monuments"},"geometry":{"type":"Point","coordinates":[-74.00434,40.71457]}},{"type":"Feature","properties":{"code":"BEPA","name":"Belmont-Paul Women's Equality National Monument","type":"National Monuments"},"geometry":{"type":"Point","coordinates":[-77.00388,38.89234]}},{"type":"Feature","properties":{"code":"MABE","name":"Mary McLeod Bethune Council House National Historic Site","type":"National Historic Sites"},"geometry":{"type":"Point","coordinates":[-77.03109,38.90821]}},{"type":"Feature","properties":{"code":"FOTH","name":"Ford's Theatre National Historic Site","type":"National Historic Sites"},"geometry":{"type":"Point","coordinates":[-77.02561,38.89668]}},{"type":"Feature","properties":{"code":"CAWO","name":"Carter G. Woodson Home National Historic Site","type":"National Historic Sites"},"geometry":{"type":"Point","coordinates":[-77.02419,38.91089]}},{"type":"Feature","properties":{"code":"EDAL","name":"Edgar Allan Poe National Historic Site","type":"National Historic Sites"},"geometry":{"type":"Point","coordinates":[-75.15002,39.96194]}},{"type":"Feature","properties":{"code":"THKO","name":"Thaddeus Kosciuszko National Memorial","type":"National Memorials"},"geometry":{"type":"Point","coordinates":[-75.14732,39.94345]}},{"type":"Feature","properties":{"code":"BICR","name":"Birmingham Civil Rights National Monument","type":"National Monuments"},"geometry":{"type":"Point","coordinates":[-86.81464,33.51544]}},{"type":"Feature","properties":{"code":"BLSC","name":"Blackwell School National Historic Site","type":"National Historic Sites"},"geometry":{"type":"Point","coordinates":[-104.02259,30.30581]}},{"type":"Feature","properties":{"code":"LONG","name":"Longfellow House-Washington's Headquarters National Historic Site","type":"National Historic Sites"},"geometry":{"type":"Point","coordinates":[-71.12635,42.377]}},{"type":"Feature","properties":{"code":"THRI","name":"Theodore Roosevelt Inaugural National Historic Site","type":"National Historic Sites"},"geometry":{"type":"Point","coordinates":[-78.87236,42.90149]}},{"type":"Feature","properties":{"code":"CACL","name":"Castle Clinton National Monument","type":"National Monuments"},"geometry":{"type":"Point","coordinates":[-74.01683,40.7035]}},{"type":"Feature","properties":{"code":"GEGR","name":"General Grant National Memorial","type":"National Memorials"},"geometry":{"type":"Point","coordinates":[-73.96308,40.81345]}},{"type":"Feature","properties":{"code":"KOWA","name":"Korean War Veterans Memorial","type":"National Memorials"},"geometry":{"type":"Point","coordinates":[-77.04808,38.88789]}},{"type":"Feature","properties":{"code":"BRCR","name":"Brices Cross Roads National Battlefield Site","type":"National Battlefield Sites"},"geometry":{"type":"Point","coordinates":[-88.72889,34.50612]}},{"type":"Feature","properties":{"code":"TUPE","name":"Tupelo National Battlefield","type":"National Battlefields"},"geometry":{"type":"Point","coordinates":[-88.73711,34.25561]}},{"type":"Feature","properties":{"code":"FILA","name":"First Ladies National Historic Site","type":"National Historic Sites"},"geometry":{"type":"Point","coordinates":[-81.37597,40.79666]}},{"type":"Feature","properties":{"code":"WICL","name":"President William Jefferson Clinton Birthplace Home National Historic Site","type":"National Historic Sites"},"geometry":{"type":"Point","coordinates":[-93.59633,33.66762]}},{"type":"Feature","properties":{"code":"RRBH","name":"Ronald Reagan Boyhood Home National Historic Site","type":"National Historic Sites"},"geometry":{"type":"Point","coordinates":[-89.48047,41.83625]}},{"type":"Feature","properties":{"code":"WWIM","name":"World War I Memorial","type":"National Memorials"},"geometry":{"type":"Point","coordinates":[-77.03284,38.89591]}},{"type":"Feature","properties":{"code":"MEMY","name":"Medgar and Myrlie Evers Home National Monument","type":"National Monuments"},"geometry":{"type":"Point","coordinates":[-90.21383,32.34082]}},{"type":"Feature","properties":{"code":"SAPA","name":"Saint Paul's Church National Historic Site","type":"National Historic Sites"},"geometry":{"type":"Point","coordinates":[-73.82567,40.8929]}},{"type":"Feature","properties":{"code":"HAGR","name":"Hamilton Grange National Memorial","type":"National Memorials"},"geometry":{"type":"Point","coordinates":[-73.94724,40.82139]}},{"type":"Feature","properties":{"code":"BOAF","name":"Boston African American National Historic Site","type":"National Historic Sites"},"geometry":{"type":"Point","coordinates":[-71.07062,42.35787]}},{"type":"Feature","properties":{"code":"LINC","name":"Lincoln Memorial","type":"National Memorials"},"geometry":{"type":"Point","coordinates":[-77.0502,38.88922]}},{"type":"Feature","properties":{"code":"VIVE","name":"Vietnam Veterans Memorial","type":"National Memorials"},"geometry":{"type":"Point","coordinates":[-77.04744,38.89101]}},{"type":"Feature","properties":{"code":"MAWA","name":"Maggie L. Walker National Historic Site","type":"National Historic Sites"},"geometry":{"type":"Point","coordinates":[-77.43673,37.54734]}},{"type":"Feature","properties":{"code":"BRVB","name":"Brown v. Board of Education National Historical Park","type":"National Historical Parks"},"geometry":{"type":"Point","coordinates":[-95.67573,39.03764]}},{"type":"Feature","properties":{"code":"WIHO","name":"William Howard Taft National Historic Site","type":"National Historic Sites"},"geometry":{"type":"Point","coordinates":[-84.50777,39.11995]}},{"type":"Feature","properties":{"code":"JAZZ","name":"New Orleans Jazz National Historical Park","type":"National Historical Parks"},"geometry":{"type":"Point","coordinates":[-90.0675,29.96317]}},{"type":"Feature","properties":{"code":"MLKM","name":"Martin Luther King, Jr., Memorial","type":"National Memorials"},"geometry":{"type":"Point","coordinates":[-77.04414,38.88633]}},{"type":"Feature","properties":{"code":"SPRA","name":"Springfield 1908 Race Riot National Monument","type":"National Monuments"},"geometry":{"type":"Point","coordinates":[-89.64285,39.80435]}},{"type":"Feature","properties":{"code":"DDEM","name":"Dwight D. Eisenhower Memorial","type":"National Memorials"},"geometry":{"type":"Point","coordinates":[-77.01878,38.88715]}},{"type":"Feature","properties":{"code":"TILL","name":"Emmett Till and Mamie Till-Mobley National Monument","type":"National Monuments"},"geometry":{"type":"Point","coordinates":[-90.27026,33.83145]}},{"type":"Feature","properties":{"code":"SACR","name":"Saint Croix Island International Historic Site","type":"International Historic Sites"},"geometry":{"type":"Point","coordinates":[-67.13358,45.12846]}},{"type":"Feature","properties":{"code":"ROWI","name":"Roger Williams National Memorial","type":"National Memorials"},"geometry":{"type":"Point","coordinates":[-71.41049,41.8297]}},{"type":"Feature","properties":{"code":"CLBA","name":"Clara Barton National Historic Site","type":"National Historic Sites"},"geometry":{"type":"Point","coordinates":[-77.1402,38.96774]}},{"type":"Feature","properties":{"code":"WWII","name":"World War II Memorial","type":"National Memorials"},"geometry":{"type":"Point","coordinates":[-77.04051,38.88898]}},{"type":"Feature","properties":{"code":"FRDE","name":"Franklin Delano Roosevelt Memorial","type":"National Memorials"},"geometry":{"type":"Point","coordinates":[-77.04198,38.88272]}},{"type":"Feature","properties":{"code":"FRDO","name":"Frederick Douglass National Historic Site","type":"National Historic Sites"},"geometry":{"type":"Point","coordinates":[-76.98504,38.86305]}},{"type":"Feature","properties":{"code":"JAGA","name":"James A. Garfield National Historic Site","type":"National Historic Sites"},"geometry":{"type":"Point","coordinates":[-81.35063,41.66553]}},{"type":"Feature","properties":{"code":"LIHO","name":"Lincoln Home National Historic Site","type":"National Historic Sites"},"geometry":{"type":"Point","coordinates":[-89.64514,39.79718]}},{"type":"Feature","properties":{"code":"ULSG","name":"Ulysses S. Grant National Historic Site","type":"National Historic Sites"},"geometry":{"type":"Point","coordinates":[-90.35124,38.55211]}},{"type":"Feature","properties":{"code":"EUON","name":"Eugene O'Neill National Historic Site","type":"National Historic Sites"},"geometry":{"type":"Point","coordinates":[-122.02745,37.82598]}},{"type":"Feature","properties":{"code":"POCH","name":"Port Chicago Naval Magazine National Memorial","type":"National Memorials"},"geometry":{"type":"Point","coordinates":[-122.03067,38.05653]}},{"type":"Feature","properties":{"code":"FOST","name":"Fort Stanwix National Monument","type":"National Monuments"},"geometry":{"type":"Point","coordinates":[-75.45551,43.21068]}},{"type":"Feature","properties":{"code":"FRLA","name":"Frederick Law Olmsted National Historic Site","type":"National Historic Sites"},"geometry":{"type":"Point","coordinates":[-71.13229,42.32474]}},{"type":"Feature","properties":{"code":"PISP","name":"Pipe Spring National Monument","type":"National Monuments"},"geometry":{"type":"Point","coordinates":[-112.73985,36.8628]}},{"type":"Feature","properties":{"code":"LYBA","name":"Lyndon Baines Johnson Memorial Grove on the Potomac","type":"National Memorials"},"geometry":{"type":"Point","coordinates":[-77.05053,38.87758]}},{"type":"Feature","properties":{"code":"JEFM","name":"Thomas Jefferson Memorial","type":"National Memorials"},"geometry":{"type":"Point","coordinates":[-77.03628,38.88115]}},{"type":"Feature","properties":{"code":"WHHO","name":"White House","type":"Other Designations"},"geometry":{"type":"Point","coordinates":[-77.03659,38.89731]}},{"type":"Feature","properties":{"code":"CASA","name":"Castillo de San Marcos National Monument","type":"National Monuments"},"geometry":{"type":"Point","coordinates":[-81.31215,29.89804]}},{"type":"Feature","properties":{"code":"CHPI","name":"Charles Pinckney National Historic Site","type":"National Historic Sites"},"geometry":{"type":"Point","coordinates":[-79.82507,32.84567]}},{"type":"Feature","properties":{"code":"NICO","name":"Nicodemus National Historic Site","type":"National Historic Sites"},"geometry":{"type":"Point","coordinates":[-99.61802,39.39033]}},{"type":"Feature","properties":{"code":"FOSC","name":"Fort Scott National Historic Site","type":"National Historic Sites"},"geometry":{"type":"Point","coordinates":[-94.70447,37.84351]}},{"type":"Feature","properties":{"code":"FRRI","name":"Freedom Riders National Monument","type":"National Monuments"},"geometry":{"type":"Point","coordinates":[-85.90851,33.63438]}},{"type":"Feature","properties":{"code":"SEMO","name":"Selma to Montgomery National Historic Trail","type":"National Trails System"},"geometry":{"type":"Point","coordinates":[-86.72907,32.27097]}},{"type":"Feature","properties":{"code":"SAIR","name":"Saugus Iron Works National Historic Site","type":"National Historic Sites"},"geometry":{"type":"Point","coordinates":[-71.00781,42.46843]}},{"type":"Feature","properties":{"code":"ADAM","name":"Adams National Historical Park","type":"National Historical Parks"},"geometry":{"type":"Point","coordinates":[-71.01196,42.25648]}},{"type":"Feature","properties":{"code":"NEBE","name":"New Bedford Whaling National Historical Park","type":"National Historical Parks"},"geometry":{"type":"Point","coordinates":[-70.92342,41.63606]}},{"type":"Feature","properties":{"code":"FOMC","name":"Fort McHenry National Monument and Historic Shrine","type":"National Monuments"},"geometry":{"type":"Point","coordinates":[-76.58062,39.26418]}},{"type":"Feature","properties":{"code":"CHRI","name":"Christiansted National Historic Site","type":"National Historic Sites"},"geometry":{"type":"Point","coordinates":[-64.73997,17.73406]}},{"type":"Feature","properties":{"code":"ANJO","name":"Andrew Johnson National Historic Site","type":"National Historic Sites"},"geometry":{"type":"Point","coordinates":[-82.83814,36.15534]}},{"type":"Feature","properties":{"code":"HSTR","name":"Harry S Truman National Historic Site","type":"National Historic Sites"},"geometry":{"type":"Point","coordinates":[-94.53088,38.90137]}},{"type":"Feature","properties":{"code":"RIRA","name":"River Raisin National Battlefield Park","type":"National Battlefield Parks"},"geometry":{"type":"Point","coordinates":[-83.37619,41.91299]}},{"type":"Feature","properties":{"code":"GERO","name":"George Rogers Clark National Historical Park","type":"National Historical Parks"},"geometry":{"type":"Point","coordinates":[-87.53534,38.67914]}},{"type":"Feature","properties":{"code":"CHAM","name":"Chamizal National Memorial","type":"National Memorials"},"geometry":{"type":"Point","coordinates":[-106.45431,31.76726]}},{"type":"Feature","properties":{"code":"CHSC","name":"Little Rock Central High School National Historic Site","type":"National Historic Sites"},"geometry":{"type":"Point","coordinates":[-92.30038,34.73683]}},{"type":"Feature","properties":{"code":"STON","name":"Stonewall National Monument","type":"National Monuments"},"geometry":{"type":"Point","coordinates":[-74.0007,40.7338]}},{"type":"Feature","properties":{"code":"SPAR","name":"Springfield Armory National Historic Site","type":"National Historic Sites"},"geometry":{"type":"Point","coordinates":[-72.58108,42.10833]}},{"type":"Feature","properties":{"code":"EDIS","name":"Thomas Edison National Historical Park","type":"National Historical Parks"},"geometry":{"type":"Point","coordinates":[-74.24013,40.78586]}},{"type":"Feature","properties":{"code":"WORI","name":"Women's Rights National Historical Park","type":"National Historical Parks"},"geometry":{"type":"Point","coordinates":[-76.84459,42.90252]}},{"type":"Feature","properties":{"code":"ARHO","name":"Arlington House, The Robert E. Lee Memorial","type":"National Memorials"},"geometry":{"type":"Point","coordinates":[-77.07372,38.88268]}},{"type":"Feature","properties":{"code":"DESO","name":"De Soto National Memorial","type":"National Memorials"},"geometry":{"type":"Point","coordinates":[-82.64388,27.52253]}},{"type":"Feature","properties":{"code":"PEVI","name":"Perry's Victory and International Peace Memorial","type":"National Memorials"},"geometry":{"type":"Point","coordinates":[-82.81199,41.65397]}},{"type":"Feature","properties":{"code":"FOPO","name":"Fort Point National Historic Site","type":"National Historic Sites"},"geometry":{"type":"Point","coordinates":[-122.47253,37.80809]}},{"type":"Feature","properties":{"code":"PUHE","name":"Pu'ukohola Heiau National Historic Site","type":"National Historic Sites"},"geometry":{"type":"Point","coordinates":[-155.82116,20.02773]}},{"type":"Feature","properties":{"code":"HART","name":"Harriet Tubman National Historical Park","type":"National Historical Parks"},"geometry":{"type":"Point","coordinates":[-76.56127,42.91177]}},{"type":"Feature","properties":{"code":"STGE","name":"Ste. Genevieve National Historical Park","type":"National Historical Parks"},"geometry":{"type":"Point","coordinates":[-90.04161,37.9735]}},{"type":"Feature","properties":{"code":"TULE","name":"Tule Lake National Monument","type":"National Monuments"},"geometry":{"type":"Point","coordinates":[-121.37437,41.88654]}},{"type":"Feature","properties":{"code":"GOIS","name":"Governors Island National Monument","type":"National Monuments"},"geometry":{"type":"Point","coordinates":[-74.01645,40.69146]}},{"type":"Feature","properties":{"code":"CIBS","name":"Carlisle Federal Indian Boarding School National Monument","type":"National Monuments"},"geometry":{"type":"Point","coordinates":[-77.17807,40.20835]}},{"type":"Feature","properties":{"code":"FRPE","name":"Frances Perkins National Monument","type":"National Monuments"},"geometry":{"type":"Point","coordinates":[-69.55252,44.00423]}},{"type":"Feature","properties":{"code":"SAMA","name":"Salem Maritime National Historical Park","type":"National Historical Parks"},"geometry":{"type":"Point","coordinates":[-70.88666,42.52056]}},{"type":"Feature","properties":{"code":"COGA","name":"Constitution Gardens","type":"Other Designations"},"geometry":{"type":"Point","coordinates":[-77.04404,38.8909]}},{"type":"Feature","properties":{"code":"MOCR","name":"Moores Creek National Battlefield","type":"National Battlefields"},"geometry":{"type":"Point","coordinates":[-78.11024,34.45819]}},{"type":"Feature","properties":{"code":"TUAI","name":"Tuskegee Airmen National Historic Site","type":"National Historic Sites"},"geometry":{"type":"Point","coordinates":[-85.6798,32.45537]}},{"type":"Feature","properties":{"code":"LECL","name":"Lewis and Clark National Historic Trail","type":"National Trails System"},"geometry":{"type":"Point","coordinates":[-95.83304,40.66362]}},{"type":"Feature","properties":{"code":"PERL","name":"Pearl Harbor National Memorial","type":"National Memorials"},"geometry":{"type":"Point","coordinates":[-157.93862,21.36736]}},{"type":"Feature","properties":{"code":"SAFR","name":"San Francisco Maritime National Historical Park","type":"National Historical Parks"},"geometry":{"type":"Point","coordinates":[-122.42474,37.80949]}},{"type":"Feature","properties":{"code":"CHYO","name":"Charles Young Buffalo Soldiers National Monument","type":"National Monuments"},"geometry":{"type":"Point","coordinates":[-83.89486,39.70767]}},{"type":"Feature","properties":{"code":"WACO","name":"Waco Mammoth National Monument","type":"National Monuments"},"geometry":{"type":"Point","coordinates":[-97.17624,31.60483]}},{"type":"Feature","properties":{"code":"MALU","name":"Martin Luther King, Jr., National Historical Park","type":"National Historical Parks"},"geometry":{"type":"Point","coordinates":[-84.37319,33.75545]}},{"type":"Feature","properties":{"code":"STLI","name":"Statue of Liberty National Monument","type":"National Monuments"},"geometry":{"type":"Point","coordinates":[-74.04112,40.69832]}},{"type":"Feature","properties":{"code":"RABR","name":"Rainbow Bridge National Monument","type":"National Monuments"},"geometry":{"type":"Point","coordinates":[-110.96552,37.07795]}},{"type":"Feature","properties":{"code":"TICA","name":"Timpanogos Cave National Monument","type":"National Monuments"},"geometry":{"type":"Point","coordinates":[-111.7094,40.4404]}},{"type":"Feature","properties":{"code":"THIS","name":"Theodore Roosevelt Island","type":"National Memorials"},"geometry":{"type":"Point","coordinates":[-77.06213,38.89588]}},{"type":"Feature","properties":{"code":"HAMP","name":"Hampton National Historic Site","type":"National Historic Sites"},"geometry":{"type":"Point","coordinates":[-76.58828,39.41653]}},{"type":"Feature","properties":{"code":"TUIN","name":"Tuskegee Institute National Historic Site","type":"National Historic Sites"},"geometry":{"type":"Point","coordinates":[-85.70469,32.42985]}},{"type":"Feature","properties":{"code":"GWCA","name":"George Washington Carver National Monument","type":"National Monuments"},"geometry":{"type":"Point","coordinates":[-94.35552,36.98666]}},{"type":"Feature","properties":{"code":"HUTR","name":"Hubbell Trading Post National Historic Site","type":"National Historic Sites"},"geometry":{"type":"Point","coordinates":[-109.55995,35.7073]}},{"type":"Feature","properties":{"code":"CECH","name":"César E. Chávez National Monument","type":"National Monuments"},"geometry":{"type":"Point","coordinates":[-118.56162,35.2274]}},{"type":"Feature","properties":{"code":"NEPH","name":"New Philadelphia National Historic Site","type":"National Historic Sites"},"geometry":{"type":"Point","coordinates":[-90.95692,39.69644]}},{"type":"Feature","properties":{"code":"WAMO","name":"Washington Monument","type":"National Memorials"},"geometry":{"type":"Point","coordinates":[-77.03585,38.8889]}},{"type":"Feature","properties":{"code":"MALL","name":"National Mall","type":"Other Designations"},"geometry":{"type":"Point","coordinates":[-77.02288,38.88985]}},{"type":"Feature","properties":{"code":"HEHO","name":"Herbert Hoover National Historic Site","type":"National Historic Sites"},"geometry":{"type":"Point","coordinates":[-91.35423,41.66745]}},{"type":"Feature","properties":{"code":"REER","name":"Reconstruction Era National Historical Park","type":"National Historical Parks"},"geometry":{"type":"Point","coordinates":[-80.57835,32.38831]}},{"type":"Feature","properties":{"code":"ELRO","name":"Eleanor Roosevelt National Historic Site","type":"National Historic Sites"},"geometry":{"type":"Point","coordinates":[-73.89725,41.76285]}},{"type":"Feature","properties":{"code":"WEFA","name":"Weir Farm National Historical Park","type":"National Historical Parks"},"geometry":{"type":"Point","coordinates":[-73.45537,41.25728]}},{"type":"Feature","properties":{"code":"YUHO","name":"Yucca House National Monument","type":"National Monuments"},"geometry":{"type":"Point","coordinates":[-108.68266,37.24347]}},{"type":"Feature","properties":{"code":"WOTR","name":"Wolf Trap National Park for the Performing Arts","type":"Other Designations"},"geometry":{"type":"Point","coordinates":[-77.2636,38.93798]}},{"type":"Feature","properties":{"code":"LIBO","name":"Lincoln Boyhood National Memorial","type":"National Memorials"},"geometry":{"type":"Point","coordinates":[-86.99674,38.11693]}},{"type":"Feature","properties":{"code":"MIMI","name":"Minuteman Missile National Historic Site","type":"National Historic Sites"},"geometry":{"type":"Point","coordinates":[-101.90093,43.84445]}},{"type":"Feature","properties":{"code":"WABA","name":"Washita Battlefield National Historic Site","type":"National Historic Sites"},"geometry":{"type":"Point","coordinates":[-99.7045,35.62088]}},{"type":"Feature","properties":{"code":"CABR","name":"Cabrillo National Monument","type":"National Monuments"},"geometry":{"type":"Point","coordinates":[-117.2415,32.67279]}},{"type":"Feature","properties":{"code":"PAGR","name":"Paterson Great Falls National Historical Park","type":"National Historical Parks"},"geometry":{"type":"Point","coordinates":[-74.18039,40.91697]}},{"type":"Feature","properties":{"code":"NEEN","name":"New England National Scenic Trail","type":"National Scenic Trails"},"geometry":{"type":"Point","coordinates":[-72.7161,42.07275]}},{"type":"Feature","properties":{"code":"STEA","name":"Steamtown National Historic Site","type":"National Historic Sites"},"geometry":{"type":"Point","coordinates":[-75.67052,41.40698]}},{"type":"Feature","properties":{"code":"BOST","name":"Boston National Historical Park","type":"National Historical Parks"},"geometry":{"type":"Point","coordinates":[-71.05615,42.37335]}},{"type":"Feature","properties":{"code":"SAHI","name":"Sagamore Hill National Historic Site","type":"National Historic Sites"},"geometry":{"type":"Point","coordinates":[-73.49659,40.88548]}},{"type":"Feature","properties":{"code":"THST","name":"Thomas Stone National Historic Site","type":"National Historic Sites"},"geometry":{"type":"Point","coordinates":[-77.03784,38.52927]}},{"type":"Feature","properties":{"code":"DAAV","name":"Dayton Aviation Heritage National Historical Park","type":"National Historical Parks"},"geometry":{"type":"Point","coordinates":[-84.0645,39.80415]}},{"type":"Feature","properties":{"code":"CARI","name":"Cane River Creole National Historical Park","type":"National Historical Parks"},"geometry":{"type":"Point","coordinates":[-93.0073,31.66445]}},{"type":"Feature","properties":{"code":"CAGR","name":"Casa Grande Ruins National Monument","type":"National Monuments"},"geometry":{"type":"Point","coordinates":[-111.53257,32.997]}},{"type":"Feature","properties":{"code":"WHMI","name":"Whitman Mission National Historic Site","type":"National Historic Sites"},"geometry":{"type":"Point","coordinates":[-118.46247,46.04167]}},{"type":"Feature","properties":{"code":"SITK","name":"Sitka National Historical Park","type":"National Historical Parks"},"geometry":{"type":"Point","coordinates":[-135.31564,57.04696]}},{"type":"Feature","properties":{"code":"FOWA","name":"Fort Washington Park","type":"Other Designations"},"geometry":{"type":"Point","coordinates":[-77.02879,38.71226]}},{"type":"Feature","properties":{"code":"CARL","name":"Carl Sandburg Home National Historic Site","type":"National Historic Sites"},"geometry":{"type":"Point","coordinates":[-82.45039,35.26732]}},{"type":"Feature","properties":{"code":"FOCA","name":"Fort Caroline National Memorial","type":"National Memorials"},"geometry":{"type":"Point","coordinates":[-81.5001,30.38451]}},{"type":"Feature","properties":{"code":"RUCA","name":"Russell Cave National Monument","type":"National Monuments"},"geometry":{"type":"Point","coordinates":[-85.81763,34.97157]}},{"type":"Feature","properties":{"code":"NATC","name":"Natchez National Historical Park","type":"National Historical Parks"},"geometry":{"type":"Point","coordinates":[-91.38236,31.54324]}},{"type":"Feature","properties":{"code":"FOSM","name":"Fort Smith National Historic Site","type":"National Historic Sites"},"geometry":{"type":"Point","coordinates":[-94.4312,35.38818]}},{"type":"Feature","properties":{"code":"HONO","name":"Honouliuli National Historic Site","type":"National Historic Sites"},"geometry":{"type":"Point","coordinates":[-158.05616,21.386]}},{"type":"Feature","properties":{"code":"PIPE","name":"Pipestone National Monument","type":"National Monuments"},"geometry":{"type":"Point","coordinates":[-96.32423,44.01357]}},{"type":"Feature","properties":{"code":"AMME","name":"American Memorial Park","type":"Affiliated Areas"},"geometry":{"type":"Point","coordinates":[145.72334,15.21517]}},{"type":"Feature","properties":{"code":"HOME","name":"Homestead National Historical Park","type":"National Historical Parks"},"geometry":{"type":"Point","coordinates":[-96.8342,40.28789]}},{"type":"Feature","properties":{"code":"VAMA","name":"Vanderbilt Mansion National Historic Site","type":"National Historic Sites"},"geometry":{"type":"Point","coordinates":[-73.94199,41.79587]}},{"type":"Feature","properties":{"code":"BOWA","name":"Booker T. Washington National Monument","type":"National Monuments"},"geometry":{"type":"Point","coordinates":[-79.7329,37.11392]}},{"type":"Feature","properties":{"code":"ANDE","name":"Andersonville National Historic Site","type":"National Historic Sites"},"geometry":{"type":"Point","coordinates":[-84.12988,32.19835]}},{"type":"Feature","properties":{"code":"SAJU","name":"San Juan National Historic Site","type":"National Historic Sites"},"geometry":{"type":"Point","coordinates":[-66.12372,18.47019]}},{"type":"Feature","properties":{"code":"GICL","name":"Gila Cliff Dwellings National Monument","type":"National Monuments"},"geometry":{"type":"Point","coordinates":[-108.27243,33.22686]}},{"type":"Feature","properties":{"code":"AZRU","name":"Aztec Ruins National Monument","type":"National Monuments"},"geometry":{"type":"Point","coordinates":[-107.99995,36.83699]}},{"type":"Feature","properties":{"code":"MANZ","name":"Manzanar National Historic Site","type":"National Historic Sites"},"geometry":{"type":"Point","coordinates":[-118.15475,36.72562]}},{"type":"Feature","properties":{"code":"HATU","name":"Harriet Tubman Underground Railroad National Historical Park","type":"National Historical Parks"},"geometry":{"type":"Point","coordinates":[-76.24841,38.48745]}},{"type":"Feature","properties":{"code":"PULL","name":"Pullman National Historical Park","type":"National Historical Parks"},"geometry":{"type":"Point","coordinates":[-87.60785,41.69055]}},{"type":"Feature","properties":{"code":"ALKA","name":"Ala Kahakai National Historic Trail","type":"National Trails System"},"geometry":{"type":"Point","coordinates":[-155.90479,19.40252]}},{"type":"Feature","properties":{"code":"AMCH","name":"Amache National Historic Site","type":"National Historic Sites"},"geometry":{"type":"Point","coordinates":[-102.32866,38.04809]}},{"type":"Feature","properties":{"code":"JOFL","name":"Johnstown Flood National Memorial","type":"National Memorials"},"geometry":{"type":"Point","coordinates":[-78.77497,40.34636]}},{"type":"Feature","properties":{"code":"INDE","name":"Independence National Historical Park","type":"National Historical Parks"},"geometry":{"type":"Point","coordinates":[-75.1494,39.9517]}},{"type":"Feature","properties":{"code":"GUCO","name":"Guilford Courthouse National Military Park","type":"National Military Parks"},"geometry":{"type":"Point","coordinates":[-79.8417,36.13284]}},{"type":"Feature","properties":{"code":"WRBR","name":"Wright Brothers National Memorial","type":"National Memorials"},"geometry":{"type":"Point","coordinates":[-75.67,36.01592]}},{"type":"Feature","properties":{"code":"IATR","name":"Ice Age National Scenic Trail","type":"National Scenic Trails"},"geometry":{"type":"Point","coordinates":[-89.6177,43.07737]}},{"type":"Feature","properties":{"code":"FODA","name":"Fort Davis National Historic Site","type":"National Historic Sites"},"geometry":{"type":"Point","coordinates":[-103.89404,30.59983]}},{"type":"Feature","properties":{"code":"NAVA","name":"Navajo National Monument","type":"National Monuments"},"geometry":{"type":"Point","coordinates":[-110.53627,36.68551]}},{"type":"Feature","properties":{"code":"JOMU","name":"John Muir National Historic Site","type":"National Historic Sites"},"geometry":{"type":"Point","coordinates":[-122.13408,37.98195]}},{"type":"Feature","properties":{"code":"TUMA","name":"Tumacacori National Historical Park","type":"National Historical Parks"},"geometry":{"type":"Point","coordinates":[-111.04779,31.57301]}},{"type":"Feature","properties":{"code":"CAJO","name":"Captain John Smith Chesapeake National Historic Trail","type":"National Trails System"},"geometry":{"type":"Point","coordinates":[-76.64937,37.4127]}},{"type":"Feature","properties":{"code":"BEOL","name":"Bent's Old Fort National Historic Site","type":"National Historic Sites"},"geometry":{"type":"Point","coordinates":[-103.42668,38.03983]}},{"type":"Feature","properties":{"code":"FOSU","name":"Fort Sumter and Fort Moultrie National Historical Park","type":"National Historical Parks"},"geometry":{"type":"Point","coordinates":[-79.87951,32.75338]}},{"type":"Feature","properties":{"code":"MAVA","name":"Martin Van Buren National Historic Site","type":"National Historic Sites"},"geometry":{"type":"Point","coordinates":[-73.71229,42.36716]}},{"type":"Feature","properties":{"code":"NISI","name":"Ninety Six National Historic Site","type":"National Historic Sites"},"geometry":{"type":"Point","coordinates":[-82.01648,34.14292]}},{"type":"Feature","properties":{"code":"CAVO","name":"Capulin Volcano National Monument","type":"National Monuments"},"geometry":{"type":"Point","coordinates":[-103.97103,36.78162]}},{"type":"Feature","properties":{"code":"FOUN","name":"Fort Union National Monument","type":"National Monuments"},"geometry":{"type":"Point","coordinates":[-105.01202,35.90737]}},{"type":"Feature","properties":{"code":"ELMO","name":"El Morro National Monument","type":"National Monuments"},"geometry":{"type":"Point","coordinates":[-108.34638,35.03897]}},{"type":"Feature","properties":{"code":"DEPO","name":"Devils Postpile National Monument","type":"National Monuments"},"geometry":{"type":"Point","coordinates":[-119.0877,37.6154]}},{"type":"Feature","properties":{"code":"TUZI","name":"Tuzigoot National Monument","type":"National Monuments"},"geometry":{"type":"Point","coordinates":[-112.02786,34.773]}},{"type":"Feature","properties":{"code":"MIIN","name":"Minidoka National Historic Site","type":"National Historic Sites"},"geometry":{"type":"Point","coordinates":[-114.24706,42.6813]}},{"type":"Feature","properties":{"code":"FOVA","name":"Fort Vancouver National Historic Site","type":"National Historic Sites"},"geometry":{"type":"Point","coordinates":[-122.66155,45.62357]}},{"type":"Feature","properties":{"code":"CANE","name":"Camp Nelson National Monument","type":"National Monuments"},"geometry":{"type":"Point","coordinates":[-84.59499,37.79394]}},{"type":"Feature","properties":{"code":"TONT","name":"Tonto National Monument","type":"National Monuments"},"geometry":{"type":"Point","coordinates":[-111.11583,33.64581]}},{"type":"Feature","properties":{"code":"PAAV","name":"Pennsylvania Avenue National Historic Site","type":"National Historic Sites"},"geometry":{"type":"Point","coordinates":[-77.01753,38.89294]}},{"type":"Feature","properties":{"code":"PUHO","name":"Pu'uhonua o Honaunau National Historical Park","type":"National Historical Parks"},"geometry":{"type":"Point","coordinates":[-155.89216,19.40925]}},{"type":"Feature","properties":{"code":"SAGA","name":"Saint-Gaudens National Historical Park","type":"National Historical Parks"},"geometry":{"type":"Point","coordinates":[-72.37399,43.5001]}},{"type":"Feature","properties":{"code":"JECA","name":"Jewel Cave National Monument","type":"National Monuments"},"geometry":{"type":"Point","coordinates":[-103.82963,43.73103]}},{"type":"Feature","properties":{"code":"BIHO","name":"Big Hole National Battlefield","type":"National Battlefields"},"geometry":{"type":"Point","coordinates":[-113.64608,45.64606]}},{"type":"Feature","properties":{"code":"FRHI","name":"Friendship Hill National Historic Site","type":"National Historic Sites"},"geometry":{"type":"Point","coordinates":[-79.92615,39.77534]}},{"type":"Feature","properties":{"code":"FOMA","name":"Fort Matanzas National Monument","type":"National Monuments"},"geometry":{"type":"Point","coordinates":[-81.23855,29.71153]}},{"type":"Feature","properties":{"code":"FOFR","name":"Fort Frederica National Monument","type":"National Monuments"},"geometry":{"type":"Point","coordinates":[-81.39106,31.22461]}},{"type":"Feature","properties":{"code":"COWP","name":"Cowpens National Battlefield","type":"National Battlefields"},"geometry":{"type":"Point","coordinates":[-81.80797,35.13127]}},{"type":"Feature","properties":{"code":"ABLI","name":"Abraham Lincoln Birthplace National Historical Park","type":"National Historical Parks"},"geometry":{"type":"Point","coordinates":[-85.64469,37.61172]}},{"type":"Feature","properties":{"code":"FOLS","name":"Fort Larned National Historic Site","type":"National Historic Sites"},"geometry":{"type":"Point","coordinates":[-99.217,38.18445]}},{"type":"Feature","properties":{"code":"ALFL","name":"Alibates Flint Quarries National Monument","type":"National Monuments"},"geometry":{"type":"Point","coordinates":[-101.66782,35.5859]}},{"type":"Feature","properties":{"code":"KAHO","name":"Kaloko-Honokohau National Historical Park","type":"National Historical Parks"},"geometry":{"type":"Point","coordinates":[-156.03052,19.68087]}},{"type":"Feature","properties":{"code":"DETO","name":"Devils Tower National Monument","type":"National Monuments"},"geometry":{"type":"Point","coordinates":[-104.71565,44.59167]}},{"type":"Feature","properties":{"code":"FOLA","name":"Fort Laramie National Historic Site","type":"National Historic Sites"},"geometry":{"type":"Point","coordinates":[-104.54628,42.20366]}},{"type":"Feature","properties":{"code":"EISE","name":"Eisenhower National Historic Site","type":"National Historic Sites"},"geometry":{"type":"Point","coordinates":[-77.26391,39.79526]}},{"type":"Feature","properties":{"code":"HOFU","name":"Hopewell Furnace National Historic Site","type":"National Historic Sites"},"geometry":{"type":"Point","coordinates":[-75.76837,40.20814]}},{"type":"Feature","properties":{"code":"SARI","name":"Salt River Bay National Historical Park and Ecological Preserve","type":"National Historical Parks"},"geometry":{"type":"Point","coordinates":[-64.75513,17.78118]}},{"type":"Feature","properties":{"code":"HOBE","name":"Horseshoe Bend National Military Park","type":"National Military Parks"},"geometry":{"type":"Point","coordinates":[-85.73523,32.97779]}},{"type":"Feature","properties":{"code":"JICA","name":"Jimmy Carter National Historical Park","type":"National Historical Parks"},"geometry":{"type":"Point","coordinates":[-84.41628,32.03116]}},{"type":"Feature","properties":{"code":"ARPO","name":"Arkansas Post National Memorial","type":"National Memorials"},"geometry":{"type":"Point","coordinates":[-91.34829,34.02098]}},{"type":"Feature","properties":{"code":"MUWO","name":"Muir Woods National Monument","type":"National Monuments"},"geometry":{"type":"Point","coordinates":[-122.57884,37.89706]}},{"type":"Feature","properties":{"code":"MOCA","name":"Montezuma Castle National Monument","type":"National Monuments"},"geometry":{"type":"Point","coordinates":[-111.83623,34.61124]}},{"type":"Feature","properties":{"code":"NOCO","name":"North Country National Scenic Trail","type":"National Scenic Trails"},"geometry":{"type":"Point","coordinates":[-91.80813,46.39339]}},{"type":"Feature","properties":{"code":"MAPR","name":"Manhattan Project National Historical Park","type":"National Historical Parks"},"geometry":{"type":"Point","coordinates":[-84.39339,35.93611]}},{"type":"Feature","properties":{"code":"FOBO","name":"Fort Bowie National Historic Site","type":"National Historic Sites"},"geometry":{"type":"Point","coordinates":[-109.44522,32.14728]}},{"type":"Feature","properties":{"code":"GEWA","name":"George Washington Birthplace National Monument","type":"National Monuments"},"geometry":{"type":"Point","coordinates":[-76.92088,38.19365]}},{"type":"Feature","properties":{"code":"MABI","name":"Marsh-Billings-Rockefeller National Historical Park","type":"National Historical Parks"},"geometry":{"type":"Point","coordinates":[-72.53922,43.63352]}},{"type":"Feature","properties":{"code":"LIBI","name":"Little Bighorn Battlefield National Monument","type":"National Monuments"},"geometry":{"type":"Point","coordinates":[-107.42846,45.56533]}},{"type":"Feature","properties":{"code":"MORU","name":"Mount Rushmore National Memorial","type":"National Memorials"},"geometry":{"type":"Point","coordinates":[-103.45298,43.87794]}},{"type":"Feature","properties":{"code":"FONE","name":"Fort Necessity National Battlefield","type":"National Battlefields"},"geometry":{"type":"Point","coordinates":[-79.58933,39.8108]}},{"type":"Feature","properties":{"code":"FORA","name":"Fort Raleigh National Historic Site","type":"National Historic Sites"},"geometry":{"type":"Point","coordinates":[-75.7174,35.93469]}},{"type":"Feature","properties":{"code":"POPO","name":"Poverty Point National Monument","type":"National Monuments"},"geometry":{"type":"Point","coordinates":[-91.40883,32.63489]}},{"type":"Feature","properties":{"code":"PAAL","name":"Palo Alto Battlefield National Historical Park","type":"National Historical Parks"},"geometry":{"type":"Point","coordinates":[-97.46266,26.02477]}},{"type":"Feature","properties":{"code":"RORI","name":"Rosie the Riveter/World War II Home Front National Historical Park","type":"National Historical Parks"},"geometry":{"type":"Point","coordinates":[-122.35824,37.91241]}},{"type":"Feature","properties":{"code":"PIMA","name":"Hohokam Pima National Monument","type":"National Monuments"},"geometry":{"type":"Point","coordinates":[-111.91942,33.18719]}},{"type":"Feature","properties":{"code":"BLRV","name":"Blackstone River Valley National Historical Park","type":"National Historical Parks"},"geometry":{"type":"Point","coordinates":[-71.43961,41.94143]}},{"type":"Feature","properties":{"code":"FLNI","name":"Flight 93 National Memorial","type":"National Memorials"},"geometry":{"type":"Point","coordinates":[-78.89672,40.05611]}},{"type":"Feature","properties":{"code":"HOFR","name":"Home of Franklin D. Roosevelt National Historic Site","type":"National Historic Sites"},"geometry":{"type":"Point","coordinates":[-73.92747,41.76752]}},{"type":"Feature","properties":{"code":"HOVE","name":"Hovenweep National Monument","type":"National Monuments"},"geometry":{"type":"Point","coordinates":[-109.06971,37.3846]}},{"type":"Feature","properties":{"code":"GRKO","name":"Grant-Kohrs Ranch National Historic Site","type":"National Historic Sites"},"geometry":{"type":"Point","coordinates":[-112.74467,46.4137]}},{"type":"Feature","properties":{"code":"GREE","name":"Greenbelt Park","type":"Other Designations"},"geometry":{"type":"Point","coordinates":[-76.90033,38.98251]}},{"type":"Feature","properties":{"code":"KIMO","name":"Kings Mountain National Military Park","type":"National Military Parks"},"geometry":{"type":"Point","coordinates":[-81.38983,35.13906]}},{"type":"Feature","properties":{"code":"SUCR","name":"Sunset Crater Volcano National Monument","type":"National Monuments"},"geometry":{"type":"Point","coordinates":[-111.5113,35.37097]}},{"type":"Feature","properties":{"code":"CORO","name":"Coronado National Memorial","type":"National Memorials"},"geometry":{"type":"Point","coordinates":[-110.25408,31.34853]}},{"type":"Feature","properties":{"code":"FRST","name":"First State National Historical Park","type":"National Historical Parks"},"geometry":{"type":"Point","coordinates":[-75.56459,39.83192]}},{"type":"Feature","properties":{"code":"WICR","name":"Wilson's Creek National Battlefield","type":"National Battlefields"},"geometry":{"type":"Point","coordinates":[-93.4095,37.09899]}},{"type":"Feature","properties":{"code":"FOMR","name":"Fort Monroe National Monument","type":"National Monuments"},"geometry":{"type":"Point","coordinates":[-76.3051,37.00475]}},{"type":"Feature","properties":{"code":"SAPU","name":"Salinas Pueblo Missions National Monument","type":"National Monuments"},"geometry":{"type":"Point","coordinates":[-106.0898,34.25941]}},{"type":"Feature","properties":{"code":"KNRI","name":"Knife River Indian Villages National Historic Site","type":"National Historic Sites"},"geometry":{"type":"Point","coordinates":[-101.38997,47.362]}},{"type":"Feature","properties":{"code":"CEBR","name":"Cedar Breaks National Monument","type":"National Monuments"},"geometry":{"type":"Point","coordinates":[-112.84518,37.63542]}},{"type":"Feature","properties":{"code":"FOUS","name":"Fort Union Trading Post National Historic Site","type":"National Historic Sites"},"geometry":{"type":"Point","coordinates":[-104.03514,47.99839]}},{"type":"Feature","properties":{"code":"ROCR","name":"Rock Creek Park","type":"Other Designations"},"geometry":{"type":"Point","coordinates":[-77.04576,38.96466]}},{"type":"Feature","properties":{"code":"MONO","name":"Monocacy National Battlefield","type":"National Battlefields"},"geometry":{"type":"Point","coordinates":[-77.39809,39.36126]}},{"type":"Feature","properties":{"code":"APCO","name":"Appomattox Court House National Historical Park","type":"National Historical Parks"},"geometry":{"type":"Point","coordinates":[-78.78462,37.38343]}},{"type":"Feature","properties":{"code":"STRI","name":"Stones River National Battlefield","type":"National Battlefields"},"geometry":{"type":"Point","coordinates":[-86.43409,35.87322]}},{"type":"Feature","properties":{"code":"SCBL","name":"Scotts Bluff National Monument","type":"National Monuments"},"geometry":{"type":"Point","coordinates":[-103.70733,41.83478]}},{"type":"Feature","properties":{"code":"ORCA","name":"Oregon Caves National Monument and Preserve","type":"National Monuments"},"geometry":{"type":"Point","coordinates":[-123.40372,42.10517]}},{"type":"Feature","properties":{"code":"MISP","name":"Mill Springs Battlefield National Monument","type":"National Monuments"},"geometry":{"type":"Point","coordinates":[-84.73771,37.05689]}},{"type":"Feature","properties":{"code":"LOWE","name":"Lowell National Historical Park","type":"National Historical Parks"},"geometry":{"type":"Point","coordinates":[-71.31143,42.64638]}},{"type":"Feature","properties":{"code":"LYJO","name":"Lyndon B. Johnson National Historical Park","type":"National Historical Parks"},"geometry":{"type":"Point","coordinates":[-98.6236,30.25004]}},{"type":"Feature","properties":{"code":"VAFO","name":"Valley Forge National Historical Park","type":"National Historical Parks"},"geometry":{"type":"Point","coordinates":[-75.45022,40.09657]}},{"type":"Feature","properties":{"code":"FLFO","name":"Florissant Fossil Beds National Monument","type":"National Monuments"},"geometry":{"type":"Point","coordinates":[-105.28186,38.91439]}},{"type":"Feature","properties":{"code":"MIMA","name":"Minute Man National Historical Park","type":"National Historical Parks"},"geometry":{"type":"Point","coordinates":[-71.31535,42.45815]}},{"type":"Feature","properties":{"code":"MORR","name":"Morristown National Historical Park","type":"National Historical Parks"},"geometry":{"type":"Point","coordinates":[-74.53501,40.76728]}},{"type":"Feature","properties":{"code":"ANTI","name":"Antietam National Battlefield","type":"National Battlefields"},"geometry":{"type":"Point","coordinates":[-77.73584,39.47077]}},{"type":"Feature","properties":{"code":"BUIS","name":"Buck Island Reef National Monument","type":"National Monuments"},"geometry":{"type":"Point","coordinates":[-64.62223,17.81023]}},{"type":"Feature","properties":{"code":"OCMU","name":"Ocmulgee Mounds National Historical Park","type":"National Historical Parks"},"geometry":{"type":"Point","coordinates":[-83.58785,32.82591]}},{"type":"Feature","properties":{"code":"KEWE","name":"Keweenaw National Historical Park","type":"National Historical Parks"},"geometry":{"type":"Point","coordinates":[-88.57122,47.13639]}},{"type":"Feature","properties":{"code":"AGFO","name":"Agate Fossil Beds National Monument","type":"National Monuments"},"geometry":{"type":"Point","coordinates":[-103.73517,42.42248]}},{"type":"Feature","properties":{"code":"PERI","name":"Pea Ridge National Military Park","type":"National Military Parks"},"geometry":{"type":"Point","coordinates":[-94.03389,36.45516]}},{"type":"Feature","properties":{"code":"WACA","name":"Walnut Canyon National Monument","type":"National Monuments"},"geometry":{"type":"Point","coordinates":[-111.51112,35.1674]}},{"type":"Feature","properties":{"code":"CHIR","name":"Chiricahua National Monument","type":"National Monuments"},"geometry":{"type":"Point","coordinates":[-109.34163,32.01215]}},{"type":"Feature","properties":{"code":"EFMO","name":"Effigy Mounds National Monument","type":"National Monuments"},"geometry":{"type":"Point","coordinates":[-91.20945,43.0949]}},{"type":"Feature","properties":{"code":"SARA","name":"Saratoga National Historical Park","type":"National Historical Parks"},"geometry":{"type":"Point","coordinates":[-73.63141,42.99518]}},{"type":"Feature","properties":{"code":"FOBU","name":"Fossil Butte National Monument","type":"National Monuments"},"geometry":{"type":"Point","coordinates":[-110.76144,41.85111]}},{"type":"Feature","properties":{"code":"PISC","name":"Piscataway Park","type":"Other Designations"},"geometry":{"type":"Point","coordinates":[-77.05774,38.68428]}},{"type":"Feature","properties":{"code":"FODO","name":"Fort Donelson National Battlefield","type":"National Battlefields"},"geometry":{"type":"Point","coordinates":[-87.8582,36.48683]}},{"type":"Feature","properties":{"code":"GRPO","name":"Grand Portage National Monument","type":"National Monuments"},"geometry":{"type":"Point","coordinates":[-89.82632,48.00122]}},{"type":"Feature","properties":{"code":"HOCU","name":"Hopewell Culture National Historical Park","type":"National Historical Parks"},"geometry":{"type":"Point","coordinates":[-83.13521,39.27944]}},{"type":"Feature","properties":{"code":"PECO","name":"Pecos National Historical Park","type":"National Historical Parks"},"geometry":{"type":"Point","coordinates":[-105.67073,35.52905]}},{"type":"Feature","properties":{"code":"SAJH","name":"San Juan Island National Historical Park","type":"National Historical Parks"},"geometry":{"type":"Point","coordinates":[-123.00743,48.46308]}},{"type":"Feature","properties":{"code":"HAFO","name":"Hagerman Fossil Beds National Monument","type":"National Monuments"},"geometry":{"type":"Point","coordinates":[-114.95331,42.77558]}},{"type":"Feature","properties":{"code":"WAPA","name":"War in the Pacific National Historical Park","type":"National Historical Parks"},"geometry":{"type":"Point","coordinates":[144.65528,13.38986]}},{"type":"Feature","properties":{"code":"SAND","name":"Sand Creek Massacre National Historic Site","type":"National Historic Sites"},"geometry":{"type":"Point","coordinates":[-102.50559,38.55896]}},{"type":"Feature","properties":{"code":"CIRO","name":"City of Rocks National Reserve","type":"National Reserves"},"geometry":{"type":"Point","coordinates":[-113.71502,42.07081]}},{"type":"Feature","properties":{"code":"FOPU","name":"Fort Pulaski National Monument","type":"National Monuments"},"geometry":{"type":"Point","coordinates":[-80.93052,32.02401]}},{"type":"Feature","properties":{"code":"KEMO","name":"Kennesaw Mountain National Battlefield Park","type":"National Battlefield Parks"},"geometry":{"type":"Point","coordinates":[-84.59043,33.97113]}},{"type":"Feature","properties":{"code":"NABR","name":"Natural Bridges National Monument","type":"National Monuments"},"geometry":{"type":"Point","coordinates":[-110.00324,37.60577]}},{"type":"Feature","properties":{"code":"JODR","name":"John D. Rockefeller, Jr., Memorial Parkway","type":"Parkways"},"geometry":{"type":"Point","coordinates":[-110.72804,44.08872]}},{"type":"Feature","properties":{"code":"CATO","name":"Catoctin Mountain Park","type":"Other Designations"},"geometry":{"type":"Point","coordinates":[-77.46345,39.64826]}},{"type":"Feature","properties":{"code":"ALPO","name":"Allegheny Portage Railroad National Historic Site","type":"National Historic Sites"},"geometry":{"type":"Point","coordinates":[-78.46038,40.41125]}},{"type":"Feature","properties":{"code":"TAPR","name":"Tallgrass Prairie National Preserve","type":"National Preserves"},"geometry":{"type":"Point","coordinates":[-96.57674,38.44038]}},{"type":"Feature","properties":{"code":"KALA","name":"Kalaupapa National Historical Park","type":"National Historical Parks"},"geometry":{"type":"Point","coordinates":[-156.96619,21.1918]}},{"type":"Feature","properties":{"code":"CEBE","name":"Cedar Creek and Belle Grove National Historical Park","type":"National Historical Parks"},"geometry":{"type":"Point","coordinates":[-78.29891,39.02259]}},{"type":"Feature","properties":{"code":"PRWI","name":"Prince William Forest Park","type":"Other Designations"},"geometry":{"type":"Point","coordinates":[-77.3872,38.58659]}},{"type":"Feature","properties":{"code":"BLUE","name":"Bluestone National Scenic River","type":"National Wild & Scenic Rivers"},"geometry":{"type":"Point","coordinates":[-81.00026,37.55032]}},{"type":"Feature","properties":{"code":"MANA","name":"Manassas National Battlefield Park","type":"National Battlefield Parks"},"geometry":{"type":"Point","coordinates":[-77.52493,38.82365]}},{"type":"Feature","properties":{"code":"VICK","name":"Vicksburg National Military Park","type":"National Military Parks"},"geometry":{"type":"Point","coordinates":[-90.84388,32.3732]}},{"type":"Feature","properties":{"code":"GOSP","name":"Golden Spike National Historical Park","type":"National Historical Parks"},"geometry":{"type":"Point","coordinates":[-112.49158,41.6332]}},{"type":"Feature","properties":{"code":"VICR","name":"Virgin Islands Coral Reef National Monument","type":"National Monuments"},"geometry":{"type":"Point","coordinates":[-64.70935,18.27535]}},{"type":"Feature","properties":{"code":"PETR","name":"Petroglyph National Monument","type":"National Monuments"},"geometry":{"type":"Point","coordinates":[-106.75219,35.12912]}},{"type":"Feature","properties":{"code":"EBLA","name":"Ebey's Landing National Historical Reserve","type":"National Reserves"},"geometry":{"type":"Point","coordinates":[-122.67961,48.21248]}},{"type":"Feature","properties":{"code":"LEWI","name":"Lewis and Clark National Historical Park","type":"National Historical Parks"},"geometry":{"type":"Point","coordinates":[-124.06777,46.28632]}},{"type":"Feature","properties":{"code":"SAAN","name":"San Antonio Missions National Historical Park","type":"National Historical Parks"},"geometry":{"type":"Point","coordinates":[-98.45373,29.33134]}},{"type":"Feature","properties":{"code":"COLM","name":"Colorado National Monument","type":"National Monuments"},"geometry":{"type":"Point","coordinates":[-108.69189,39.05048]}},{"type":"Feature","properties":{"code":"GETT","name":"Gettysburg National Military Park","type":"National Military Parks"},"geometry":{"type":"Point","coordinates":[-77.24318,39.80621]}},{"type":"Feature","properties":{"code":"SHIL","name":"Shiloh National Military Park","type":"National Military Parks"},"geometry":{"type":"Point","coordinates":[-88.34006,35.13576]}},{"type":"Feature","properties":{"code":"CUIS","name":"Cumberland Island National Seashore","type":"National Seashores"},"geometry":{"type":"Point","coordinates":[-81.45098,30.86968]}},{"type":"Feature","properties":{"code":"BAND","name":"Bandelier National Monument","type":"National Monuments"},"geometry":{"type":"Point","coordinates":[-106.3139,35.76697]}},{"type":"Feature","properties":{"code":"WUPA","name":"Wupatki National Monument","type":"National Monuments"},"geometry":{"type":"Point","coordinates":[-111.35099,35.55427]}},{"type":"Feature","properties":{"code":"CHIC","name":"Chickasaw National Recreation Area","type":"National Recreation Areas"},"geometry":{"type":"Point","coordinates":[-97.01027,34.44815]}},{"type":"Feature","properties":{"code":"LABE","name":"Lava Beds National Monument","type":"National Monuments"},"geometry":{"type":"Point","coordinates":[-121.51627,41.75816]}},{"type":"Feature","properties":{"code":"WHIS","name":"Whiskeytown-Shasta-Trinity National Recreation Area","type":"National Recreation Areas"},"geometry":{"type":"Point","coordinates":[-122.60228,40.61357]}},{"type":"Feature","properties":{"code":"NEPE","name":"Nez Perce National Historical Park","type":"National Historical Parks"},"geometry":{"type":"Point","coordinates":[-116.27708,45.79375]}},{"type":"Feature","properties":{"code":"BOHA","name":"Boston Harbor Islands National Recreation Area","type":"National Recreation Areas"},"geometry":{"type":"Point","coordinates":[-70.96562,42.32086]}},{"type":"Feature","properties":{"code":"GRSA","name":"Great Sand Dunes National Preserve","type":"National Preserves"},"geometry":{"type":"Point","coordinates":[-105.5115,37.86183]}},{"type":"Feature","properties":{"code":"CANA","name":"Canaveral National Seashore","type":"National Seashores"},"geometry":{"type":"Point","coordinates":[-80.78066,28.81561]}},{"type":"Feature","properties":{"code":"CHCU","name":"Chaco Culture National Historical Park","type":"National Historical Parks"},"geometry":{"type":"Point","coordinates":[-107.94633,36.04915]}},{"type":"Feature","properties":{"code":"JODA","name":"John Day Fossil Beds National Monument","type":"National Monuments"},"geometry":{"type":"Point","coordinates":[-119.63433,44.5431]}},{"type":"Feature","properties":{"code":"CAMO","name":"Castle Mountains National Monument","type":"National Monuments"},"geometry":{"type":"Point","coordinates":[-115.07116,35.32107]}},{"type":"Feature","properties":{"code":"VALL","name":"Valles Caldera National Preserve","type":"National Preserves"},"geometry":{"type":"Point","coordinates":[-106.51968,35.91678]}},{"type":"Feature","properties":{"code":"HAFE","name":"Harpers Ferry National Historical Park","type":"National Historical Parks"},"geometry":{"type":"Point","coordinates":[-77.74344,39.31202]}},{"type":"Feature","properties":{"code":"FIIS","name":"Fire Island National Seashore","type":"National Seashores"},"geometry":{"type":"Point","coordinates":[-73.18985,40.6477]}},{"type":"Feature","properties":{"code":"GARI","name":"Gauley River National Recreation Area","type":"National Recreation Areas"},"geometry":{"type":"Point","coordinates":[-81.07157,38.1969]}},{"type":"Feature","properties":{"code":"LIRI","name":"Little River Canyon National Preserve","type":"National Preserves"},"geometry":{"type":"Point","coordinates":[-85.59916,34.42592]}},{"type":"Feature","properties":{"code":"CRMO","name":"Craters of the Moon National Monument","type":"National Monuments"},"geometry":{"type":"Point","coordinates":[-113.52124,43.41751]}},{"type":"Feature","properties":{"code":"LACH","name":"Lake Chelan National Recreation Area","type":"National Recreation Areas"},"geometry":{"type":"Point","coordinates":[-120.68756,48.36573]}},{"type":"Feature","properties":{"code":"TUSK","name":"Tule Springs Fossil Beds National Monument","type":"National Monuments"},"geometry":{"type":"Point","coordinates":[-115.34544,36.40547]}},{"type":"Feature","properties":{"code":"GATE","name":"Gateway National Recreation Area","type":"National Recreation Areas"},"geometry":{"type":"Point","coordinates":[-73.86142,40.61254]}},{"type":"Feature","properties":{"code":"ASIS","name":"Assateague Island National Seashore","type":"National Seashores"},"geometry":{"type":"Point","coordinates":[-75.24367,38.05316]}},{"type":"Feature","properties":{"code":"RICH","name":"Richmond National Battlefield Park","type":"National Battlefield Parks"},"geometry":{"type":"Point","coordinates":[-77.28331,37.5724]}},{"type":"Feature","properties":{"code":"CUGA","name":"Cumberland Gap National Historical Park","type":"National Historical Parks"},"geometry":{"type":"Point","coordinates":[-83.63908,36.62467]}},{"type":"Feature","properties":{"code":"JELA","name":"Jean Lafitte National Historical Park and Preserve","type":"National Historical Parks"},"geometry":{"type":"Point","coordinates":[-90.13728,29.80207]}},{"type":"Feature","properties":{"code":"GLBA","name":"Glacier Bay National Preserve","type":"National Preserves"},"geometry":{"type":"Point","coordinates":[-138.35149,59.13136]}},{"type":"Feature","properties":{"code":"KLGO","name":"Klondike Gold Rush National Historical Park","type":"National Historical Parks"},"geometry":{"type":"Point","coordinates":[-135.25699,59.67617]}},{"type":"Feature","properties":{"code":"LOSA","name":"Lower Saint Croix National Scenic Riverway","type":"National Wild & Scenic Rivers"},"geometry":{"type":"Point","coordinates":[-92.75504,45.23665]}},{"type":"Feature","properties":{"code":"CHCH","name":"Chickamauga and Chattanooga National Military Park","type":"National Military Parks"},"geometry":{"type":"Point","coordinates":[-85.36829,34.98979]}},{"type":"Feature","properties":{"code":"COLO","name":"Colonial National Historical Park","type":"National Historical Parks"},"geometry":{"type":"Point","coordinates":[-76.50494,37.22218]}},{"type":"Feature","properties":{"code":"OBRI","name":"Obed Wild and Scenic River","type":"National Wild & Scenic Rivers"},"geometry":{"type":"Point","coordinates":[-84.71156,36.09478]}},{"type":"Feature","properties":{"code":"ANIA","name":"Aniakchak National Monument","type":"National Monuments"},"geometry":{"type":"Point","coordinates":[-158.11783,56.89542]}},{"type":"Feature","properties":{"code":"FRSP","name":"Fredericksburg and Spotsylvania County Battlefields Memorial National Military Park","type":"National Military Parks"},"geometry":{"type":"Point","coordinates":[-77.74048,38.30069]}},{"type":"Feature","properties":{"code":"PETE","name":"Petersburg National Battlefield","type":"National Battlefields"},"geometry":{"type":"Point","coordinates":[-77.61973,37.14181]}},{"type":"Feature","properties":{"code":"PORE","name":"Point Reyes National Seashore","type":"National Seashores"},"geometry":{"type":"Point","coordinates":[-122.91085,38.0714]}},{"type":"Feature","properties":{"code":"ORPI","name":"Organ Pipe Cactus National Monument","type":"National Monuments"},"geometry":{"type":"Point","coordinates":[-112.85731,32.0357]}},{"type":"Feature","properties":{"code":"DELA","name":"Middle Delaware National Scenic River","type":"National Wild & Scenic Rivers"},"geometry":{"type":"Point","coordinates":[-74.80973,41.29876]}},{"type":"Feature","properties":{"code":"CALO","name":"Cape Lookout National Seashore","type":"National Seashores"},"geometry":{"type":"Point","coordinates":[-76.52215,34.64648]}},{"type":"Feature","properties":{"code":"TIMU","name":"Timucuan Ecological and Historic Preserve","type":"National Preserves"},"geometry":{"type":"Point","coordinates":[-81.46586,30.40492]}},{"type":"Feature","properties":{"code":"PAIS","name":"Padre Island National Seashore","type":"National Seashores"},"geometry":{"type":"Point","coordinates":[-97.3523,27.35266]}},{"type":"Feature","properties":{"code":"LAMR","name":"Lake Meredith National Recreation Area","type":"National Recreation Areas"},"geometry":{"type":"Point","coordinates":[-101.69272,35.59992]}},{"type":"Feature","properties":{"code":"ROLA","name":"Ross Lake National Recreation Area","type":"National Recreation Areas"},"geometry":{"type":"Point","coordinates":[-121.03755,48.90609]}},{"type":"Feature","properties":{"code":"ELMA","name":"El Malpais National Monument","type":"National Monuments"},"geometry":{"type":"Point","coordinates":[-107.97487,34.80664]}},{"type":"Feature","properties":{"code":"PIRO","name":"Pictured Rocks National Lakeshore","type":"National Lakeshores"},"geometry":{"type":"Point","coordinates":[-86.39241,46.53106]}},{"type":"Feature","properties":{"code":"CACO","name":"Cape Cod National Seashore","type":"National Seashores"},"geometry":{"type":"Point","coordinates":[-70.02318,41.97913]}},{"type":"Feature","properties":{"code":"CURE","name":"Curecanti National Recreation Area","type":"National Recreation Areas"},"geometry":{"type":"Point","coordinates":[-107.19924,38.46882]}},{"type":"Feature","properties":{"code":"GWMP","name":"George Washington Memorial Parkway","type":"Parkways"},"geometry":{"type":"Point","coordinates":[-77.04826,38.76892]}},{"type":"Feature","properties":{"code":"UPDE","name":"Upper Delaware Scenic and Recreational River","type":"National Wild & Scenic Rivers"},"geometry":{"type":"Point","coordinates":[-75.08368,41.80838]}},{"type":"Feature","properties":{"code":"BICY","name":"Big Cypress National Preserve","type":"National Preserves"},"geometry":{"type":"Point","coordinates":[-81.08111,25.97093]}},{"type":"Feature","properties":{"code":"CHAT","name":"Chattahoochee River National Recreation Area","type":"National Recreation Areas"},"geometry":{"type":"Point","coordinates":[-84.37953,33.97654]}},{"type":"Feature","properties":{"code":"CACH","name":"Canyon de Chelly National Monument","type":"National Monuments"},"geometry":{"type":"Point","coordinates":[-109.33895,36.09976]}},{"type":"Feature","properties":{"code":"SLBE","name":"Sleeping Bear Dunes National Lakeshore","type":"National Lakeshores"},"geometry":{"type":"Point","coordinates":[-86.07699,44.73304]}},{"type":"Feature","properties":{"code":"KAWW","name":"Katahdin Woods and Waters National Monument","type":"National Monuments"},"geometry":{"type":"Point","coordinates":[-68.73074,45.95197]}},{"type":"Feature","properties":{"code":"MISS","name":"Mississippi National River and Recreation Area","type":"National Rivers"},"geometry":{"type":"Point","coordinates":[-93.00426,44.78647]}},{"type":"Feature","properties":{"code":"BISO","name":"Big South Fork National River and Recreation Area","type":"National Rivers"},"geometry":{"type":"Point","coordinates":[-84.68855,36.53607]}},{"type":"Feature","properties":{"code":"CAHA","name":"Cape Hatteras National Seashore","type":"National Seashores"},"geometry":{"type":"Point","coordinates":[-75.53932,35.24177]}},{"type":"Feature","properties":{"code":"NIOB","name":"Niobrara National Scenic River","type":"National Wild & Scenic Rivers"},"geometry":{"type":"Point","coordinates":[-100.2681,42.88685]}},{"type":"Feature","properties":{"code":"ALAG","name":"Alagnak Wild River","type":"National Wild & Scenic Rivers"},"geometry":{"type":"Point","coordinates":[-155.85935,59.03965]}},{"type":"Feature","properties":{"code":"APIS","name":"Apostle Islands National Lakeshore","type":"National Lakeshores"},"geometry":{"type":"Point","coordinates":[-91.03621,46.894]}},{"type":"Feature","properties":{"code":"GUIS","name":"Gulf Islands National Seashore","type":"National Seashores"},"geometry":{"type":"Point","coordinates":[-86.9411,30.3679]}},{"type":"Feature","properties":{"code":"BICA","name":"Bighorn Canyon National Recreation Area","type":"National Recreation Areas"},"geometry":{"type":"Point","coordinates":[-108.25289,45.10428]}},{"type":"Feature","properties":{"code":"DINO","name":"Dinosaur National Monument","type":"National Monuments"},"geometry":{"type":"Point","coordinates":[-108.95995,40.50917]}},{"type":"Feature","properties":{"code":"SAMO","name":"Santa Monica Mountains National Recreation Area","type":"National Recreation Areas"},"geometry":{"type":"Point","coordinates":[-118.70864,34.08073]}},{"type":"Feature","properties":{"code":"BUFF","name":"Buffalo National River","type":"National Rivers"},"geometry":{"type":"Point","coordinates":[-92.45897,36.11646]}},{"type":"Feature","properties":{"code":"NACA","name":"National Capital Parks","type":"Other Designations"},"geometry":{"type":"Point","coordinates":[-76.86421,39.01065]}},{"type":"Feature","properties":{"code":"MNRR","name":"Missouri National Recreational River","type":"National Wild & Scenic Rivers"},"geometry":{"type":"Point","coordinates":[-98.11334,42.80194]}},{"type":"Feature","properties":{"code":"DEWA","name":"Delaware Water Gap National Recreation Area","type":"National Recreation Areas"},"geometry":{"type":"Point","coordinates":[-74.90036,41.18558]}},{"type":"Feature","properties":{"code":"ANIA","name":"Aniakchak National Preserve","type":"National Preserves"},"geometry":{"type":"Point","coordinates":[-157.67321,56.86512]}},{"type":"Feature","properties":{"code":"KATM","name":"Katmai National Preserve","type":"National Preserves"},"geometry":{"type":"Point","coordinates":[-155.31988,59.11351]}},{"type":"Feature","properties":{"code":"OZAR","name":"Ozark National Scenic Riverways","type":"National Rivers"},"geometry":{"type":"Point","coordinates":[-91.16962,37.15743]}},{"type":"Feature","properties":{"code":"GOGA","name":"Golden Gate National Recreation Area","type":"National Recreation Areas"},"geometry":{"type":"Point","coordinates":[-122.74535,38.02915]}},{"type":"Feature","properties":{"code":"MOJA","name":"Mojave National Preserve","type":"National Preserves"},"geometry":{"type":"Point","coordinates":[-115.51437,35.11418]}},{"type":"Feature","properties":{"code":"BITH","name":"Big Thicket National Preserve","type":"National Preserves"},"geometry":{"type":"Point","coordinates":[-94.68233,30.60859]}},{"type":"Feature","properties":{"code":"RIGR","name":"Rio Grande Wild and Scenic River","type":"National Wild & Scenic Rivers"},"geometry":{"type":"Point","coordinates":[-103.08884,29.05991]}},{"type":"Feature","properties":{"code":"LARO","name":"Lake Roosevelt National Recreation Area","type":"National Recreation Areas"},"geometry":{"type":"Point","coordinates":[-118.17042,48.32322]}},{"type":"Feature","properties":{"code":"CRMP","name":"Craters of the Moon National Preserve","type":"National Preserves"},"geometry":{"type":"Point","coordinates":[-113.48277,43.15187]}},{"type":"Feature","properties":{"code":"CAKR","name":"Cape Krusenstern National Monument","type":"National Monuments"},"geometry":{"type":"Point","coordinates":[-163.55538,67.37701]}},{"type":"Feature","properties":{"code":"SACN","name":"Saint Croix National Scenic Riverway","type":"National Wild & Scenic Rivers"},"geometry":{"type":"Point","coordinates":[-91.75947,45.93757]}},{"type":"Feature","properties":{"code":"CHOH","name":"Chesapeake and Ohio Canal National Historical Park","type":"National Historical Parks"},"geometry":{"type":"Point","coordinates":[-78.45164,39.56005]}},{"type":"Feature","properties":{"code":"GLCA","name":"Glen Canyon National Recreation Area","type":"National Recreation Areas"},"geometry":{"type":"Point","coordinates":[-110.82993,37.44839]}},{"type":"Feature","properties":{"code":"NATR","name":"Natchez Trace Parkway","type":"Parkways"},"geometry":{"type":"Point","coordinates":[-90.80265,32.08852]}},{"type":"Feature","properties":{"code":"AMIS","name":"Amistad National Recreation Area","type":"National Recreation Areas"},"geometry":{"type":"Point","coordinates":[-101.02821,29.48859]}},{"type":"Feature","properties":{"code":"LAKE","name":"Lake Mead National Recreation Area","type":"National Recreation Areas"},"geometry":{"type":"Point","coordinates":[-114.44641,36.09014]}},{"type":"Feature","properties":{"code":"DENA","name":"Denali National Preserve","type":"National Preserves"},"geometry":{"type":"Point","coordinates":[-152.0764,63.58076]}},{"type":"Feature","properties":{"code":"GAAR","name":"Gates of the Arctic National Preserve","type":"National Preserves"},"geometry":{"type":"Point","coordinates":[-154.65083,66.82614]}},{"type":"Feature","properties":{"code":"LACL","name":"Lake Clark National Preserve","type":"National Preserves"},"geometry":{"type":"Point","coordinates":[-153.78488,61.02589]}},{"type":"Feature","properties":{"code":"YUCH","name":"Yukon-Charley Rivers National Preserve","type":"National Preserves"},"geometry":{"type":"Point","coordinates":[-143.09266,65.07503]}},{"type":"Feature","properties":{"code":"APPA","name":"Appalachian National Scenic Trail","type":"National Scenic Trails"},"geometry":{"type":"Point","coordinates":[-82.98347,35.79561]}},{"type":"Feature","properties":{"code":"BELA","name":"Bering Land Bridge National Preserve","type":"National Preserves"},"geometry":{"type":"Point","coordinates":[-164.40477,66.14337]}},{"type":"Feature","properties":{"code":"NOAT","name":"Noatak National Preserve","type":"National Preserves"},"geometry":{"type":"Point","coordinates":[-161.37842,68.09452]}},{"type":"Feature","properties":{"code":"WRST","name":"Wrangell-St. Elias National Preserve","type":"National Preserves"},"geometry":{"type":"Point","coordinates":[-141.8454,62.16553]}},{"type":"Feature","properties":{"code":"BLRI","name":"Blue Ridge Parkway","type":"Parkways"},"geometry":{"type":"Point","coordinates":[-81.17385,36.40693]}}]}